,Address,City,State,Zip,id,link,name,phone
0,"2221 E. NORTHERN LIGHTS, SUITE 120",ANCHORAGE,AK,99508,9397,http://chartercollege.edu/,CHARTER COLLEGE,907-777-1324
1,156 COLLEGE ROAD,SOLDOTNA,AK,99669,8139,http://www.kpc.alaska.edu/kpc/,KENAI PENINSULA COLLEGE,907) 262-0327
2,117 BENNY BENSON DRIVE,KODIAK,AK,99615,9664,http://www.koc.alaska.edu/,KODIAK COLLEGE,907-486-1211
3,8295 E COLLEGE DR,PALMER,AK,99645,8578,http://www.matsu.alaska.edu/,MATANUSKA-SUSITNA COLLEGE,907) 745-9713
4,"EIELSON AIR FORCE BASE, EDUCATION CENTER, 2631 WABASH AVE. ROOM 204",EIELSON,AK,99702,7154,http://www.uaf.edu/,UNIVERSITY OF ALASKA,907-474-5277
5,"3901 OLD SEWARD HIGHWAYUNIVERSITY CENTER, ROOM 112",ANCHORAGE,AK,99503,9043,http://www.uaa.alaska.edu/advising-testing/testing-and-assessment/index.cfm,UNIVERSITY OF ALASKA,907-786-4525
6,"314 S. CHANDALAR ST.GRUENING BLDG., ROOM 211",FAIRBANKS,AK,99775,9349,http://www.uaf.edu/testing/,UNIVERSITY OF ALASKA,907) 474-5277
7,UAF CTC 604 BARNETTE STREET,FAIRBANKS,AK,99701,8312,https://www.ctc.uaf.edu/,"UNIVERSITY OF ALASKA FAIRBANKS, COMMUNITY AND TECHNICAL COLLEGE",907) 455-2851
8,4391 NEELY RD,FORT WAINWRIGHT,WA,99703,7373,http://www.ctc.uaf.edu/,"UNIVERSITY OF ALASKA FT WAINWRIGHT, COMMUNITY AND TECHNICAL COLLEGE",907) 356-3826
9,2600 SEVENTH AVENUE,KETCHIKAN,AK,5798,8295,http://www.ketch.alaska.edu/,UNIVERSITY OF ALASKA SOUTHEAST,907-225-6171
10,11066 AUKE LAKE WAY,JUNEAU,AK,99801,7870,http://www.uas.alaska.edu/,UNIVERSITY OF ALASKA SOUTHEAST - JUNEAU,907) 796-6348
11,7801 E. 32ND AVENUE,ANCHORAGE,AK,99504,7105,http://www.wbu.edu/colleges-in-anchorage/,WAYLAND BAPTIST UNIVERSITY,907-333-2277
12,4900 MERIDIAN ST,NORMAL,AL,35762,9234,http://www.aamu.edu/,ALABAMA A&M; UNIVERSITY,256-372-5635
13,300 NORTH BEATY STREET,ATHENS,AL,35611,9048,http://www.athens.edu/,ATHENS STATE UNIVERSITY,256-233-6540
14,"ARMY EDUCATION CENTER , BLDG 3222",REDSTONE ARSENAL,AR,35898,7200,http://www.ccis.edu/nationwide/redstone/,COLUMBIA COLLEGE,256-881-6181
15,5345 ATLANTA HIGHWAY,MONTGOMERY,AL,36109,8036,http://www.faulkner.edu/,FAULKNER UNIVERSITY,334-386-7247
16,7000 ADVENTIST BOULEVARD,HUNTSVILLE,AL,35896,8321,http://www.oakwood.edu/,OAKWOOD COLLEGE,256-726-7134
17,"SHARP-DEAN SCHOOL OF CONTINUING STUDIES, INC",1910 NOBLE STREET ,NO,2101,8812,256-238-0466,"SHARP-DEAN SCHOOL OF CONTINUING STUDIES, INC","ANNISTON, AL   36201"
18,4000 DAUPHIN STREET,MOBILE,AL,36608,8605,http://www.shc.edu/,SPRING HILL COLLEGE,251-380-3069
19,"4955 CORPORATE DRIVE, SUITE 200",HUNTSVILLE,AL,35805,8693,http://www.strayer.edu/,STRAYER UNIVERSITY,256-665-9729
20,"3570 GRANDVIEW PARKWAY, STE 200",BIRMINGHAM,AL,35243,8430,http://www.strayer.edu/,STRAYER UNIVERSITY,205-453-6329
21,301 SPARKMAN DR. NW WILSON HALL ROOM 202,HUNTSVILLE,AL,35899,9462,http://www.uah.edu/pcs/testing-certification-services,THE UNIVERSITY OF ALABAMA IN HUNTSVILLE,256) 824-6373
22,100 UNIVERSITY PARK,TROY,AL,36082,9344,http://www.troy.edu/,TROY UNIVERSITY,334-808-6219
23,"231 MONTGOMERY STREETWHITLEY HALL, ROOM 431",MONTGOMERY,AL,3507,8627,http://www.troy.edu/,TROY UNIVERSITY,334-241-9532
24,501 UNIVERSITY DRIVE,DOTHAN,AL,36303,9402,http://www.troy.edu/,TROY UNIVERSITY,334-983-6556 X1286
25,4502 KINGSMAN STREET,FORT RUCKER,RU,36362,7187,http://www.troy.edu/,TROY UNIVERSITY,334-598-2443
26,"205 STUDENT SERVICES CENTER, 801 CAMPUS DRIVE",TUSCALOOSA,AL,0108,9348,http://www.ua.edu/,UNIVERSITY OF ALABAMA,205-348-6000
27,"936 BUILDING, 170 2ND AVENUE SOUTH",BIRMINGHAM,AL,1150,9948,http://www.uab.edu/testing/,UNIVERSITY OF ALABAMA AT BIRMINGHAM,205-934-3704
28,"1 HARRISON PLAZATHE COMMONS BUILDING, ROOM 214",FLORENCE,AL,35634,8619,http://www.una.edu/,UNIVERSITY OF NORTH ALABAMA,256)765-4773
29,"20 NORTH PINE STREET, BUILDING 501",MAXWELL AFB,AF,36112,7354,http://www.wbu.edu/,WAYLAND BAPTIST UNIVERSITY,334-953-3637
30,"1490 VANDENBERG BLVD, SUITE 115",JACKSONVILLE,AR,72099,7125,http://www.asub.edu/academic_programs/support/registrar/,ARKANSAS STATE UNIVERSITY - LRAFB CENTER,501) 988-4151
31,"UNIVERSITY TESTING, 1605 COLISEUM DRIVE, DOC BRYAN SUITE 171",RUSSELLVILLE,AR,72801,8587,http://www.atu.edu/,ARKANSAS TECHNICAL UNIVERSITY,479-968-0302
32,"1100 HENDERSON STREET, PO BOX 7650",ARKADELPHIA,AR,71923,8819,http://www.hsu.edu/,HENDERSON STATE UNIVERSITY,870-230-5470
33,"2807 AJAX AVENUE, SUITE 200",ROGERS,AR,72758,9667,http://www.jbu.edu/,JOHN BROWN UNIVERSITY,479-631-4665
34,2000 WEST UNIVERSITY,SILOAM SPRINGS,SP,72761,8066,http://www.jbu.edu/,JOHN BROWN UNIVERSITY,479-524-7103
35,"1401 S. WALDRON ROAD, SUITE 201",FORT SMITH,SM,72903,8313,http://www.jbu.edu/,JOHN BROWN UNIVERSITY,479) 648-0082
36,"8114 CANTRELL ROAD, SUITE 250",LITTLE ROCK,RO,72227,8299,http://www.jbu.edu/,JOHN BROWN UNIVERSITY - LITTLE ROCK CENTER,501-771-9000
37,101 COLLEGE DRIVE,HOT SPRINGS,SP,71913,7930,http://www.npcc.edu/,NATIONAL PARK COLLEGE,501) 760-4376
38,ONE COLLEGE DRIVESTUDENT CENTER 306,BENTONVILLE,AR,72712,9798,http://www.nwacc.edu/,NORTHWEST ARKANSAS COMMUNITY COLLEGE,479) 986-4078
39,"100 EAST UNIVERSITY STREET, P.O. BOX 9371",MAGNOLIA,AR,71754,8790,http://www.saumag.edu/,SOUTHERN ARKANSAS UNIVERSITY,870-235-4145
40,"10825 FINANCIAL CENTRE PARKWAY, SUITE 400",LITTLE ROCK,RO,72211,7949,http://www.strayer.edu/,STRAYER UNIVERSITY,501-708-0629
41,"TESTING SERVICES, 1435 W WALTON ST, 1 UNIVERSITY OF ARKANSAS",FAYETTEVILLE,AR,72701,8701,http://test.uark.edu/,UNIVERSITY OF ARKANSAS,479-575-3948
42,"2801 S. UNIVERSITY AVENUE, SSC 315",LITTLE ROCK,RO,72204,9448,http://www.ualr.edu/testing/,UNIVERSITY OF ARKANSAS - LITTLE ROCK CAMPUS,501) 569-3198
43,"201 DONAGHEY AVENUE, TORREYSON WEST 315",CONWAY,AR,72035,7257,http://www.uca.edu/ubulletin/02/204.html,UNIVERSITY OF CENTRAL ARKANSAS,501-450-3209
44,"1130 E UNIVERSITY AVE, SUITE 204",TEMPE,AZ,85281,9943,http://www.asu.edu/uts/,ARIZONA STATE UNIVERSITY,480) 965-7146
45,2020 SOUTH AVENUE 8 E,YUMA,AZ,85366,8475,http://www.azwestern.edu/,ARIZONA WESTERN COLLEGE,928-344-7641
46,2555 E CAMELBACK ROAD SUITE 250,PHOENIX,AZ,85016,9594,https://www.ashford.edu/,"ASHFORD UNIVERSITY - PHOENIX, AZ",866) 974-5700 X20408
47,901 N. COLOMBO AVENUE,SIERRA VISTA,VI,85635,8143,http://www.cochise.edu/,COCHISE COLLEGE,520-515-5447
48,4190 WEST HIGHWAY 80,DOUGLAS,AZ,85607,9345,http://www.cochise.edu/testing,COCHISE COLLEGE,520) 515-5447
49,ARMY EDUCATION CENTER,FORT HUACHUCA,HU,85613,7202,http://www.cochise.edu/,COCHISE COLLEGE,520-515-5307
50,2149 W. DUNLAP AVENUE,PHOENIX,AZ,85021,7837,http://www.devry.edu/,DEVRY UNIVERSITY,602-749-4544
51,MESA COMMUNITY COLLEGE,1833 W,SO,,9901,http://www.mc.maricopa.edu/,MESA COMMUNITY COLLEGE,"MESA, AZ   85202"
52,9414 NORTH 25TH AVENUE,PHOENIX,AZ,85021,8589,http://www.ottawa.edu/,OTTAWA UNIVERSITY,602) 749-5177
53,1255 NORTH STONE AVENUE,TUCSON,AZ,85709,9280,http://www.pima.edu/,PIMA COMMUNITY COLLEGE,520-206-6143
54,5355 E. GRANITE STREET,DAVIS MONTHAN AFB,MO,3009,7152,http://www.asub.edu,PIMA COMMUNITY COLLEGE,520) 206-4866
55,12535 W SMOKEY DR,SURPRISE,AZ,85378,8881,http://www.riosalado.edu/,RIO SALADO COMMUNITY COLLEGE - LIFE LONG LEARNING CENTER,480) 377-4290
56,"56TH MISSION SUPPORT CENTER (BUILDING 1150) ROOM 3138,7383 NORTH LITCHFIELD ROAD",LUKE AFB,AF,85309,7153,http://www.riosalado.edu/,RIO SALADO COMMUNITY COLLEGE - LUKE AIRFORCE BASE,480) 377-4011
57,2323 WEST 14TH STREET,TEMPE,AZ,85281,9931,http://www.riosalado.edu/,RIO SALADO COMMUNITY COLLEGE - TEMPE CAMPUS,480) 517-8560
58,"220 W. 6TH STREET, ROOM B116",TUCSON,AZ,85719,9350,http://www.arizona.edu/,UNIVERSITY OF ARIZONA - TESTING CENTER,520) 621-7589
59,THIS TESTING LOCATION ONLY ACCEPTS CREDIT CARD FOR THE ADMINISTRATION/PROCTOR FEE PAYMENT. THIS FEE IS NON-REFUNDABLE. 1625 W. FOUNTAINHEAD PARKWAY,TEMPE,AZ,85282,8231,http://www.phoenix.edu/,UNIVERSITY OF PHOENIX - MAIN CAMPUS,480) 804-7600
60,"THIS TESTING LOCATION ONLY ACCEPTS CREDIT CARD FOR THE ADMINISTRATION/PROCTOR FEE PAYMENT. THIS FEE IS NON-REFUNDABLE.2550 WEST UNION HILLS DRIVE, SUITE #100",PHOENIX,AZ,85027,9057,http://www.phoenix.edu/,UNIVERSITY OF PHOENIX - NORTHWEST LEARNING CENTER,480) 804-7600
61,"THIS TESTING LOCATION ONLY ACCEPTS CREDIT CARD FOR THE ADMINISTRATION/PROCTOR FEE PAYMENT. THIS FEE IS NON-REFUNDABLE.9520 WEST PALM LANE, SUITE #150",PHOENIX,AZ,85037,9106,http://www.phoenix.edu/,UNIVERSITY OF PHOENIX- WEST VALLEY LEARNING CENTER,480) 804-7600
62,300 S CRAYCROFT RD,TUCSON,AZ,85711,8248,http://www.phoenix.edu/,UNIVERSITY OF PHOENIX - WILLIAMS CENTRE LEARNING CENTER,520) 239-5225
63,899 E. PLAZA CIRCLE,YUMA,AZ,85365,8978,http://www.phoenix.edu/,UNIVERSITY OF PHOENIX - YUMA LEARNING CENTER,928) 210-1472
64,"2702 NORTH 3RD STREET, STE 1050",PHOENIX,AZ,85004,8214,http://www.wbu.edu/colleges-in-phoenix/,WAYLAND BAPTIST UNIVERSITY,602-279-1011
65,"140 METHUSA AVE., BLDG 2453",EDWARDS AFB,AF,93524,9204,http://www.amu.apus.edu,AMERICAN PUBLIC UNIVERSITY SYSTEM - EDWARDS AFB NTC,661) 524-4431
66,400 CORPORATE POINTE,CULVER CITY,CI,7615,8704,http://www.antiochla.edu/,ANTIOCH UNIVERSITY - LOS ANGELES,310-578-1080 X206
67,8620 SPECTRUM CENTER BLVD,SAN DIEGO,DI,92123,9182,http://www.ashford.edu,ASHFORD UNIVERSITY - SAN DIEGO,866) 974-5700
68,"LEARNING ENRICHMENT CENTER, 901 E. ALOSTA AVENUE",AZUSA,CA,91702,7946,http://www.apu.edu/,AZUSA PACIFIC UNIVERSITY,626-815-3849
69,2700 BARSTOW ROAD,BARSTOW,CA,92311,9053,http://www.barstow.cc.edu/,BARSTOW COMMUNITY COLLEGE,760-252-2411 X7373
70,FORT ERWINBARSTOW ROAD BUILDING 285,FORT IRWIN,IR,5060,7138,http://www.barstow.cc.edu/,BARSTOW COMMUNITY COLLEGE - FORT IRWIN CAMPUS,760) 380-3905
71,7460 MISSION VALLEY ROAD,SAN DIEGO,DI,92108,9300,http://www.brandman.edu/,BRANDMAN UNIVERSITY,619-296-8660
72,"40015 SIERRA HIGHWAY, B160",PALMDALE,CA,93550,9836,http://www.brandman.edu,BRANDMAN UNIVERSITY,661-267-2001
73,"MONTEREY, CA   93940",831,,3738,7338,http://www.brandman.edu/monterey/,BRANDMAN UNIVERSITY - MONTEREY CAMPUS,831) 647-3726
74,"MONTEREY, CA   93940",831,,3738,9655,http://www.brandman.edu,BRANDMAN UNIVERSITY - MONTEREY CAMPUS,831) 647-3736
75,1000 EAST VICTORIA STREET,CARSON,CA,90747,9078,http://www.csudh.edu/,CALIFORNIA STATE UNIVERSITY - DOMINGUEZ HILLS,310-243-3909
76,CALIFORNIA STATE UNIVERSITY - FRESNO CAMPUS,PLEASE FOLLOW THE LINK BELOW TO REGISTERFAMILY ,FO,,9498,http://fresnostate.edu/studentaffairs/examination/,CALIFORNIA STATE UNIVERSITY - FRESNO CAMPUS,"FRESNO, CA   93740"
77,"3335 BUCHANAN STREET, BUILDING 152",SAN DIEGO,DI,92136,7229,http://www.ctcd.edu/,CENTRAL TEXAS COLLEGE,800-784-5470
78,"NAVY CAMPUS PACIFIC, 1000 ROE STREET, BUILDING 2005",SAN DIEGO,DI,7024,7188,http://www.ctcd.edu/,CENTRAL TEXAS COLLEGE,800-784-5470
79,"5405 GARDEN GROVE BLVD, SUITE 100",WESTMINSTER,CA,92683,7313,http://military.coastline.edu/,COASTLINE COMMUNITY COLLEGE,714-241-4967
80,BLDG 1331 BOX 555020A STREET &AMP; 12TH STREET BLDG. 1331,CAMP PENDLETON,PE,92055,7252,http://military.coastline.edu/,COASTLINE COMMUNITY COLLEGE,619-375-8377
81,COASTLINE COMMUNITY COLLEGE,140 SYLVESTER RD,SY,103,7228,619-726-3664,COASTLINE COMMUNITY COLLEGE,"SAN DIEGO, CA   92106"
82,8888 BALBOA AVENUE,SAN DIEGO,DI,92123,8734,http://www.coleman.edu/,COLEMAN UNIVERSITY,858) 966-3970
83,"PALM DESERT, CA   92260",760,,7420,8864,http://collegeofthedesert.edu/community/pace/pages/pex.aspx,"COLLEGE OF THE DESERT, PACE",http://www.collegeofthedesert.edu/pace
84,883 W. WASHINGTON BOULEVARD,CRESCENT CITY,CI,8361,9766,http://www.redwoods.cc.ca.us/,COLLEGE OF THE REDWOODS,707-465-2306
85,826 HANCOCK CIRCLE,NAS LEMOORE,LE,5009,7178,http://www.ccis.edu/nationwide/lemoore/,COLUMBIA COLLEGE,559-998-8570
86,3880 KILROY AIRPORT WAY,LONG BEACH,BE,90806,7832,http://www.devry.edu/,DEVRY UNIVERSITY,562-997-5336
87,"BURBANK, CA   91502",818,,4924,9302,http://www.doveds.com,DOV EDUCATIONAL SERVICES,TEST@DOVEDS.COM.
88,"5001 AIRPORT PLAZA DRIVE, SUITE 150",LONG BEACH,BE,90815,8718,http://www.erau.edu/,EMBRY-RIDDLE AERONAUTICAL UNIVERSITY,562-627-5870
89,1819 SOUTH EXCISE AVENUE,ONTARIO,CA,8525,8251,http://www.everest.edu/,EVEREST COLLEGE,909-484-4311
90,"9251 E GARVEY AVE, GOLDEN VISTA PLAZA - SUITE V",EL MONTE,MO,91733,8222,http://www.eznetwork.com/,EZ NETWORK SYSTEMS / ALISO INT\\\'L,626) 715-8777
91,"12345 ELMONTE ROAD, RM 5006",LOS ALTOS,AL,94022,9826,http://www.foothill.edu/,FOOTHILL COLLEGE,650-949-7230 X5426
92,321 E. CHAPMAN AVENUE,FULLERTON,CA,92832,8029,http://www.fullcoll.edu/,FULLERTON COLLEGE,714-732-5533
93,"10850 WILSHIRE BLVD, SUITE 570",LOS ANGELES,AN,90024,8503,http://www.geps.org/,GLOBAL EDUCATION PLACEMENT SERVICES,424) 901-8500
94,2500 E. NUTWOOD AVENUE,FULLERTON,CA,92831,8540,http://www.hui.edu/,HOPE INTERNATIONAL UNIVERSITY,714-879-3901 X3561
95,HUMBOLDT STATE UNIVERSITY,1 HARPST STREET,HA,,7814,707-826-5661,HUMBOLDT STATE UNIVERSITY,"ARCATA, CA   95521"
96,"4201 WILSHIRE BLVD, SUITE 610",LOS ANGELES,AN,90010,8476,http://www.iau.la/,INTERNATIONAL AMERICAN UNIVERSITY,323-938-4428
97,"5500 IRVINE CENTER, A-304",IRVINE,CA,92618,7963,http://www.ivc.edu/,IRVINE VALLEY COLLEGE,949-451-5100
98,4500 RIVERWALK PARKWAY,RIVERSIDE,CA,92515,8750,http://www.lasierra.edu/,LA SIERRA UNIVERSITY,951-785-2453
99,9393 LIGHTWAVE AVENUE #233A,SAN DIEGO,DI,92123,7858,http://www.nu.edu/,NATIONAL UNIVERSITY,858) 541-7951
100,NATIONAL UNIVERSITY - 29 PALMS BASE,NATIONAL UNIVERSITY BLDG 1526,UN,,7213,760) 830-6887,NATIONAL UNIVERSITY - 29 PALMS BASE,"29 PALMS, CA   92278"
101,"MCAS MIRAMAR, BUILDING 5305",SAN DIEGO,DI,92145,7250,http://www.nu.edu/,NATIONAL UNIVERSITY - MIRAMAR NAS BASE,619) 563-7355
102,"1835 W. ORANGEWOOD, SUITE 200",ORANGE,CA,92868,8193,http://www.nrclc.com/,NR COMPUTER LEARNING CENTER,714) 505-3475
103,ONE ANGWIN AVENUE,ANGWIN,CA,94508,8631,http://www.puc.edu/,PACIFIC UNION COLLEGE,707-965-7080
104,4007 CAMINO DEL RIO SOUTH,SAN DIEGO,DI,92108,8793,http://www.pointloma.edu/,POINT LOMA NAZARENE UNIVERSITY,619) 563-2812
105,3600 WORKMAN MILL ROAD,WHITTIER,CA,90601,9176,http://www.riohondo.edu/,RIO HONDO COLLEGE,562-692-0921 X3247
106,3835 FREEPORT BOULEVARD,SACRAMENTO,CA,95822,8325,http://www.scc.losrios.edu/,SACRAMENTO CITY COLLEGE,916-558-2540
107,"6130 FREEPORT BLVD, SUITE 200A",SACRAMENTO,CA,95822,7897,http://www.sactestproctoring.com/,SACRAMENTO TEST PROCTORING SERVICES,916-591-5003
108,"NAVY BASE, 32ND STREET",SAN DIEGO,DI,92136,7196,http://www.sdccd.edu/,SAN DIEGO CITY COLLEGE,619-556-4320
109,"MARINE CORPS AIR STATION MIRAMAR, BUILDING 5305 MIRAMAR WAY",SAN DIEGO,DI,92145,7134,http://www.sdccd.edu/,SAN DIEGO CITY COLLEGE,858-586-1577
110,5500 CAMPANILE DRIVE,SAN DIEGO,DI,7449,7862,http://www.sa.sdsu.edu/testofc/,SAN DIEGO STATE UNIVERSITY,619-594-5216
111,34050 COUNTY LINE ROAD,YUCAIPA,CA,92399,8846,http://www.simplexunited.com,SIMPLEX UNITED BUSINESS AND CAREER CENTER,909) 795-4979
112,1801 E. COTATI AVE.,ROHNERT PARK,PA,94928,8264,http://www.sonoma.edu/,SONOMA STATE UNIVERSITY,707-664-2880
113,21726 PLACERITA CANYON ROAD,SANTA CLARITA,CL,91321,8730,http://www.masters.edu/,THE MASTER'S COLLEGE,661-259-3540 X3002 or X3003
114,TOURO UNIVERSITY WORLDWIDE,10601 CALLE LEE,CA,179,7142,480) 652-0777,TOURO UNIVERSITY WORLDWIDE,"LOS ALAMITOS, CA   90720"
115,T.T.I.,241 S DETROIT ST,DE,,9239,323-938-5196,T.T.I.,"LOS ANGELES, CA   90036"
116,160 PROMENADE CIRCLE STE. 115,SACRAMENTO,CA,95833,8192,https://myunion.edu/,UNION INSTITUTE &AMP; UNIVERSITY - SACRAMENTO ACADEMIC CENTER,916) 692-7843
117,UNITED STATES UNIVERSITY,830 BAY BOULEVARD,BA,,9437,619-651-2482,UNITED STATES UNIVERSITY,"CHULA VISTA, CA   92007"
118,"4119 BROAD STREET, STE. 200",SAN LUIS OBISPO,LU,93401,9269,http://laverne.edu/locations/san-luis-obispo/,UNIVERSITY OF LA VERNE,805-788-6200
119,1950 THIRD STREET,LA VERNE,VE,91750,9353,http://laverne.edu/locations/laverne/,UNIVERSITY OF LA VERNE,909-593-3511
120,BUILDING 162 NORTH MUGU RD.,POINT MUGU NAWC,MU,93042,7318,http://laverne.edu/locations/point-mugu/,UNIVERSITY OF LA VERNE,805-986-6900
121,"641 UTAH AVEBLDG. 13640, SUITE 230",VANDENBERG AFB,AF,93437,7204,http://laverne.edu/locations/vafb/,UNIVERSITY OF LA VERNE,805-734-6220
122,"2855 MICHELLE DRIVE, SUITE 250",IRVINE,CA,92606,8106,http://laverne.edu/locations/irvine/,"UNIVERSITY OF LA VERNE, ORANGE COUNTY REGIONAL CAMPUS",714-505-6936
123,"500 ESPLANADE DRIVE, SUITE 1000",OXNARD,CA,93036,8297,http://laverne.edu/locations/oxnard/,"UNIVERSITY OF LA VERNE, VENTURA COUNTY REGIONAL CAMPUS",805) 981-6020
124,"530 HICKAM AVENUE, ROOM C-111",TRAVIS AFB,AF,2751,7139,http://www.umuc.edu/,UNIVERSITY OF MARYLAND UNIVERSITY COLLEGE,707-344-6891
125,"1515 WEST. 190TH STREET, 2ND FLOOR",GARDENA,CA,90248,8235,http://www.phoenix.edu/,UNIVERSITY OF PHOENIX,800-888-1968
126,"SAN JOSE, CA   95134",408,,1167,9958,http://www.phoenix.edu/,UNIVERSITY OF PHOENIX,800-640-0622
127,2100 FRANKLIN STREET; SUITE 350,OAKLAND,CA,94612,9926,http://www.phoenix.edu/,UNIVERSITY OF PHOENIX,510-457-3328
128,1202 WEST AVENUE J,LANCASTER,CA,93534,8238,http://www.phoenix.edu/,UNIVERSITY OF PHOENIX,800-888-1968
129,"4900 CALIFORNIA AVENUE, TOWER A, SUITE 150-A",BAKERSFIELD,CA,93309,8741,http://www.phoenix.edu/,UNIVERSITY OF PHOENIX,661-633-0300 X63108
130,299 NORTH EUCLID,PASADENA,CA,91101,8236,http://www.phoenix.edu/,UNIVERSITY OF PHOENIX,800-888-1968
131,2481 CONSTITUTION DRIVE,LIVERMORE,CA,94551,8353,http://www.phoenix.edu/,UNIVERSITY OF PHOENIX,925-273-8137
132,180 OTAY LAKES ROAD,BONITA,CA,91902,9114,http://www.phoenix.edu/,UNIVERSITY OF PHOENIX- BONITA LEARNING CENTER,619) 205-4440
133,"45 E. RIVER PARK PLACE WESTSUITE 201, SECOND FLOOR",FRESNO,CA,93720,8368,http://www.phoenix.edu/,UNIVERSITY OF PHOENIX - CENTRAL VALLEY CAMPUS,559) 312-1133
134,"3150 BRISTOL STREET, SUITE 300",COSTA MESA,ME,92626,8240,http://www.phoenix.edu/,UNIVERSITY OF PHOENIX - COSTA MESA CAMPUS,800) 888-1968
135,3095 N. IMPERIAL AVENUE,EL CENTRO,CE,92243,9115,http://www.phoenix.edu/,UNIVERSITY OF PHOENIX - EL CENTRO LEARNING CENTER,760) 370-9020
136,"5253 BUSINESS CENTER DR, STE B",FAIRFIELD,CA,94534,8747,http://www.phoenix.edu,UNIVERSITY OF PHOENIX - FAIRFIELD LEARNING CENTER,707) 639-4305
137,6 CENTERPOINTE DRIVE SUITE 200,LA PALMA,PA,90623,9101,http://www.phoenix.edu/,UNIVERSITY OF PHOENIX - LA PALMA LEARNING CENTER,714) 735-5015
138,"5330 PIRRONE ROAD, BUILDING B",SALIDA,CA,95368,7744,http://www.phoenix.edu/,UNIVERSITY OF PHOENIX - MODESTO LEARNING CENTER,209) 543-3425
139,"25240 HANCOCK AVE, SUITE 200",MURRIETA,CA,92562,8963,http://www.phoenix.edu/,UNIVERSITY OF PHOENIX - MURRIETA LEARNING CENTER,951) 691-5625
140,3110 E. GUASTI ROAD,ONTARIO,CA,91761,8239,http://www.phoenix.edu/,UNIVERSITY OF PHOENIX - ONTARIO LEARNING CENTER,800) 888-1968
141,"2860 GATEWAY OAKS DRIVE, SUITE 100",SACRAMENTO,CA,95833,9975,http://www.phoenix.edu/,UNIVERSITY OF PHOENIX - SACRAMENTO VALLEY CAMPUS,916) 830-3809
142,"451 E VANDERBILT WAY, SUITE 100",SAN BERNARDINO,BE,92408,8976,http://www.phoenix.edu/,UNIVERSITY OF PHOENIX - SAN BERNARDINO,909) 677-3009
143,300 RANCHEROS DRIVE,SAN MARCOS,MA,92069,9123,http://www.phoenix.edu/,UNIVERSITY OF PHOENIX - SAN MARCOS LEARNING CENTER,760) 304-7300
144,"9645 GRANITE RIDGE DRIVE, STE 200",SAN DIEGO,DI,92123,8969,http://www.phoenix.edu/,UNIVERSITY OF PHOENIX - STONECREST LEARNING CENTER,858) 650-3800
145,301 EAST ACEQUIA AVENUE,VISALIA,CA,93291,9141,http://www.phoenix.edu/,UNIVERSITY OF PHOENIX - VISALIA LEARNING CENTER,559) 738-3320
146,"5955 DE SOTO AVE., SUITE 200",WOODLAND HILLS,HI,91367,9021,http://www.phoenix.edu/,UNIVERSITY OF PHOENIX - WOODLAND HILLS LEARNING CENTER,800) 888-1968
147,1409 N WALNUT GROVE AVE,ROSEMEAD,CA,91770,8490,http://www.uwest.edu/site/,UNIVERSITY OF THE WEST,626-571-8811
148,VICTORY UNIVERSITY - COAST GUARD CENTER,1001 S,SE,,7348,http://http://www.victory.edu/,VICTORY UNIVERSITY - COAST GUARD CENTER,"SAN PEDRO, CA   90731-0208"
149,140 METHUSA AVE,EDWARDS AFB,AF,93524,7339,http://webster.edu/,WEBSTER UNIVERSITY,661-258-8501
150,"483 N. AVIATION BOULEVARD, BUILDING 272, ROOM C2-302",EL SEGUNDO,SE,90245,7227,http://www.webster.edu/laafb,WEBSTER UNIVERSITY,310-607-8006
151,"1190 SARATOGA AVENUE, SUITE 210",SAN JOSE,JO,95129,9273,http://www.jessup.edu/,WILLIAM JESSUP UNIVERSITY - SAN JOSE CAMPUS,669) 400-7111
152,17849 16TH STREET,BEALE AFB,AF,95903,7119,http://www.yccd.edu/,YUBA COLLEGE,530-788-0973
153,2088 NORTH BEALE ROAD,MARYSVILLE,CA,95901,8083,http://www.yuba.cc.ca.us/,YUBA COMMUNITY COLLEGE DISTRICT,530-741-6700
154,5050 EDISON AVENUE SUITE 122,COLORADO SPRINGS,SP,80915,8710,https://www.acuskill.com/,ACUSKILL,719) 232-0932
155,"5401 WEST 20TH ST, PO BOX 69",GREELEY,CO,80634,8826,http://www.aims.edu,AIMS COMMUNITY COLLEGE,970-339-6299
156,104 EAST FOURTH STREET,LOVELAND,CO,80537,8125,http://www.aims.edu/,AIMS COMMUNITY COLLEGE,970-667-4611
157,260 COLLEGE AVENUE,FORT LUPTON,LU,80621,8484,http://www.aims.edu/,AIMS COMMUNITY COLLEGE,303-857-4022 X4303
158,5900 SOUTH SANTA FE DRIVE,LITTLETON,CO,9002,8797,http://www.arapahoe.edu/,ARAPAHOE COMMUNITY COLLEGE,303-797-5993
159,"2452 PATTERSON ROAD, SUITE 200",GRAND JUNCTION,JU,81505,8687,http://www.ccu.edu/,COLORADO CHRISTIAN UNIVERSITY,970-242-1811
160,"1260 KENNEDY AVENUE, TESTING CENTER",GRAND JUNCTION,JU,81501,8062,http://www.coloradomesa.edu/,COLORADO MESA UNIVERSITY,970-255-2751
161,500 KENNEDY DRIVE,RANGELY,CO,81648,7752,http://www.cncc.edu/,COLORADO NORTHWESTERN COMMUNITY COLLEGE,970) 675-3205
162,"7450 CAMPUS DRIVE, SUITE 100",COLORADO SPRINGS,SP,80920,9878,http://www.regis.edu/about-regis-university/campus-locations/colorado-springs.aspx,COLORADO SPRINGS CAMPUS,303-458-4941
163,16000 EAST CENTRETECH PARKWAY,AURORA,CO,80011,8825,http://www.ccaurora.edu/,COMMUNITY COLLEGE OF AURORA,303) 361-7431
164,"18401 E. A BASIN, STOP 97",BUCKLEY AFB,AF,80011,7191,http://www.ccaurora.edu,COMMUNITY COLLEGE OF AURORA,303) 360-4948
165,1201 5TH STREET,DENVER,CO,80204,8972,http://www.ccd.edu/testing/,COMMUNITY COLLEGE OF DENVER,303-556-2400
166,1765 U.S. HIGHWAY 50,DELTA,CO,81416,9482,http://www.dmavtc.tec.co.us/,DELTA MONTROSE AREA VOCATIONAL TECHNICAL CENTER,970-874-6565
167,"6380 SOUTH FIDDLERS GREEN CIRCLE, SUITE 200",GREENWOOD,VI,80111,9877,http://www.regis.edu/about-regis-university/campus-locations/denver-tech-center.aspx,DENVER TECH CENTER CAMPUS,303-458-4941
168,"1000 RIM DRIVE, NOBLE 287",DURANGO,CO,81301,9152,http://www.fortlewis.edu/,FORT LEWIS COLLEGE,970-382-6938
169,4616 SOUTH SHIELDS STREET,FORT COLLINS,CO,80526,7791,http://www.frontrange.edu/,FRONT RANGE COMMUNITY COLLEGE,970-204-8122
170,2190 MILLER DRIVE,LONGMONT,CO,80501,8364,http://www.frontrange.edu/,FRONT RANGE COMMUNITY COLLEGE,303-678-3722
171,3645 WEST 112TH AVENUE,WESTMINSTER,CO,80031,8003,http://www.frontrange.edu/,FRONT RANGE COMMUNITY COLLEGE - WESTMINSTER CAMPUS,303) 404-5301
172,920 BARLOW ROAD,FORT MORGAN,MO,80701,8832,http://www.morgancc.edu/,MORGAN COMMUNITY COLLEGE,970-542-3188
173,"1079 SPACE CENTER DRIVE, STE 140",COLORADO SPRINGS,SP,80915,8617,http://www.national.edu/,NATIONAL AMERICAN UNIVERSITY,719) 208-3800
174,1915 JAMBOREE DRIVE,COLORADO SPRINGS,SP,80920,8137,http://www.national.edu,NATIONAL AMERICAN UNIVERSITY,719) 590-8300
175,100 COLLEGE DR,STERLING,CO,80751,8769,http://www.njc.edu/,NORTHEASTERN JUNIOR COLLEGE,970-521-6657
176,1903 SAN JUAN AVENUE STUDENT SERVICES - MCBRIDE HALL ROOM #132,LA JUNTA,JU,81050,9268,http://www.ojc.edu/,OTERO JUNIOR COLLEGE,719) 384-6948
177,EDUCATION CENTER,PAFB,CO,80914,7145,http://www.ppcc.edu/,PIKES PEAK COMMUNITY COLLEGE,719-502-4300
178,"5675 SOUTH ACADEMY BLVD, TESTING CENTER C 36",COLORADO SPRINGS,SP,80906,9279,http://www.ppcc.edu/,PIKES PEAK COMMUNITY COLLEGE,719) 502-3370
179,EDUCATION CENTER,FORT CARSON,CA,80913,7146,http://www.ppcc.edu/,PIKES PEAK COMMUNITY COLLEGE,719-502-4200
180,EDUCATION SERVICES,USAFA,CO,80840,7144,http://www.ppcc.edu/,PIKES PEAK COMMUNITY COLLEGE,719-333-2898
181,"900 WEST ORMAN AVENUE, ACADEMIC BUILDING 150",PUEBLO,CO,81004,8599,http://www.pueblocc.edu/,PUEBLO COMMUNITY COLLEGE,719-549-3382
182,13300 W. 6TH AVE.,LAKEWOOD,CO,80228,7979,http://www.rrcc.edu//,RED ROCKS COMMUNITY COLLEGE,303 914 6720
183,REGISTER VIA BELOW WEBSITE3333 REGIS BLVD CLARKE HALL STE 241,DENVER,CO,80221,9938,http://regis.edu/testing,REGIS UNIVERSITY-FLAGSHIP CAMPUS,303) 458-4375
184,10004 PARK MEADOWS DRIVE,LONE TREE,TR,80124,8183,http://phoenix.edu,UNIVERSITY OF PHOENIX - COLORADO CAMPUS,303) 600-1178
185,"2 NORTH CASCADE AVENUE, SUITE 100",COLORADO SPRINGS,SP,80903,9137,http://www.phoenix.edu/,UNIVERSITY OF PHOENIX - COLORADO SPRINGS DOWNTOWN,719) 235-4058
186,85 ALUMNI ROAD,NEWINGTON,CT,06111,9928,http://www.cosc.edu/,CHARTER OAK STATE COLLEGE - TESTING CENTER,860) 515-3708
187,591 POQUONNOUCK ROAD,GROTON,CT,06340,9533,http://www.easternnct.edu/,EASTERN CONNECTICUT STATE UNIVERSITY,860-446-9457
188,900 LAFAYETTE BLVD,BRIDGEPORT,CT,4704,9454,http://www.hctc.commnet.edu/,HOUSATONIC COMMUNITY TECHNICAL COLLEGE,203-332-5217
189,"30 HAZEL TER, SUITE 4",WOODBRIDGE,CT,06525,8618,http://www.metrotestingct.com/,METRO TESTING SERVICE,203) 672-5758
190,"110 LENOX AVE, SUITE 102",STAMFORD,CT,06906,9338,http://www.metrotestingct.com/stamford1.html,METRO TESTING SERVICE- STAMFORD,203) 658-3702
191,"99 PRATT STREET, SUITE 209",HARTFORD,CT,06103,8416,http://www.patricksacademy.com/,PATRICK\\'S ACADEMY,866-920-0769
192,742 UPPER MAPLE STREET,DANIELSON,CT,06239,9605,http://www.qvcc.commnet.edu/,QUINEBAUG VALLEY COMMUNITY COLLEGE,860- 932- 4055
193,5151 PARK AVE,FAIRFIELD,CT,06825,8380,http://www.sacredheart.edu/,SACRED HEART UNIVERSITY,203-323-4959
194,574 NEW LONDON TURNPIKE,NORWICH,CT,06360,9233,http://www.trctc.commnet.edu/,THREE RIVERS COMMUNITY TECHNICAL COLLEGE,860) 215-9061
195,1133 15TH STREET NW,WASHINGTON,DC,20005,8351,http://www.strayer.edu/,STRAYER UNIVERSITY,202) 419-0485
196,"6830 LAUREL STREET, NW",WASHINGTON,DC,20012,9725,http://www.strayer.edu/,STRAYER UNIVERSITY,202-722-8118
197,112 BROOKLEY AVENUE,WASHINGTON,DC,20023,7180,http://www.umuc.edu/,UMUC NATIONAL TESTING CENTER - JOINT BASE ANACOSTIA-BOLLING,301) 887-7183
198,25 MASSACHUSETTS AVENUE,WASHINGTON,DC,20001,8956,http://phoenix.edu,UNIVERSITY OF PHOENIX - WASHINGTON DC CAMPUS,571) 227-7083
199,"DOVER, DE   19901-2277",302,,6143,9464,http://www.desu.edu/,DELAWARE STATE UNIVERSITY,302-857-SNOW (WEATHER LINE)
200,"1007 ORANGE STREET, SUITE 500",WILMINGTON,DE,19801,8594,http://www.springfieldcollege.edu/,SPRINGFIELD COLLEGE,302-658-5720 X214
201,"240 CONTINENTAL DRIVE, SUITE 108",NEWARK,DE,19713,9730,http://www.strayer.edu/,STRAYER UNIVERSITY,302-292-6129
202,"436 FSS/FSDE, 261 CHAD STREET, ROOM 301",DOVER,DE,19902,7121,http://www.wilmu.edu/,WILMINGTON UNIVERSITY,302-674-8726
203,5250 17TH STREET,SARASOTA,FL,34235,8212,http://www.argosyu.edu/,ARGOSY UNIVERSITY,941-379-0404
204,1403 N. HOWARD AVENUE,TAMPA,FL,33607,9042,http://www.argosyu.edu/,ARGOSY UNIVERSITY,813-463-7165
205,"5200 VINELINE ROAD, STE 100",ORLANDO,FL,32811,9685,http://www.belhaven.edu,BELHAVEN COLLEGE,407) 379-0114
206,3800 S. LECANTO HIGHWAY,LECANTO,FL,9026,7712,http://www.cf.edu/,CENTRAL FLORIDA COMMUNITY COLLEGE,352-249-1213
207,"3001 SW COLLEGE ROAD, BUILDING #5, 205 H",OCALA,FL,34474,8717,http://www.cf.edu/,CENTRAL FLORIDA COMMUNITY COLLEGE,352) 854-2322 EX. 1332
208,"250 CHAMBERS AVENUE, BUILDING 634, SUITE 023",NAS PENSACOLA,PE,32508,7217,http://military.coastline.edu/,COASTLINE COMMUNITY COLLEGE,850-455-9577
209,"2600 TECHNOLOGY DRIVE, SUITE 100",ORLANDO,FL,32804,9819,http://www.ccis.edu/nationwide/orlando/,COLUMBIA COLLEGE,407-293-9911
210,"1020 CENTRAL AVENUE, E-1",PATRICK AIR FORCE BASE,AI,32925,7128,http://www.ccis.edu/nationwide/pafb/,COLUMBIA COLLEGE,321-783-5506
211,3865 NORTH WICKHAM ROAD (10-218),MELBOURNE,FL,32935,8816,http://www.easternflorida.edu,EASTERN FLORIDA STATE COLLEGE,321) 433-5876
212,"SPECIAL PROGRAMS DIVISION, 4200 54TH AVENUE SOUTH",ST PETERSBURG,PE,33711,9551,http://www.eckerd.edu/,ECKERD COLLEGE,727) 864-8366
213,110 SUNSHINE MANOR,TALLAHASSEE,FL,32307,9099,http://www.famu.edu/,FLORIDA A &AMP; M UNIVERSITY,850-599-3333
214,777 GLADES ROAD,BOCA RATON,RA,33431,7726,http://www.fau.edu/,FLORIDA ATLANTIC UNIVERSITY,561) 297-3160
215,"10501 FGCU BLVD SOUTH, MCTARNAGHAN HALL, ROOM 204",FORT MYERS,MY,33965,9713,http://studentservices.fgcu.edu/testing,FLORIDA GULF COAST UNIVERSITY,239-590-7955
216,11200 SW 8TH ST,MIAMI,FL,33199,8000,https://testing.fiu.edu,FLORIDA INTERNATIONAL UNIVERSITY,305) 348-2116
217,3000 N.E. 151ST STREET,NORTH MIAMI,MI,33181,9463,http://testing.fiu.edu,FLORIDA INTERNATIONAL UNIVERSITY (BISCAYNE BAY CAMPUS),305) 919-4043
218,5901 COLLEGE ROAD,KEY WEST,WE,33040,8524,http://www.fkcc.edu/,FLORIDA KEYS COMMUNITY COLLEGE,305-809-3250 X250
219,15800 NW 42ND AVE,MIAMI GARDENS,GA,33054,7793,http://www.fmuniv.edu//,FLORIDA MEMORIAL UNIVERSITY,305-626-3600
220,111 LAKE HOLLINGSWORTH DRIVE,LAKELAND,FL,5698,9466,http://www.flsouthern.edu/,FLORIDA SOUTHERN COLLEGE,863-680-4299
221,5640 NEW WORLD AVE,JACKSONVILLE,FL,32221,7711,http://www.fscj.edu/mydegree/campuses/cecil-center/,FLORIDA STATE COLLEGE AT JACKSONVILLE - CECIL CENTER,904-779-4129
222,9911 OLD BAYMEADOWS RD,JACKSONVILLE,FL,32256,8554,http://www.fscj.edu/mydegree/campuses/deerwood-center/,FLORIDA STATE COLLEGE AT JACKSONVILLE - DEERWOOD CAMPUS,904) 997-2619
223,101 WEST STATE ST. ROOM 1021,JACKSONVILLE,FL,32202,9683,http://www.fscj.edu/,FLORIDA STATE COLLEGE- DOWNTOWN,904-632-5077
224,"KENT CAMPUS, 3939 ROOSEVELT, BLDG A, RM 104",JACKSONVILLE,FL,32205,8621,http://www.fccj.org/,FLORIDA STATE COLLEGE- KENT CAMPUS,904-381-3705
225,"BLDG 110, ROOM 16, YORKTOWN AVENUE",JACKSONVILLE,FL,32212,7102,http://www.fscj.edu/,FLORIDA STATE COLLEGE- NAS JAX,904-632-5009
226,"JACKSONVILLE CAMPUS, 4501 CAPPER ROAD",JACKSONVILLE,FL,32218,9682,http://www.fscj.edu/,FLORIDA STATE COLLEGE- NORTH CAMPUS,904-766-6708
227,"460 MASSEY AVENUE, BLDG #460",MAYPORT,FL,32228,7104,http://www.fscj.edu/,FLORIDA STATE COLLEGE - NS MAYPORT,904.632.5009
228,"11901 BEACH BOULEVARD, BUILDING U, ROOM 120",JACKSONVILLE,FL,32246,9681,http://www.fscj.edu/,FLORIDA STATE COLLEGE- SOUTH CAMPUS,904-646-2040
229,921 BEACON BEACH ROAD,TYNDALL AFB,AF,32403,7182,http://www.gulfcoast.edu/,GULF COAST STATE COLLEGE,850-283-4332
230,1780 W. 49 STREET ROOM 1220-01,HIALEAH,FL,33012,9628,http://www.mdc.edu/main/testing,MIAMI DADE COLLEGE - HIALEAH CAMPUS,305) 237-8759
231,"HOMESTEAD, FL   33030",305,,5198,9627,http://www.mdc.edu/homestead/,MIAMI DADE COLLEGE - HOMESTEAD CAMPUS,http://www.mdc.edu/main/testing
232,"950 NW 20TH ST, TESTING, RM 1303",MIAMI,FL,33127,8731,http://www.mdc.edu/main/testing,MIAMI DADE COLLEGE - MEDICAL CAMPUS,305) 237-4275
233,"NORTH TESTING, 11380 NW 27TH AVENUE, ROOM 1160",MIAMI,FL,3418,9629,http://www.mdc.edu/north/,MIAMI DADE COLLEGE NORTH CAMPUS,305) 237-1015
234,"3800 NW 115 AVENUE, ROOM 2110",MIAMI,FL,33178,8348,http://www.mdc.edu/main/testing,MIAMI DADE COLLEGE WEST CAMPUS,305) 237-8536
235,"300 NE 2ND AVENUE, ROOM 3104",MIAMI,FL,33132,9626,http://www.mdc.edu/main/testing,MIAMI DADE COLLEGE - WOLFSON CAMPUS,305) 237-3188
236,100 COLLEGE BLVD E.,NICEVILLE,FL,32578,7150,http://www.nwfsc.edu/,NORTHWEST FLORIDA STATE COLLEGE,850) 729-6016
237,221 LUKASIK AVENUE,HURLBURT FIELD,FI,32544,7114,http://www.nwfsc.edu/,NORTHWEST FLORIDA STATE COLLEGE - HURLBURT AFB,850) 200-4190
238,"TTC/COUS - STUDENT AFFAIRS BLDG., 2ND FL., 3301 COLLEGE AVENUE",FORT LAUDERDALE,LA,33314,9876,http://www.nova.edu/,NOVA SOUTHEASTERN UNIVERSITY,954-262-8373
239,1000 COLLEGE BLVD.,PENSACOLA,FL,32504,9800,http://www.pensacolastate.edu,PENSACOLA STATE COLLEGE,850-484-1659
240,5988 HIGHWAY 90,MILTON,FL,1798,8772,http://www.pensacolastate.edu/,PENSACOLA STATE COLLEGE - MILTON CAMPUS,850) 484-4410
241,5555 WEST HIGHWAY 98,PENSACOLA,FL,1097,8786,http://www.pensacolastate.edu,PENSACOLA STATE COLLEGE-WARRINGTON CAMPUS,850) 484-1076
242,"8102 CONDOR STREET, BUILDING 252",MACDILL AFB,AF,33621,7177,http://www.saintleo.edu/,SAINT LEO UNIVERSITY,813-840-0259
243,"NAVAL AIR STATION KEY WEST, BLDG A-718, ESSEX CIRCLE",KEY WEST,WE,9033,7337,http://www.saintleo.edu/,SAINT LEO UNIVERSITY,305-293-2847
244,325 NW TURNER DAVIS DRIVE,MADISON,FL,32340,9408,http://www.saintleo.edu/,SAINT LEO UNIVERSITY,850-973-3356
245,"1120 EAST KENNEDY BLVD, SUITE 238",TAMPA,FL,33602,8320,http://www.saintleo.edu/,SAINT LEO UNIVERSITY,813-226-2777
246,149 SOUTHEAST COLLEGE PLACE,LAKE CITY,CI,8307,9378,http://www.saintleo.edu/,SAINT LEO UNIVERSITY - LAKE CITY CENTER,386-752-6866
247,3000 NW 83RD ST,GAINSVILLE,FL,32606,9470,http://www.sfcc.edu/,SANTA FE COMMUNITY COLLEGE,352-395-5791
248,7959,SCHOOL OF VIRTUAL AND ACADEMIC EXCELLENCE,OF,,7959,"MIAMI, FL   33186",SCHOOL OF VIRTUAL AND ACADEMIC EXCELLENCE,13416 SW 131ST STREET
249,"850 S. STATE ROAD, SUITE A-103",ALTAMONTE SPRINGS,SP,32714,7805,http://www.seminolestate.edu/,SEMINOLE STATE COLLEGE OF FLORIDA - ALTAMONTE SPRINGS CAMPUS,407) 404-6137
250,"1055 AAA DRIVE, SUITE 332",HEATHROW,FL,32746,7818,http://www.seminolestate.edu/,SEMINOLE STATE COLLEGE OF FLORIDA - HEATHROW CAMPUS,407) 708-4420
251,"2505 LOCKWOOD BOULEVARD, SUITE F-102",OVIEDO,FL,32765,7812,http://www.seminolestate.edu/,SEMINOLE STATE COLLEGE OF FLORIDA - OVIEDO CAMPUS,407) 971-5014
252,"ASSESSMENT &AMP; TESTING CENTER, 100 WELDON BLVD",SANFORD,FL,32773,8624,http://www.seminolestate.edu/,SEMINOLE STATE COLLEGE OF FLORIDA - SANFORD/LAKE MARY,407) 708-2020
253,1000 LONGFELLOW BLVD,LAKELAND,FL,33801,8643,http://www.seu.edu/,SOUTHEASTERN UNIVERSITY,863-667-5000
254,225 BUSCH BLVD,TAMPA,FL,33612,9444,http://www.springfieldcollege.edu/,SPRINGFIELD COLLEGE,813-936-2800
255,"11025 RCA CENTER DRIVE, SUITE 200",PALM BEACH GARDENS,BE,33410,7819,http://www.strayer.edu/,STRAYER UNIVERSITY,561-904-3029
256,"2307 W. BROWARD BOULEVARD, STE 100",FORT LAUDERDALE,LA,33312,7874,http://www.strayer.edu/,STRAYER UNIVERSITY,954-745-6960
257,"11430 NW 20TH ST, SUITE 150",MIAMI,FL,33172,8052,http://www.strayer.edu/,STRAYER UNIVERSITY,305-507-5729
258,8541 SOUTH PARK CIRCLE SUITE 310,ORLANDO,FL,32819,7774,http://www.strayer.edu/,STRAYER UNIVERSITY,407-264-9429
259,"850 TRAFALGAR CT , SUITE 360",MAITLAND,FL,32751,9427,http://www.strayer.edu/,STRAYER UNIVERSITY,407-618-5929
260,5830 CORAL RIDGE DR SUITE 300,CORAL SPRINGS,SP,33076,7798,http://www.strayer.edu/,STRAYER UNIVERSITY,954-369-0700
261,"4902 EISENHOWER BLVD, STE 100",TAMPA,FL,33634,9944,http://www.strayer.edu/,STRAYER UNIVERSITY,813-249-2461
262,"2200 NORTH ALAFAYA TRAIL, SUITE 500",ORLANDO,FL,32826,8644,http://www.strayer.edu/,STRAYER UNIVERSITY,407-926-2029
263,"5650 BRECKENRIDGE PARK DR, STE 300",TAMPA,FL,33610,9073,http://www.strayer.edu/,STRAYER UNIVERSITY,813-664-9733
264,8375 DIX-ELLIS TRAIL STE 200,JACKSONVILLE,FL,32256,7760,http://www.strayer.edu/,STRAYER UNIVERSITY,904-538-1029
265,1201 BRICKELL AVENUE,MIAMI,FL,33131,7972,http://www.strayer.edu/,STRAYER UNIVERSITY - BRICKELL CAMPUS,305) 507-5829
266,15620 SW 29TH STREET,MIRAMAR,FL,33027,7937,http://www.strayer.edu/,STRAYER UNIVERSITY/MIRAMAR,954-378-2429
267,16401 NW 37TH AVENUE,MIAMI GARDENS,GA,33054,7857,http://www.stu.edu/,ST. THOMAS UNIVERSITY,305-474-6838
268,502 WEST D AVE,EGLIN AFB,AF,32542,7357,http://www.umuc.edu/,UNIVERSITY OF MARYLAND UNIVERSITY COLLEGE,850-882-1321
269,"8325 SOUTH PARK CIRCLE, SUITE 100",ORLANDO,FL,32819,8979,http://www.phoenix.edu/campus-locations/fl/central-florida-campus/central-florida-main-campus.html,UNIVERSITY OF PHOENIX - CENTRAL FLORIDA CAMPUS,407) 345 8868
270,550 W. CYPRESS CREEK ROAD,FORT LAUDERDALE,LA,33309,8885,http://www.phoenix.edu/,UNIVERSITY OF PHOENIX - CYPRESS CREEK LEARNING CENTER,954) 308-7051
271,"4500 SALISBURY ROAD N. , SUITE 200",JACKSONVILLE,FL,32216,8280,http://www.phoenix.edu/,UNIVERSITY OF PHOENIX - NORTH FLORIDA CAMPUS,904) 779-4552
272,"2400 SW 145TH AVE, SUITE 150",MIRAMAR,FL,33027,9032,http://www.phoenix.edu/,UNIVERSITY OF PHOENIX - SOUTH FLORIDA MAIN CAMPUS,866) 766-0766
273,"12802 TAMPA OAKS BLVD, SUITE 100",TEMPLE TERRACE,TE,33637,8960,http://www.phoenix.edu/,UNIVERSITY OF PHOENIX - WEST FLORIDA LEARNING CENTER,813) 626 7911
274,3220 USF BANYAN CIRCLE,TAMPA,FL,33613,7917,http://www.usf.edu/testing-services/,UNIVERSITY OF SOUTH FLORIDA,813) 974-2742
275,1201 NORTH SCENIC HWY,BABSON PARK,PA,33827,8994,http://www.webber.edu/,WEBBER COLLEGE,941-638-1431
276,8950 STIRLING RD,COOPER CITY,CI,33024,8773,http://www.westlakeschool.com/,WESTLAKE PREPARATORY SCHOOL,954) 236-2300
277,"15190 SW 136 ST, SUITE 26",MIAMI,FL,33196,8365,http://worldhopeacademy.org/,WORLD HOPE ACADEMY,786-592-2384
278,2802 MOORE HIGHWAYABAC BOX 50,TIFTON,GA,31793,8268,http://stallion.abac.peachnet.edu/,ABRAHAM BALDWIN AGRICULTURAL COLLEGE,229-391-4817
279,"504 COLLEGE DRIVE, ACAD 195",ALBANY,GA,31705,9727,http://www.asurams.edu/,ALBANY STATE UNIVERSITY,229-430-1631
280,AMPRESS GLOBAL,1401 PEACHTREE STREET NE,PE,,8817,404) 410-9999,AMPRESS GLOBAL,"ATLANTA, GA   30309"
281,"5825 LIVE OAK PARKWAY, SUITE 2A",NORCROSS,GA,30093,8677,http://www.aonestaffing.com/,A-ONE STAFFING LLC,770-595-9045
282,11935 ABERCORN ST,SAVANNAH,GA,31419,9046,http://www.armstrong.edu/,ARMSTRONG ATLANTIC STATE UNIVERSITY,912-344-2582
283,1001 S. ARMED FORCES BLVD,WARNER ROBINS,RO,31088,9297,http://gavectr.org/services.html,CENTRAL GEORGIA TECHNICAL COLLEGE (VECTR),478) 218-3915
284,"3664 CLUB DRIVE, SUITE 101",LAWRENCEVILLE,GA,30044,8552,http://www.cierratec.com/,CIERRA TEC,678-389-4322
285,"165 MARKWELL STREET, BUILDING 1290, SUITE 16",HUNTER ARMY AIR FIELD,AR,31409,7235,http://www.ccis.edu/nationwide/hunter/,COLUMBIA COLLEGE,912-352-8635
286,"100 KNOWLEDGE DRIVE, SUITE 147",FORT STEWART,ST,31314,7103,http://www.ccis.edu/nationwide/ftstewart/,COLUMBIA COLLEGE,912 767-7558
287,4225 UNIVERSITY AVE,COLUMBUS,GA,5647,9113,http://www.columbusstate.edu/,COLUMBUS STATE UNIVERSITY,706-568-2226
288,"5304 PANOLA INDUSTRIAL BLVD, SUITE I",DECATUR,GA,30035,9258,http://www.csp2online.com,COMPUTER SERVICES PLUS ONLINE,770) 609-7180
289,650 COLLEGE DRIVE,DALTON,GA,30720,7754,http://www.daltonstate.edu,DALTON STATE COLLEGE,706-272-2606
290,2555 NORTHWINDS PARKWAY,ALPHARETTA,GA,30009,7821,http://www.devry.edu/,DEVRY UNIVERSITY,770-619-3570
291,"ONE WEST COURT SQUARE, STE 100",DECATUR,GA,30030,7826,http://www.devry.edu/,DEVRY UNIVERSITY,404-270-2706
292,1000 UNIVERSITY CENTER LANE,LAWRENCEVILLE,GA,30043,9120,http://www.ggc.edu/,GEORGIA GWINNETT COLLEGE,678) 407-5240
293,"2101 WOMACK ROAD, BLDG NC, RM 1261",DUNWOODY,GA,30338,8124,http://www.gpc.edu/,GEORGIA PERIMETER COLLEGE,770-551-5443
294,2500 WALTON WAY,AUGUSTA,GA,2200,9049,http://www.gru.edu/,GEORGIA REGENTS UNIVERSITY,706-737-1471
295,"HERTY DRIVE, CONE HALL, ROOM 2031",STATESBORO,GA,30460,8039,http://academics.georgiasouthern.edu/testing/,GEORGIA SOUTHERN UNIVERSITY,912-478-5415
296,"75 PIEDMONT AVENUE NE, SUITE 200 A",ATLANTA,GA,30303,9700,http://www.gsu.edu/,GEORGIA STATE UNIVERSITY,404-413-1736
297,419 COLLEGE DRIVE,BARNESVILLE,GA,30204,9231,http://www.gordonstate.edu/,GORDON STATE COLLEGE,678-359-5139
298,"3333 BUSBEE DRIVE, MD3313 KSU CENTER SUITE 350",KENNESAW,GA,30144,8902,http://testing.kennesaw.edu/,KENNESAW STATE UNIVERSITY - KENNESAW,470) 578-4800
299,1100 SOUTH MARIETTA PARKWAY MD 9051/BUILDING J ROOM 160,MARIETTA,GA,30060,8903,http://testing.kennesaw.edu/,KENNESAW STATE UNIVERSITY - MARIETTA,470) 578-3982
300,601 BROAD ST,LA GRANGE,GR,30240,8105,http://www.lagrange.edu/,LAGRANGE COLLEGE,706-880-8924
301,1269 BARCLAY CIRCLE,MARIETTA,GA,30060,9647,http://www.life.edu/,LIFE UNIVERSITY,770) 426-2723
302,100 COLLEGE STATION DRIVE,MACON,GA,31206,8770,http://www.mga.edu/testing-services/dantes.aspx,MIDDLE GEORGIA STATE UNIVERSITY,478) 757-2547
303,100 UNIVERSITY BLVD,WARNER ROBINS,RO,31093,7351,http://www.maconstate.edu/,MIDDLE GEORGIA STATE UNIVERSITY,478) 471 2700
304,2605 BEN HILL ROAD,EAST POINT,PO,30344,7719,http://www.acc.edu/,POINT UNIVERSITY,404-460-2480
305,"259 WHITING HALL, TOMPKINS ROAD",SAVANNAH,GA,31404,8117,http://www.savannahstate.edu/,SAVANNAH STATE UNIVERSITY,912) 356-2744
306,"3000 CORPORATE CENTER, SUITE 100",MORROW,GA,30260,9483,http://www.strayer.edu/,STRAYER UNIVERSITY,678-422-4129
307,"100 MANSELL COURT EAST, SUITE 100",ROSWELL,GA,30076,9227,http://www.strayer.edu/,STRAYER UNIVERSITY,770-650-3029
308,"TESTING OFFERED FOR STRAYER UNIVERSITY STUDENTS ONLY3120 STONECREST BLVD, SUITE 200",LITHONIA,GA,30038,7733,http://www.strayer.edu/,STRAYER UNIVERSITY,678) 323-7729
309,"3355 NORTHEAST EXPRESSWAY, STE 100",ATLANTA,GA,30341,8096,http://www.strayer.edu/,STRAYER UNIVERSITY,770-234-0637
310,20 MARTIN COURT,SAVANNAH,GA,31419,7848,http://www.strayer.edu/,STRAYER UNIVERSITY,912-921-2929
311,6003 VETERANS PARKWAY,COLUMBUS,GA,31909,7781,http://www.strayer.edu/,STRAYER UNIVERSITY,706-225-5329
312,4655 TIMBER RIDGE DRIVE,DOUGLASVILLE,GA,30135,7724,http://www.strayer.edu/,STRAYER UNIVERSITY,678-715-2229
313,1330 AUGUSTA WEST PARKWAY,AUGUSTA,GA,30909,7855,http://www.strayer.edu/,STRAYER UNIVERSITY,706-447-3629
314,"BUILDING 9230, SUITE 1323",FORT BENNING,BE,2456,7186,http://www.troy.edu/,TROY UNIVERSITY,706) 660-2318
315,"2743 PERIMETER PARKWAY, SUITE 201",AUGUSTA,GA,30909,9808,http://www.troy.edu/,TROY UNIVERSITY,706-210-2823
316,"741 BARNES AVENUE, BLDG 21606",FORT GORDON,GO,5136,7126,http://www.troy.edu/,TROY UNIVERSITY - FORT GORDON,706) 210-3800
317,"271 HERITAGE PARK LANE EDUCATION CENTER, BLDG 35200",FORT GORDON,GO,30905,7374,http://www.umuc.edu/military-and-veterans/why-umuc/worldwide-and-regional-locations.cfm,UMUC US- FORT GORDAN,301) 832-7103
318,82 COLLEGE CIRCLE,DAHLONEGA,GA,30597,9212,http://www.ung.edu/testing/,UNIVERSITY OF NORTH GEORGIA - DAHLONEGA CAMPUS,706-864-1799
319,3820 MUNDY MILL ROAD,OAKWOOD,GA,30566,9209,http://www.ung.edu/testing/,UNIVERSITY OF NORTH GEORGIA - GAINESVILLE CAMPUS,678-717-3863
320,1201 BISHOP FARMS PARKWAY,WATKINSVILLE,GA,30677,9215,http://www.ung.edu/testing/,UNIVERSITY OF NORTH GEORGIA - OCONEE CAMPUS,706-310-6308
321,"3150 PERIMETER PARKWAY, STE 100",AUGUSTA,GA,30909,7853,http://www.phoenix.edu/,UNIVERSITY OF PHOENIX - AUGUSTA CAMPUS,706) 868-2013
322,7200 NORTH LAKE DRIVE,COLUMBUS,GA,31909,8939,http://www.phoenix.edu/,UNIVERSITY OF PHOENIX - COLUMBUS NORTH LAKE CAMPUS,706) 317-3924
323,859 MT. VERNON HWY NE,ATLANTA,GA,30328,8686,http://www.phoenix.edu/campus-locations/ga/atlanta-campus/dekalb-learning-center.html,UNIVERSITY OF PHOENIX - DEKALB LEARNING CENTER,678-731-0555
324,"8200 ROBERTS DRIVE, SUITE 300",ATLANTA,GA,30350,8774,http://www.phoenix.edu/,UNIVERSITY OF PHOENIX -SANDY SPRINGS LEARNING CENTER,678) 320-6005
325,1500 N. PATTERSON ST,VALDOSTA,GA,31698,8350,http://www.valdosta.peachnet.edu/,VALDOSTA STATE COLLEGE,229-245-3878
326,8001 LAKES BLVD,KINGSLAND,GA,31548,7106,http://www.valdosta.edu/,VALDOSTA STATE UNIVERSITY-CAMDEN CENTER,912-882-6573
327,"23RD FSS/FSD, 3010 ROBINSON ROAD",MOODY AFB,AF,1518,7251,http://www.wiregrass.edu/,WIREGRASS GA TECHNICAL COLLEGE,229) 253-9571
328,ARGOSY UNIVERSITY,1001 BISHOP STREET,BI,400,9424,808-791-5231,ARGOSY UNIVERSITY,"HONOLULU, HI   96813"
329,"1001 BISHOP STREET, 400 ASB TOWER",HONOLULU,HI,96813,8742,http://www.argosyu.edu/,ARGOSY UNIVERSITY,808-536-5555
330,EDUCATION CENTER YANO HALL,SCHOFIELD BARRACKS,BA,96857,7124,http://www.hpu.edu/,HAWAII PACIFIC UNIVERSITY,808-422-0204
331,"BUILDING 679, 2ND FLOOR, ROOM 207",PEARL HARBOR,HA,4673,7107,http://www.hpu.edu/,HAWAII PACIFIC UNIVERSITY,808-422-0204
332,"FIFTH STREET, BUILDING 220",MCBH KANEOHE,KA,96863,7120,http://www.hpu.edu/,HAWAII PACIFIC UNIVERSITY,808-422-0204
333,900 HANGER AVENUE,HICKAM AFB,AF,5256,7115,http://www.hpu.edu/,HAWAII PACIFIC UNIVERSITY,808-422-0204
334,"1060 BISHOP STREET, SUITE 600",HONOLULU,HI,2810,9167,http://www.hpu.edu/,HAWAII PACIFIC UNIVERSITY - DOWNTOWN HONOLULU CAMPUS,808) 544-9334
335,"BUILDING 102, ROOM 111",TRIPLER AMC,AM,96859,7133,http://www.hpu.edu/,HAWAII PACIFIC UNIVERSITY - TRIPLER,808) 543-8056
336,"1601 KAPIOLANI BOULEVARD, SUITE 1000",HONOLULU,HI,96814,9827,http://www.icchawaii.edu/,INTERCULTURAL COMMUNICATIONS COLLEGE,808-946-2445
337,KAUAI COMMUNITY COLLEGE,3,KA,,9833,808-245-8306,KAUAI COMMUNITY COLLEGE,"LIHUE, HI   96766"
338,"745 FORT STREET, SUITE 2000",HONOLULU,HI,96813,8522,http://www.phoenix.edu/,UNIVERSITY OF PHOENIX â HAWAII CAMPUS - HONOLULU,808) 524-9854
339,"949 KAMOKILA BLVD, SUITE 101",KAPOLEI,HI,96707,8999,http://www.phoenix.edu/,UNIVERSITY OF PHOENIX - KAPOLEI LEARNING CENTER,808) 524-9848
340,95-1091 AINAMAKUA DRIVE,MILILANI,HI,96789,8215,http://www.wbu.edu/colleges-in-hawaii/,WAYLAND BAPTIST UNIVERSITY,808-222-9407
341,1310 19TH AVE NW,CLINTON,IA,52732,9508,http://www.ashford.edu,ASHFORD UNIVERSITY- IOWA CAMPUS,866) 974-5700
342,1550 CLARK DRIVE,DUBUQUE,IA,3198,8316,http://www.clarke.edu/,CLARKE UNIVERSITY,319-588-6354
343,1200 GRANDVIEW AVENUE,DES MOINES,MO,50316,9818,http://www.grandview.edu/,GRAND VIEW UNIVERSITY,515-263-2971
344,7105 NW 70TH AVENUE,JOHNSTON,IA,50131,8076,http://www.grandview.edu/,GRAND VIEW UNIVERSITY,515-252-4546
345,525 GRANDVIEW AVE. TRUSTEE HALL,OTTUMWA,IA,52501,8971,http://www.ibcc.cc.ia.us/,INDIAN HILLS COMMUNITY COLLEGE,641) 683-5142
346,300 SOUTH 18TH STREET,ESTHERVILLE,IA,51334,9026,http://www.ilcc.cc.ia.us/,IOWA LAKES COMMUNITY COLLEGE,712-362-7935
347,1801 E KIMBERLY RD #1,DAVENPORT,IA,52807,9634,http://www.kaplanuniversity.edu/davenport-iowa.aspx,KAPLAN UNIVERSITY - DAVENPORT (MAIN CAMPUS),563) 355-3500
348,1501 WEST TOWNLINE STREET,CRESTON,IA,50801,8835,http://www.swcc.cc.ia.us/,SOUTHWESTERN COMMUNITY COLLEGE,641-782-1330
349,2000 UNIVERSITY AVENUE,DUBUQUE,IA,52001,8291,http://www.dbq.edu/,THE UNIVERSITY OF DUBUQUE,563) 589-3262
350,250 CEF / 30 S. DUBUQUE STREET,IOWA CITY,CI,52242,8844,http://www.uiowa.edu/,UNIVERSITY OF IOWA,319) 384-4800
351,125 STUDENT SERVICES,CEDAR FALLS,FA,0383,8937,http://www.uni.edu/,UNIVERSITY OF NORTHERN IOWA,319-273-6024
352,"5000 WESTOWN PKWY, SUITE 200",WEST DES MOINES,DE,50266,9500,http://uiu.edu/locations/desmoines/index.html,UPPER IOWA UNIVERSITY-DES MOINES,5152251800
353,3563 UNIVERSITY AVENUE,WATERLOO,IA,50701,7740,http://www.uiu.edu,UPPER IOWA UNIVERSITY-WATERLOO CENTER,319-232-6980
354,4647 STONE AVE,SIOUX CITY,CI,51106,8284,http://www.witcc.edu/,WESTERN IOWA TECH. COMMUNITY COLLEGE,712)-274-6443
355,201 TRUEBLOOD AVENUE,OSKALOOSA,IA,52577,9642,http://www.wmpenn.edu/,WILLIAM PENN UNIVERSITY,641-673-1100
356,"1275 NORTHWEST 128 STREET, SUITE 200",CLIVE,IA,50325,9486,http://www.wmpenn.edu/,WILLIAM PENN UNIVERSITY COLLEGE FOR WORKING ADULTS,641) 673-1323
357,1910 UNIVERSITY DRIVE,BOISE,ID,83725,9066,http://aae.boisestate.edu/testing/,BOISE STATE UNIVERSITY,208) 426-1000
358,"665 FALCON STREET, 366 MSS/DPE",MOUNTAIN HOME AFB,HO,83648,7132,https://extendedstudies.boisestate.edu/mountainhome/mtn-home-national-testing-services/,BOISE STATE UNIVERSITY - MOUNTAIN HOME AFB,208) 828-6746
359,"MEYERHOEFFER BUILDING, 315 FALLS AVENUE",TWIN FALLS,FA,83303,9489,http://www.csi.edu/,COLLEGE OF SOUTHERN IDAHO,208-732-6569
360,"921 S. 8TH , 2ND FLOOR, SOUTH SIDE",POCATELLO,ID,83209,9173,http://www.isu.edu/,IDAHO STATE UNIVERSITY,208-282-2130
361,623 HOLLY STREET,NAMPA,ID,5897,8434,http://www.nnu.edu/,NORTHWEST NAZARENE UNIVERSITY,208-467-8465
362,"CHICAGO, IL   60659",773,,0268,8008,http://www.assu.us/,ASSU/COGNITIVE TESTING CENTER,773-255-2481
363,"6006 WEST 159TH STREET, BUILDING B, 2ND FLOOR",OAK FOREST,FO,60452,8023,http://www.assu.us/,ASSU/COGNITIVE TESTING CENTER,773-224-7890
364,9501 S. MARTIN LUTHER KING DRIVE,CHICAGO,IL,1598,8986,http://www.csu.edu/,CHICAGO STATE UNIVERSITY,773-995-2000
365,"226 W JACKSON BLVD, RM 912",CHICAGO,IL,60606,9094,http://www.ccc.edu/,CITY COLLEGES OF CHICAGO,312-553-2500
366,"425 FAWELL BOULEVARDSPECIALIZED TESTING, BIC 2407",GLEN ELLYN,EL,60137,9107,http://www.cod.edu/,COLLEGE OF DUPAGE,630) 942-2401
367,1120 S. MILWAUKEE AVE,VERNON HILLS,HI,60061,7900,http://www.clcillinois.edu/southlake/,COLLEGE OF LAKE COUNTY,847-543-6544
368,19351 WEST WASHINGTON ST,GRAYSLAKE,IL,60030,9109,http://www.clcillinois.edu/,COLLEGE OF LAKE COUNTY,847-223-2000
369,"2221 MCDONOUGH DRIVE, BUILDING 617, ROOM 209",GREAT LAKES,LA,60088,7140,http://www.clcillinois.edu/,COLLEGE OF LAKE COUNTY - GREAT LAKE NAVAL BASE,847) 543-2971
370,33 NORTH GENESEE STREET,WAUKEGAN,IL,60085,9546,http://www.clcillinois.edu/,COLLEGE OF LAKE COUNTY - LAKESHORE CAMPUS,847) 543-2120
371,446 NORTH ROUTE 31,CRYSTAL LAKE,LA,60012,9857,http://www.ccis.edu/nationwide/crystallake/,COLUMBIA COLLEGE,815-477-5440
372,"1225 TRI-STATE PARKWAY, STE 560",GURNEE,IL,60031,7735,http://www.ccis.edu/lakecounty/,COLUMBIA COLLEGE,847-336-6333
373,1221 N. SWIFT ROAD,ADDISON,IL,60101,7820,http://www.devry.edu/,DEVRY UNIVERSITY,630-652-8395
374,"600 LINCOLN AVE., RM 2100, NINTH STREET HALL",CHARLESTON,IL,61920,9133,http://www.eiu.edu/,EASTERN ILLINOIS UNIVERSITY,217-581-5986
375,1 UNIVERSITY PARKWAY,UNIVERSITY PARK,PA,60484,8536,http://www.govst.edu/testing-center/,GOVERNOR\\'S STATE UNIVERSITY,708) 235-7555
376,2992 WEST PEARL CITY RD,FREEPORT,IL,61032,8639,http://www.highland.cc.il.us/,HIGHLAND COMMUNITY COLLEGE,815-599-3680
377,"1 COLLEGE DRIVE, TESTING CENTER ROOM L220",EAST PEORIA,PE,61635,8707,http://www.icc.edu/,ILLINOIS CENTRAL COLLEGE,309) 694-5234
378,"5407 N. UNIVERSITY STREET, ARBOR 103",PEORIA,IL,61635,8699,http://icc.edu/,ILLINOIS CENTRAL COLLEGE - NORTH CAMPUS,309) 690-6991
379,"ILLINOIS STATE UNIVERSITY FELL HALL, ROOM 346",NORMAL,IL,4060,9769,http://www.ilstu.edu/,ILLINOIS STATE UNIVERSITY,309-438-2100
380,5800 GODFREY RD,GODFREY,IL,62035,9502,http://www.lc.cc.il.us/,LEWIS & CLARK COMMUNITY COLLEGE,618-466-3411
381,5250 SHEPARD ROAD,SPRINGFIELD,IL,62794,9108,http://www.llcc.edu/,LINCOLN LAND COMMUNITY COLLEGE,217-786-2211
382,"122 SOUTH MICHIGAN AVENUE, SUITE 3005",CHICAGO,IL,60603,8270,http://www.nl.edu/transferinfo/creditbyexamination/,NATIONAL LOUIS UNIVERSITY,312-261-3359
383,1000 CAPITAL DRIVE,WHEELING,IL,60090,8586,http://www.nl.edu/transferinfo/creditbyexamination/,NATIONAL LOUIS UNIVERSITY,630-874-4320
384,850 WARRENVILLE ROAD,LISLE,IL,1356,8340,http://www.nl.edu/transferinfo/creditbyexamination/,NATIONAL-LOUIS UNIVERSITY,630-874-4319
385,ADAMS 128,DEKALB,IL,1204,9530,http://www.niu.edu/,NORTHERN ILLINOIS UNIVERSITY,815-753-6051
386,ONE COLLEGE PARK,DECATUR,IL,62521,9992,http://www.richland.edu/,RICHLAND COMMUNITY COLLEGE,217-875-7211 X364
387,3301 NORTH MULFORD ROAD,ROCKFORD,IL,61114,8549,http://www.rockvalleycollege.edu/,ROCK VALLEY COLLEGE,815) 921-2385
388,173 ILLINOIS ROUTE 2,DIXON,IL,9188,9649,http://www.svcc.edu/,SAUK VALLEY COMMUNITY COLLEGE,815-288-5511 X293
389,"TEST SERVICES, MAILCODE 3703",CARBONDALE,IL,62901,9318,http://testingservices.siu.edu/,SOUTHERN ILLINOIS UNIVERSITY,618-453-6003
390,15800 SOUTH STATE STREET,SOUTH HOLLAND,HO,60473,8242,http://www.southsuburbancollege.edu/,SOUTH SUBURBAN COLLEGE,708) 596-2000 EX. 2495
391,"SCOTT AFB, IL   62225-1607",618,,6677,7294,http://www.swic.edu/,SOUTHWESTERN ILLINOIS COLLEGE,ON BASE SITE ONLY
392,"1431 OPUS PLACE, SUITE 300",DOWNERS GROVE,GR,60515,8026,http://www.strayer.edu/,STRAYER UNIVERSITY,630-874-6129
393,"2245 SEQUOIA DRIVE, SUITE 301-A",AURORA,IL,60506,8580,http://www.strayer.edu/,STRAYER UNIVERSITY,331-643-4829
394,"1101 PERIMETER DRIVE, SUITE 300",SCHAUMBURG,IL,60173,8015,http://www.strayer.edu/,STRAYER UNIVERSITY,847-273-2779
395,2065 HALF DAY ROAD,DEERFIELD,IL,60015,8570,http://www.tiu.edu/,TRINITY INTERNATIONAL UNIVERSITY,847-317-8181
396,2000 FIFTH AVE,RIVER GROVE,GR,60171,8069,http://www.triton.edu/,TRITON COLLEGE,708) 456-3252
397,"610 E. JOHN ST., ROOM G1, TURNER STUDENT SERVICES BLDG",CHAMPAIGN,IL,61820,8584,http://www.uiu.edu/,UNIVERSITY OF ILLINOIS - URBANA CHAMPAIGN,217-333-1342
398,203 N. LASALLE,CHICAGO,IL,60601,9024,http://www.phoenix.edu/,UNIVERSITY OF PHOENIX,312-223-1101 X76888
399,500 WILCOX STREET,JOLIET,IL,60435,8656,http://www.stfrancis.edu/,UNIVERSITY OF ST. FRANCIS,815-740-3590
400,1161 TEBALA BLVD,ROCKFORD,IL,61108,8210,http://www.uiu.edu/locations/educationcenters/uscenters/rockford.html,UPPER IOWA UNIVERSITY- ROCKFORD CENTER,815-332-1414
401,RT.47 AT WAUBONSEE DRIVE,SUGAR GROVE,GR,60554,8767,http://www.waubonsee.edu,WAUBONSEE COMMUNITY COLLEGE,630) 466-2358
402,3300 RIVER DRIVE ROOM 2215,MOLINE,IL,61265,7220,http://www.wiu.edu/qc/,WESTERN ILLINOIS UNIVERSITY,309-762-9481
403,102 MEMORIAL HALL,MACOMB,IL,61455,8488,http://www.wiu.edu,WESTERN ILLINOIS UNIVERSITY,309) 298-2453
404,7215 GRAPE ROAD,GRANGER,IN,46530,8018,http://www.assu.us/,ASSU/COGNITIVE TESTING CENTER,574-272-4000
405,"11350 N. MERIDIAN STREET, SUITE 200",CARMEL,IN,46032,8681,http://www.cuw.edu/,CONCORDIA UNIVERSITY - INDIANAPOLIS CENTER,317-844-1711
406,1700 S. MAIN STREET,GOSHEN,IN,46526,9995,http://www.goshen.edu/,GOSHEN COLLEGE,219-535-7383
407,200 SEMINARY DRIVE,WINONA LAKE,LA,46590,7769,http://www.grace.edu/,GRACE COLLEGE & THEOLOGICAL SEMINARY,574-372-5100
408,2303 COLLEGE AVE,HUNTINGTON,IN,1299,8034,http://www.huntington.edu/,HUNTINGTON UNIVERSITY,260-359-4290 X2090
409,1600 EAST WASHINGTON BOULEVARD,FORT WAYNE,WA,46803,9521,http://www.indianatech.edu/,INDIANA INSTITUTE OF TECHNOLOGY,260-422-5561 X2217
410,"UNIVERSITY TESTING, ERICKSON HALL 231, 218 NORTH SIXTH STREET",TERRE HAUTE,HA,47809,8206,http://www.indstate.edu/,INDIANA STATE UNIVERSITY,812-237-7666
411,"KOKOMO, IN   46904",800,,7459,8726,http://www.iuk.edu/,INDIANA UNIVERSITY,765-455-9407
412,3400 BROADWAY,GARY,IN,46408,8562,http://www.iun.edu/,INDIANA UNIVERSITY - NORTHWEST,219-980-6828
413,4601 CENTRAL AVENUECC ROOM 156H,COLUMBUS,IN,47203,9544,http://www.iupuc.edu/,INDIANA UNIVERSITY PURDUE UNIVERSITY COLUMBUS,812) 348-7200
414,"620 UNION DRIVE, SUITE G-003",INDIANAPOLIS,IN,5167,8683,http://www.iupui.edu/,INDIANA UNIVERSITY-PURDUE UNIVERSITY - INDIANAPOLIS,317-274-3324
415,"PO BOX 1033, WIEKAMP HALL 3183",SOUTH BEND,BE,7111,9556,http://www.iusb.edu/,INDIANA UNIVERSITY - SOUTH BEND,574-520-4478
416,"UNIVERSITY CENTER SOUTH, STUDENT DEVELOPMENT CENTER, 4201 GRANT LINE RD, ROOM 203 (US 203)",NEW ALBANY,AL,47150,8867,http://www.ius.edu/sdc,INDIANA UNIVERSITY - SOUTHEAST,812-941-2309
417,3449 JONATHAN MOORE PIKE,COLUMBUS,IN,47201,9946,http://www.indwes.edu/,INDIANA WESLEYAN UNIVERSITY,812-376-7346
418,8211 W. JEFFERSON BLVD,FORT WAYNE,WA,46804,9687,http://www.indwes.edu/,INDIANA WESLEYAN UNIVERSITY,260-918-1212
419,8415 GEORGIA STREET,MERRILLVILLE,IN,46410,8263,http://www.indwes.edu/,INDIANA WESLEYAN UNIVERSITY,219-769-5100
420,"APS STUDENT SERVICES, 1900 WEST 50TH STREET",MARION,IN,46953,8781,http://www.indwes.edu/,INDIANA WESLEYAN UNIVERSITY,765-677-2881
421,3777 PRIORITY WAY SOUTH DRIVE,INDIANAPOLIS,IN,46240,9686,http://www.indwes.edu/,INDIANA WESLEYAN UNIVERSITY - INDIANAPOLIS NORTH CAMPUS,317) 818-4854
422,"FORT WAYNE, IN   76805",260,,2012,7269,http://www.ivytech.edu/,IVY TECH COMMUNITY COLLEGE,260-480-2043
423,3401 FIRST AVENUE,EVANSVILLE,IN,47710,8628,http://www.ivytech.edu/,IVY TECH COMMUNITY COLLEGE,812-429-1460
424,3701 DEAN DRIVE,FT WAYNE,WA,46385,8713,http://www.ivytech.edu/,IVY TECH COMMUNITY COLLEGE,260-480-2043
425,4475 CENTRAL AVE,COLUMBUS,IN,47203,8795,http://www.ivytech.edu/,IVY TECH COMMUNITY COLLEGE,812-314-8538
426,"BLOOMINGTON, IN   47404",812,,6137,7265,http://www.distancetesting-bloomington@lists.ivytech.edu,IVY TECH COMMUNITY COLLEGE,http://www.ivytech.edu/
427,3401 FIRST AVENUE,EVANSVILLE,IN,47710,7268,http://www.ivytech.edu/,IVY TECH COMMUNITY COLLEGE,812-429-9852
428,"COLUMBUS, IN   47203",812,,5211,7266,http://www.ivytech.edu/,IVY TECH COMMUNITY COLLEGE,800-922-4838 X5246
429,590 IVY TECH DRIVE,MADISON,IN,47250,7276,http://www.ivytech.edu/,IVY TECH COMMUNITY COLLEGE,812-265-2580 X4184
430,1701 TOUBY PIKE,KOKOMO,IN,46901,7272,http://www.ivytech.edu/,IVY TECH COMMUNITY COLLEGE,765-459-0561 X527
431,1 IVY TECH WAY,LOGANSPORT,IN,46947,7275,http://www.ivytech.edu/,IVY TECH COMMUNITY COLLEGE,574-753-5101 X052229
432,22531 CR 18,GOSHEN,IN,46528,7267,http://www.ivytech.edu/,IVY TECH COMMUNITY COLLEGE,574-830-0375 X 4484
433,"9301 E. 59TH STREET, ROOM 152",INDIANAPOLIS,IN,46216,7271,http://www.ivytech.edu/,IVY TECH COMMUNITY COLLEGE,317-917-5991
434,920 COUNTY LINE ROAD,BATESVILLE,IN,47006,7289,http://www.ivytech.edu/,IVY TECH COMMUNITY COLLEGE,812-934-3954 X20
435,915 S. ZINC MILL ROAD,GREEN CASTLE,CA,46135,7290,http://www.ivytech.edu/,IVY TECH COMMUNITY COLLEGE,765-653-7410
436,"MARION, IN   46952",765,,3319,7277,http://www.ivytech.edu/,IVY TECH COMMUNITY COLLEGE,765-651-3100 X3334
437,4201 S. COWAN ROAD,MUNCIE,IN,47302,7278,http://www.ivytech.edu/,IVY TECH COMMUNITY COLLEGE,765-289-2291 X1419 or X1320
438,2431 S. CRABTREE DRIVE,PRINCETON,IN,47670,7279,http://www.ivytech.edu/,IVY TECH COMMUNITY COLLEGE,812-385-8495
439,3100 IVY TECH DRIVE,VALPARAISO,IN,46383,7285,http://www.ivytech.edu/,IVY TECH COMMUNITY COLLEGE,219-476-4722
440,2545 SILVEUS CROSSING,WARSAW,IN,46580,7286,http://www.ivytech.edu/,IVY TECH COMMUNITY COLLEGE,574-267-5428 X 7232
441,1034 31ST STREET,TELL CITY,CI,47586,7283,http://www.ivytech.edu/,IVY TECH COMMUNITY COLLEGE,812-547-3642
442,815 EAST 60TH STREET,ANDERSON,IN,46013,7264,http://www.ivytech.edu/,IVY TECH COMMUNITY COLLEGE - ANDERSON,765) 643-7133 EX2022
443,1815 EAST MORGAN STREET ROOM M100,KOKOMO,IN,46901,9316,http://www.ivytech.edu/,IVY TECH COMMUNITY COLLEGE - KOKOMO CAMPUS,765) 459-0561 EX. 7509
444,3101 S. CREASY LANE,LAFAYETTE,IN,47905,9930,http://www.ivytech.edu/,IVY TECH COMMUNITY COLLEGE - LAFAYETTE CAMPUS,765) 269-5238
445,50 WALNUT STREET,LAWRENCEBURG,IN,47025,8360,http://www.ivytech.edu/,IVY TECH COMMUNITY COLLEGE - LAWRENCEBURG CAMPUS,812) 537-4010 EXT. 5501
446,2357 CHESTER BLVD.MCDANIEL HALL RM.1128,RICHMOND,IN,47374,8115,http://www.ivytech.edu/,IVY TECH COMMUNITY COLLEGE - RICHMOND CAMPUS,765) 966-2656 EX. 4133
447,8204 HIGHWAY 311,SELLERSBURG,IN,47172,7281,http://www.ivytech.edu/,IVY TECH COMMUNITY COLLEGE - SELLERSBURG,812) 246-3301 X4231 OR X4156
448,8204 HIGHWAY 311PFAU HALL RM. G22,SELLERSBURG,IN,47172,8487,http://www.ivytech.edu/,IVY TECH COMMUNITY COLLEGE - SELLERSBURG CAMPUS,812) 246-3301 4156 OR 4502
449,250 EAST SAMPLE STREET,SOUTH BEND,BE,46601,8920,http://www.ivytech.edu/,IVY TECH COMMUNITY COLLEGE - SOUTH BEND CAMPUS,574) 289-7001 EX. 1235
450,IVY TECH STATE COLLEGE,1440 EAST 35TH AVE,EA,,8196,888) IVY-LINE,IVY TECH STATE COLLEGE,"GARY, IN   46409"
451,1700 E. INDUSTRIAL DRIVE,TERRE HAUTE,HA,47802,8388,https://www.ivytech.edu/,IVY TECH STATE COLLEGE - TERRE HAUTE CAMPUS,812) 298-2382
452,3200 COLD SPRING ROAD,INDIANAPOLIS,IN,46222,9333,http://www.marian.edu/,MARIAN UNIVERSITY,317-955-6150
453,138 N. LUCRETIA ST,OAKLAND CITY,CI,1099,8445,http://www.oak.edu/,OAKLAND CITY UNIVERSITY,812-749-1378
454,1 ST. MARY OF WOODS COLL,ST,MA,47876,9328,http://www.smwc.edu/,SAINT MARY OF THE WOODS,812-535-5151
455,9025 NORTH RIVER RD.,INDIANAPOLIS,IN,46240,8493,http://www.strayer.edu/,STRAYER UNIVERSITY,317-810-7729
456,"1400 EAST HANNA AVENUE, ESH HALL, ROOM 131",INDIANAPOLIS,IN,46227,9520,http://www.uindy.edu/,UNIVERSITY OF INDIANAPOLIS,317-788-3504
457,601 NORTH SHORTRIDGE ROAD,INDIANAPOLIS,IN,46219,8724,http://www.veritycollegeeducation.org,VERITY COLLEGE EDUCATION,844) 383-7489
458,"1002 NORTH FIRST ST, SHAKE LRC - 22",VINCENNES,IN,47591,9382,http://www.vinu.edu/,VINCENNES UNIVERSITY,812) 888-5404
459,"3450 N. ROCK ROAD, BLDG 400",WICHITA,KS,67226,9175,http://www.bakeru.edu/,BAKER UNIVERSITY,316-636-2322
460,7301 COLLEGE BLVD. STE. 120,OVERLAND PARK,PA,66210,9696,http://www.bakeru.edu/,BAKER UNIVERSITY,913) 491-4432
461,2641 SW WANAMAKER ROAD,TOPEKA,KS,66614,7254,http://www.bakeru.edu/,BAKER UNIVERSITY - TOPEKA,913) 491-4432
462,"FORT RILEY LEARNING SERVICES AND MILITARY OPERATIONS, BUILDING 211 CUSTER AVENUE ROOM 211",FORT RILEY,RI,66442,7201,http://www.bartonccc.edu/,BARTON COMMUNITY COLLEGE,785-784-6606 EXT 763
463,53474 LAWRENCE COURT,MCCONNELL AFB,AF,67221,7221,http://www.butlercc.edu/,BUTLER COMMUNITY COLLEGE,316-681-3522
464,HAVERHILL RD/TOWANDA AVE,EL DORADO,DO,67042,9074,http://www.butlercc.edu/,BUTLER COUNTY COMMUNITY COLLEGE,316-321-2222
465,600 PARK STREET,HAYS,KS,4099,9151,http://www.fhsu.edu/,FORT HAYS STATE UNIVERSITY,785-628-4401
466,16025 W 113TH STREET,LENEXA,KS,66219,7346,http://www.grantham.edu/,GRANTHAM UNIVERSITY,800-955-2527
467,"HOLTON HALL, RM 101B",MANHATTAN,KS,66506,9186,http://www.ksu.edu/,KANSAS STATE UNIVERSITY,913-532-5392
468,200 S. 14TH STREET,PARSONS,KS,67357,8346,http://labette.edu/,LABETTE COMMUNITY COLLEGE,620-820-1182
469,1415 ANDERSON AVE,MANHATTAN,KS,4081,8875,http://www.mccks.edu/,MANHATTAN CHRISTIAN COLLEGE,785-539-3571
470,2030 E. COLLEGE WAY,OLATHE,KS,66062,8801,http://www.mnu.edu/,MIDAMERICA NAZARENE UNIVERSITY,913-971-3387
471,1001 S. CEDAR,OTTAWA,KS,66067,8655,http://www.ottawa.edu/,OTTAWA UNIVERSITY,785-242-5200
472,"4370 WEST 109TH STREET, SUITE 200",OVERLAND PARK,PA,66211,9356,http://www.ottawa.edu,OTTAWA UNIVERSITY - OVERLAND PARK CAMPUS,913) 266-8600
473,"1701 S. BROADWAY, WHITESITT HALL 206 B",PITTSBURG,KS,66762,9538,http://www.pittstate.edu/,PITTSBURG STATE UNIVERSITY,620-235-4267
474,2562 CENTENNIAL RD,SALINA,KS,67401,9407,http://www.salinatech.edu/,SALINA AREA TECHNICAL COLLEGE,785) 309-3111
475,1801 NORTH KANSAS,LIBERAL,KS,1137,8876,http://www.scc.edu/,SEWARD COUNTY COMMUNITY COLLEGE,316-629-2650
476,"7348 WEST 21ST STREET, SUITE 117",WICHITA,KS,67205,9534,http://www.tabor.edu/,TABOR COLLEGE WICHITA,316-729-6333
477,1300 SUNNYSIDE AVENUE SUMMERFIELD HALL SUITE 350,LAWRENCE,KS,66045,9543,http://www.ku.edu,UNIVERSITY OF KANSAS,785) 864-2768
478,1700 SW COLLEGE AVE,TOPEKA,KS,66621,8746,http://www.washburn.edu,WASHBURN UNIVERSITY,785) 670-1223
479,"1845 NORTH FAIRMOUNT, 320 GRACE WILKIE HALL",WICHITA,KS,0091,9391,http://www.wichita.edu/,WICHITA STATE UNIVERSITY,316-978-3440
480,1400 COLLEGE DR,ASHLAND,KY,41101,8577,http://www.ashlandcc.edu/,ASHLAND COMMUNITY COLLEGE,606-329-2999
481,164 OPPORTUNITY WAY,LEXINGTON,KY,40356,9118,http://www.bluegrass.kctcs.edu/,BLUEGRASS COMMUNITY AND TECHNICAL COLLEGE,859-246-6669
482,"FORT CAMPBELL CENTER, PO BOX 565",FORT CAMPBELL,CA,42223,9288,http://www.erau.edu/,EMBRY-RIDDLE AERONAUTICAL UNIVERSITY,270-798-2775
483,500 TECHNOLOGY WAY,FLORENCE,KY,41042,8492,http://www.gateway.kctcs.edu/,GATEWAY COMMUNITY & TECHNICAL COLLEGE,859-442-1159
484,"ENGLISH ARMY EDUCATION CENTER, 202 BASTOGNE AVENUE, ROOM 1218",FORT CAMPBELL,CA,42225,7171,http://hopkinsville.kctcs.edu,HOPKINSVILLE COMMUNITY COLLEGE,270-707-3970
485,1500 ALLIANT AVENUE,LOUISVILLE,KY,40299,9947,http://www.indwes.edu/,INDIANA WESLEYAN UNIVERSITY,502-261-5000
486,400 E. MAIN ST. EXUM 106,FRANKFORT,KY,40601,8568,http://kysu.edu/,KENTUCKY STATE UNIVERSITY,502) 597-5696
487,99 POWELL ROAD EAST,MAYFIELD,KY,42066,9768,http://www.mccks.edu/,MID-CONTINENT UNIVERSITY,270-247-8521 X228
488,"1375 CHESTNUT ST., MURRAY, KY 42071 OAKLEY APPLIED SCIENCE BUILDING C 105",MURRAY,KY,0009,8274,http://www.murraystate.edu/testingcenter,MURRAY STATE UNIVERSITY,270) 809-6848
489,"100 NUNN DR. UNIVERSITY CENTER BUILDING, ROOM. 101",HIGHLAND HEIGHTS,HE,41099,7910,http://testing.nku.edu/,NORTHERN KENTUCKY UNIVERSITY,859) 572-6373
490,"7300 TURFWAY ROAD, SUITE 250",FLORENCE,KY,41042,7932,http://www.strayer.edu/,STRAYER UNIVERSITY,859-692-2800
491,"2650 EASTPOINT PARKWAY, SUITE 100",LOUISVILLE,KY,40223,9936,http://www.strayer.edu/,STRAYER UNIVERSITY,502-253-5029
492,333 THOMAS MORE PARKWAY,CRESTVIEW HILLS,HI,41017,9550,http://www.thomasmore.edu/,THOMAS MORE COLLEGE,859-344-4067
493,"DAVIDSON HALL, ROOM 310, 106 EAST BRANDEIS STREET",LOUISVILLE,KY,40292,9548,http://www.louisville.edu/,UNIVERSITY OF LOUISVILLE,502-852-6606
494,"63 QUARTERMASTER STREET - STE. 301, BUILDING 63,",FORT KNOX,KN,40121,7183,http://www.louisville.edu/,UNIVERSITY OF LOUISVILLE - FORT KNOX,502) 942-8060
495,1906 COLLEGE HEIGHTS BOULEVARD #11024,BOWLING GREEN,GR,42101,9906,http://www.wku.edu/,WESTERN KENTUCKY UNIVERSITY,270-745-3158
496,"201 COMMUNITY COLLEGE DR RM 160, MAGNOLIA BLDG",BATON ROUGE,RO,70806,8845,http://www.mybrcc.edu,BATON ROUGE COMMUNITY COLLEGE - MID-CITY CAMPUS,225) 216-8038
497,"6220 EAST TEXAS STREET, BUILDING D, ROOM 203",BOSSIER CITY,CI,71111,8147,http://www.bpcc.edu/testingcenter,BOSSIER PARISH COMMUNITY COLLEGE,318) 678-6002
498,723 DOUHET DRIVE ROOM 101,BARKSDALE AFB,AF,71111,7287,http://www.bpcc.edu/testingcenter,BOSSIER PARISH COMMUNITY COLLEGE - BARKSDALE AFB,318) 678-6002
499,7460 COLORADO STREET,FT POLK,PO,71459,7207,http://www.ctcd.edu/,CENTRAL TEXAS COLLEGE,337-537-5202
500,"3864 SEVENTEENTH STREET, SUITE 100",METARIE,LA,70002,8327,http://www.cuw.edu/,CONCORDIA UNIVERSITY WISCONSIN - NEW ORLEANS,504-828-3802
501,615 CITY PARK AVE,NEW ORLEANS,OR,70119,8600,http://www.dcc.edu/,DELGADO COMMUNITY COLLEGE,504-671-5012
502,8100 HIGHWAY 71 SOUTH,ALEXANDRIA,LA,9121,9210,http://www.lsua.edu/,LOUISIANA STATE UNIVERSITY AT ALEXANDRIA,318-427-4492
503,"21454 KOOP DRIVE, THIRD FLOOR",MANDEVILLE,LA,70471,8892,http:// http://www.northshorecollege.edu,NORTHSHORE TECHNICAL COMMUNITY COLLEGE,985) 732-6640 EXT: 177
504,"100 COLLEGE STREET, STUDENT UNION ROOM 306",NATCHITOCHES,LA,71497,8671,http://www.nsula.edu/,NORTHWESTERN STATE UNIVERSITY,318) 357-5246
505,"900 B W. UNIVERSITY AVENUE, ROOM 172",HAMMOND,LA,70402,9540,http://www.selu.edu/,SOUTHEASTERN LOUISIANA UNIVERSITY,985-549-3897
506,3050 MARTIN LUTHER KING DR,SHREVEPORT,LA,71107,8763,http://www.sulsa.edu/,SOUTHERN UNIVERSITY,316-674-3450
507,SOUTHERN UNIVERSITY AT SHREVEPORT,3050 MARTIN LUTHER KING JR,MA,,7948,http://www.susla.edu/,SOUTHERN UNIVERSITY AT SHREVEPORT,"SHREVEPORT, LA   71107"
508,"111 VETERANS MEMORIAL BOULEVARD, SUITE 420",METARIE,LA,70005,7970,http://www.strayer.edu/,STRAYER UNIVERSITY,504-799-1729
509,"ROOM 216, BUSINESS BUILDING, 2000 LAKESHORE DRIVE",NEW ORLEANS,OR,70148,8385,http://www.uno.edu/,UNIVERSITY OF NEW ORLEANS,504-280-8378
510,1350 WEST ST,PITTSFIELD,MA,01201,8531,http://www.berkshire.edu/,BERKSHIRE COMMUNITY COLLEGE,413) 236-1655
511,"10 SHAW ROAD, GROUND FLOOR , MAXWELL LIBRARY",BRIDGEWATER,MA,02325,8204,http://www.bridgew.edu/testingservices/,BRIDGEWATER STATE UNIVERSITY,508) 531-1780
512,"KITTREDGE CENTER, ROOM 204, 303 HOMESTEAD AVENUE",HOLYOKE,MA,01040,8123,http://www.hcc.edu/,HOLYOKE COMMUNITY COLLEGE,413) 552-2112
513,444 GREEN STREET,GARDNER,MA,01440,9238,http://www.mwcc.mass.edu/,MOUNT WACHUSETT COMMUNITY COLLEGE,978-630-9383
514,100 ELLIOT STREET,HAVERHILL,MA,01830,9745,http://www.necc.mass.edu/,NORTHERN ESSEX COMMUNITY COLLEGE - HAVERHILL,978) 556-3872
515,"1 FERNCROFT ROAD, ROOM DB 213",DANVERS,MA,01923,8868,http://www.nscc.mass.edu/,NORTH SHORE COMMUNITY COLLEGE - DANVERS CAMPUS,978) 739-5539
516,300 BROAD STREET,LYNN,MA,01901,7256,http://www.northshore.edu/,NORTH SHORE COMMUNITY COLLEGE - LYNN CAMPUS,978) 739-6682
517,COAST GUARD AIR STATION CAPE COD BLDG.3164,CAPE COD,CO,02542,7352,http://www.post.edu/,POST UNIVERSITY - COAST GUARD AIR STATION CAPE COD,203) 598-6415
518,SUITE 1M4,BOSTON,MA,02129,9993,http://www.springfieldcollege.edu/,SPRINGFIELD COLLEGE,617-242-3025
519,"29 CHENNAULT STREET, BLDG. 1728",HANSCOM,MA,01731,9771,http://www.park.edu/hans,"THE PARK UNIVERSITY, HANSCOM AFB CAMPUS",781) 860-7275
520,"ONE VAN DE GRAAFF DR., STE 300",BURLINGTON,MA,01803,9136,http://www.phoenix.edu/,UNIVERSITY OF PHOENIX,781-265-3813
521,"LEONARDTOWN CAMPUS - TESTING CENTER, 22950 HOLLYWOOD ROAD, BUILDING A, ROOM 103",LEONARDTOWN,MD,20650,8326,http://www.csmd.edu/,COLLEGE OF SOUTHERN MARYLAND,240-725-5340
522,8730 MITCHELL ROAD,LA PLATA,PL,20646,9555,http://www.csmd.edu/,COLLEGE OF SOUTHERN MARYLAND,301-870-3008 X7128
523,"PRINCE FREDERICK CAMPUS, 115 JW WILLIAMS ROAD",PRINCE FREDERICK,FR,20678,7845,http://www.csmd.edu/,COLLEGE OF SOUTHERN MARYLAND,443-550-6000
524,7932 OPOSSUMTOWN PIKE,FREDERICK,MD,21702,9735,http://www.frederick.edu/,FREDERICK COMMUNITY COLLEGE,301-846-2522
525,11400 ROBINWOOD DR,HAGERSTOWN,MD,21742,9163,http://www.hagerstowncc.edu/,HAGERSTOWN COMMUNITY COLLEGE,301-790-2800 X305
526,401 THOMAS RUN RD,BEL AIR,AI,21015,9164,http://www.harford.edu/testing/,HARFORD COMMUNITY COLLEGE,443-412-2352
527,10901 LITTLE PATUXENT PKWY,COLUMBIA,MD,21044,8964,http://www.howardcc.edu/,HOWARD COMMUNITY COLLEGE,443-518-1280
528,6602 PARK HEIGHTS AVENUE,BALTIMORE,MD,21215,9822,http://maalotbaltimore.org/,MAALOT-BALTIMORE-ZAIDNER INSTITUTE,410-358-3144
529,"OFFICE OF CONTINUING EDUCATION, 5350 SPECTRUM DRIVE, SUITE A",FREDERICK,MD,21703,8496,http://www.msmary.edu/,MOUNT SAINT MARY'S UNIVERSITY,301-682-8315
530,NER ISRAEL RABBENICAL COLLEGE,400 MOUNT WILSON LANE,MO,,9762,410-484-7807,NER ISRAEL RABBENICAL COLLEGE,"BALTIMORE, MD   21208"
531,"TESTING OFFERED FOR STRAYER UNIVERSITY STUDENTS ONLY4710 AUTH PLACE, 1ST FLOOR, ROOM 220",SUITLAND,MD,20746,9724,http://www.strayer.edu/,STRAYER UNIVERSITY,301-423-3600
532,"500 REDLAND COURT, SUITE 100",OWINGS MILLS,MI,21117,8897,http://www.strayer.edu/,STRAYER UNIVERSITY,443-394-3400
533,"9920 FRANKLIN SQUARE DRIVE, SUITE 200",BALTIMORE,MD,21236,9726,http://www.strayer.edu/,STRAYER UNIVERSITY,410-238-9007
534,4 RESEARCH PLACEROCKVILLE MD 20850,ROCKVILLE,MD,20850,9723,http://www.strayer.edu/,STRAYER UNIVERSITY,301-548-5529
535,"DSST HOURS (BY APPOINTMENT ONLY)TUESDAYS, WEDNESDAYS AND THURSDAYS10:00AM TO 6:00PM800 SOUTH ROLLING ROAD",BALTIMORE,MD,21228,7766,http://www.ccbcmd.edu/testingappointment,THE COMMUNITY COLLEGE OF BALTIMORE COUNTY - CATONSVILLE CAMPUS,443) 840-1594
536,"DSST HOURS (BY APPOINTMENT ONLY)TUESDAYS, WEDNESDAYS AND THURSDAYS10:00AM TO 6:00PM7201 ROSSVILLE BOULEVARD",BALTIMORE,MD,21237,8007,http://www.ccbcmd.edu/testingappointment,THE COMMUNITY COLLEGE OF BALTIMORE COUNTY - ESSEX CAMPUS,443) 840-3772
537,1413 ARKANSAS ROAD,ANDREWS AFB,AF,20762,7101,http://www.umuc.edu/,UMUC - JOINT BASE ANDREWS,301) 887-7183
538,BUILDING 8601 ZIMBORSKI AVENUE,FORT MEADE,ME,20755,7253,http://www.umuc.edu/,UNIVERSITY OF MARYLAND UNIVERSITY COLLEGE,301-621-9882
539,1616 MCCORMICK DRIVE,LARGO,MD,20774,8338,http://www.umuc.edu/,UNIVERSITY OF MARYLAND UNIVERSITY COLLEGE,240-684-2166
540,6865 DEERPATH ROAD,ELKRIDGE,MD,21075,7332,http://www.umuc.edu/,UNIVERSITY OF MARYLAND UNIVERSITY COLLEGE - DORSEY STATION CENTER,443-459-3500
541,"1250 TURNER STJALBERT HALL, ROOM 300",AUBURN,ME,04210,8603,http://www.cmcc.edu/,CENTRAL MAINE COMMUNITY COLLEGE,207) 755-5450
542,33 EDGEMONT DRIVE,PRESQUE ISLE,IS,04769,8982,https://www.nmcc.edu,NORTHERN MAINE COMMUNITY COLLEGE,207) 760-1125
543,278 WHITES BRIDGE RD,STANDISH,ME,5263,8668,http://www.sjcme.edu///,ST. JOSEPH'S COLLEGE,207-893-7816
544,46 UNIVERSITY DR,AUGUSTA,ME,9410,8612,http://www.maine.edu/,UNIVERSITY OF MAINE,207-621-3144
545,23 UNIVERSITY DRIVE,FORT KENT,KE,04743,9354,http://www.umfk.maine.edu/,UNIVERSITY OF MAINE,207-834-2346
546,96 FAIRMONT STREET240 LUTHER BONNEY HALL - TESTING CENTER,PORTLAND,ME,9300,9553,http://www.usm.maine.edu/,UNIVERSITY OF SOUTHERN MAINE,207) 780-4578
547,112 COLLEGE DRIVE,WELLS,ME,04090,9207,http://www.yccc.edu,YORK COUNTY COMMUNITY COLLEGE,207) 216-4324
548,665 JOHNSON STREET,ALPENA,MI,49707,9623,http://www.alpenacc.edu/,ALPENA COMMUNITY COLLEGE,989) 358-7209
549,123 BELL HALL,BERRIEN SPRINGS,SP,49104,9572,http://www.andrews.edu/,ANDREWS UNIVERSITY,269-471-3470
550,1050 WEST BRISTOL ROAD,FLINT,MI,48507,8997,http://www.baker.edu/,BAKER COLLEGE,800) 964-4299
551,260 W. HOPKINS COURT,MOUNT PLEASANT,PL,48859,9084,http://www.cmich.edu/,CENTRAL MICHIGAN UNIVERSITY,989-774-1092
552,"LIVONIA, MI   48152",734,,2800,9918,http://www.davenport.edu/,DAVENPORT UNIVERSITY,800-585-0575
553,200 S. GRAND AVENUE,LANSING,MI,48933,8296,http://www.davenport.edu/,DAVENPORT UNIVERSITY - LANSING CAMPUS,517) 367-8240
554,6191 KRAFT AVENUE,GRAND RAPIDS,RA,49512,8413,http://www.davenport.edu/,DAVENPORT UNIVERSITY W.A. LETTINGA CAMPUS,616) 554-5614
555,27650 DEQUINDRE RD,WARREN,MI,5209,9564,http://www.davenport.edu/,DAVENPORT UNIVERSITY - WARREN CAMPUS,586) 620-4027
556,"1961 DELTA ROAD, D-101",UNIVERSITY CENTER,CE,48710,9125,http://www.delta.edu/,DELTA COLLEGE,517-686-9531
557,6767 WEST &QUOT;O&QUOT; AVE,KALAMAZOO,MI,4070,8665,https://www.kvcc.edu/,KALAMAZOO VALLEY COMMUNITY COLLEGE,269-488-4490
558,450 NORTH AVENUE,BATTLE CREEK,CR,3397,8187,http://www.kellogg.edu/,KELLOGG COMMUNITY COLLEGE,269-965-3931
559,4800 W 4 MILE ROAD,GRAYLING,MI,49738,9578,http://www.kirtland.edu/,KIRTLAND COMMUNITY COLLEGE,989) 275-5000
560,MAALOT DETROIT - DIVISION OF NEVE YERUSHALAYIM COLLEGE,14390 WEST TEN MILE ROAD,WE,,8688,248-557-3185,MAALOT DETROIT - DIVISION OF NEVE YERUSHALAYIM COLLEGE,"OAK PARK, MI   48237"
561,"WARREN, MI   48088",586,,7001,9419,http://testing@macomb.edu,MACOMB COMMUNITY COLLEGE,http://www.macomb.edu/
562,36600 SCHOOLCRAFT RD,LIVONIA,MI,48150,9581,http://www.madonna.edu/,MADONNA UNIVERSITY,734-432-5323
563,556 EAST CIRCLE DRIVE ROOM 237,EAST LANSING,LA,48824,8871,http://www.testingoffice.msu.edu/,MICHIGAN STATE UNIVERSITY,517-355-8278
564,1515 HOWARD ST,PETOSKEY,MI,49770,9077,http://www.ncmich.edu/,NORTH CENTRAL MICHIGAN COLLEGE,231-348-6613
565,1701 E FRONT STREET,TRAVERSE CITY,CI,49686,9658,https://www.nmc.edu/,NORTHWESTERN MICHIGAN COLLEGE,800-748-0566
566,18600 HAGGERTY RD,LIVONIA,MI,48152,8059,http://www.schoolcraft.edu/,SCHOOLCRAFT COLLEGE,734-462-4806
567,"DOWAGIAC, MI   49047",269,,1347,9321,http://www.swmich.edu/,SOUTHWESTERN MICHIGAN COLLEGE,800) 456-8675
568,106 EAST MAIN ST,SPRING ARBOR,AR,49283,8550,http://www.arbor.edu/,SPRING ARBOR UNIVERSITY,517) 750-6481
569,80 LIVINGSTON BLVD,GAYLORD,MI,49735,8913,http://www.phoenix.edu/,UNIVERSITY CENTER GAYLORD,989) 705-3700
570,"8200 WEST OUTER DRIVE, 4001 MCNICHOLS",DETROIT,MI,0900,8534,http://www.udmercy.edu/,UNIVERSITY OF DETROIT - MERCY,313-993-1940
571,"26261 EVERGREEN ROAD, SUITE 500",SOUTHFIELD,MI,48076,8935,http://www.phoenix.edu/,UNIVERSITY OF PHOENIX - DETROIT CAMPUS,248) 675-3700
572,1001 WOODWARD AVE,DETROIT,MI,48226,9029,http://www.phoenix.edu/,UNIVERSITY OF PHOENIX - DOWNTOWN DETROIT LEARNING CENTER,248) 675-3701
573,"4800 EAST HURON RIVER ROAD, SC 230C",ANN ARBOR,AR,48106,9885,http://www.washtenaw.cc.mi.us/,WASHTENAW COMMUNITY COLLEGE,734) 973-3495
574,1601 JEFFERSON ST.,ALEXANDRIA,MN,56308,8120,http://www.alextech.edu/,ALEXANDRIA TECHNICAL AND COMMUNITY COLLEGE,888-234-1222 X4487
575,300 SPIRIT RIVER DRIVE SOUTH,CAMBRIDGE,MN,55008,8203,http://www.anokaramsey.edu/,ANOKA-RAMSEY COMMUNITY COLLEGE - CAMBRIDGE CAMPUS,763) 433-1980
576,11200 MISSISSIPPI BOULEVARD NW,COON RAPIDS,RA,55433,7903,http://www.anokaramsey.edu/,ANOKA-RAMSEY COMMUNITY COLLEGE - COON RAPIDS CAMPUS,763) 433-1180
577,3900 BETHEL DRIVE,ST,PA,55112,8783,https://www.bethel.edu/adult-undergrad/academics/ways-to-earn-credit/exam-credits/,BETHEL UNIVERSITY,651) 635-8777
578,1200 KENWOOD,DULUTH,MN,55811,9110,http://www.css.edu/,COLLEGE OF ST. SCHOLASTICA,218-723-6464
579,COOK COUNTY HIGHER EDUCATION,300 WEST 3RD STREET,WE,,9693,218-387-3411,COOK COUNTY HIGHER EDUCATION,"GRAND MARAIS, MN   55604"
580,920 MAYOWOOD ROAD SW,ROCHESTER,MN,55902,7721,http://www.crossroadscollege.edu/,CROSSROADS COLLEGE,507-535-3318
581,"2101 TRINITY ROAD, E-1006",DULUTH,MN,55811,9383,http://www.lsc.edu/lifelonglearning/creditforpriorlearning/index.cfm,LAKE SUPERIOR COLLEGE,218) 733-7784
582,NORTHWEST TECHNICAL INSTITUTE,950 BLUE GENTIAN ROAD,BL,500,8382,952 944 0080,NORTHWEST TECHNICAL INSTITUTE,"EAGAN, MN   55121"
583,851 30TH AVE SE,ROCHESTER,MN,55904,7783,http://www.rctc.edu/,ROCHESTER COMMUNITY TECH COLLEGE,507-536-5603
584,"1501 STATE STREET, BELLOW ACADEMIC 156",MARSHALL,MN,56258,8006,http://www.smsu.edu/,SOUTHWEST MINNESOTA STATE UNIVERSITY,507-537-7150
585,"235 BEHMLER HALL, 600 EAST 4TH STREET",MORRIS,MN,56267,9988,http://www.morris.umn.edu/services/testcenter/,UNIVERSITY OF MINNESOTA - MORRIS,320-589-6060
586,"FOCUS, 3003 SNELLING AVENUE NORTH",ST,PA,55113,8060,http://www.unwsp.edu,UNIVERSITY OF NORTHWESTERN - ST. PAUL,651-631-5263
587,859 30TH AVE SE,ROCHESTER,MN,55904,8842,http://www.winona.edu/rochester/,WINONA STATE UNIVERSITY,507-285-7210
588,175 W. MARK ST.,WINONA,MN,55987,9393,http://www.winona.msus.edu/,WINONA STATE UNIVERSITY,507-457-5100
589,3000 N. GRANT,SPRINGFIELD,MO,65803,8609,http://www.cbcag.edu/,CENTRAL BIBLE COLLEGE,417-833-2551
590,411 CMU SQUARE,FAYETTE,MO,65203,8756,http://www.centralmethodist.edu/,CENTRAL METHODIST UNIVERSITY,660) 248-6211
591,1001 ROGERS STREET,COLUMBIA,MO,65216,9112,http://www.ccis.edu/,COLUMBIA COLLEGE,573-875-4569
592,268 CONSTITUTION STREET,FORT LEONARD WOOD,LE,65473,7209,http://www.ccis.edu/nationwide/ftwood/,COLUMBIA COLLEGE,573-329-4050
593,3314 EMERALD LAKE,JEFFERSON CITY,CI,65109,9860,http://www.ccis.edu/nationwide/jeffcity/,COLUMBIA COLLEGE,573-634-3250
594,"SPRINGFIELD CAMPUS, 3271 E. BATTLEFIELD ROAD, SUITE 250",SPRINGFIELD,MO,65804,9423,http://www.ccis.edu/nationwide/springfield/,COLUMBIA COLLEGE,417-881-4466
595,"ROLLA, MO   65402",573,,3350,9537,http://www.ccis.edu/nationwide/rolla/,COLUMBIA COLLEGE,800-303-0038
596,"4240 BLUE RIDGE BLVD, SUITE 400",KANSAS CITY,CI,1702,9861,http://www.ccis.edu/nationwide/kansascity/,COLUMBIA COLLEGE-KANSAS CITY,816) 795-1515
597,"10733 SUNSET OFFICE DRIVE , SUITE 425",ST LOUIS,LO,63127,7785,http://www.cuw.edu/,CONCORDIA UNIVERSITY,314) 984-8840
598,ONE COLLEGE HILL,CANTON,MO,63435,9119,http://www.culver.edu/,CULVER-STOCKTON COLLEGE,573-288-6544
599,900 NORTH BENTON AVENUE,SPRINGFIELD,MO,65802,8965,http://www.drury.edu/,DRURY UNIVERSITY,417-873-7211
600,111 N. GLENSTONE,SPRINGFIELD,MO,65802,8167,http://www.evangel.edu/,EVANGEL UNIVERSITY,417) 865-2815 EX 8269
601,"WOODROW BURT ADMINISTRATION BUILDING, 2ND FLOOR2800 PALMYRA ROAD",HANNIBAL,MO,63401,7508,http://www.hlg.edu/,HANNIBAL-LAGRANGE UNIVERSITY,573) 629-7034
602,ONE COLLEGE PARK DRIVE,ST,LO,63141,8520,http://www.mobap.edu/,MISSOURI BAPTIST COLLEGE,314-392-2310
603,901 S. NATIONAL AVENUE,SPRINGFIELD,MO,65898,8809,http://www.missouristate.edu/,MISSOURI STATE UNIVERSITY,417-836-5116
604,"320 W. 12TH STREET, 202 NORWOOD HALL",ROLLA,MO,1350,9916,http://www.testcenter.mst.edu/,MISSOURI UNIVERSITY OF SCIENCE &AMP; TECHNOLOGY,573-341-4222
605,1301 MAIN STREET,TRENTON,MO,64683,9022,http://www.ncmissouri.edu/,NORTH CENTRAL MISSOURI COLLEGE,816-359-3948
606,8700 NW RIVER PARK DRIVE - #46,PARKVILLE,MO,3795,9274,http://new.park.edu/campus-centers/missouri/mo-parkville.html,PARK UNIVERSITY,816-584-6887
607,"268 CONSTITUTION STREET, SUITE 11",FT,LE,65473,8504,http://new.park.edu/campus-centers/missouri/mo-waynesville.html,PARK UNIVERSITY,573-329-2798
608,ONE UNIVERSITY PLAZA,CAPE GIRARDEAU,GI,63701,9435,http://www.semo.edu/,SOUTHEAST MISSOURI STATE UNIVERSITY,573) 651-2836
609,"3201 W. 16TH STREET, CHARLES E. YEATER LEARNING CENTER, ROOM 171",SEDALIA,MO,65301,9613,http://www.sfccmo.edu/,STATE FAIR COMMUNITY COLLEGE,660) 530-5818
610,"511 SPIRIT BOULEVARD, BUILDING 515, ROOM 246",WHITEMAN AFB,AF,65305,7226,http://www.sfccmo.edu/,STATE FAIR COMMUNITY COLLEGE - WHITEMAN AFB,660) 796-7476
611,"FLORISSANT VALLEY, 3400 PERSHALL ROAD",ST,LO,63135,9609,http://www.stlcc.cc.mo.us/,ST. LOUIS COMMUNITY COLLEGE,314-513-4292
612,"10450 HOLMES ROAD, SUITE 100",KANSAS CITY,CI,3459,9266,http://www.strayer.edu/,STRAYER UNIVERSITY,816-489-4529
613,"1600 S BRENTWOOD BLVD, SUITE 300",BRENTWOOD,MO,63144,9178,http://www.strayer.edu/,STRAYER UNIVERSITY,314-817-9129
614,HUMPHREYS 216 UNIVERSITY OF CENTRAL MISSOURI,WARRENSBURG,MO,64093,9085,http://www.cmsu.edu/,UNIVERSITY OF CENTRAL MISSOURI,660-543-4919
615,205 PARKER HALL,COLUMBIA,MO,65211,8838,http://www.missouri.edu/,UNIVERSITY OF MISSOURI,573-882-4801
616,"8001 NATURAL BRIDGE ROAD, TOWER 507",ST,LO,4499,8620,http://www.umsl.edu/,UNIVERSITY OF MISSOURI - ST. LOUIS,314-516-5198
617,470 EAST LOCKWOOD,ST,LO,63119,9991,http://www.webster.edu/,WEBSTER UNIVERSITY,314-961-2660 X7620
618,"1200 EAST 104TH STREET, SUITE 100",KANSAS CITY,CI,64131,9990,http://www.webster.edu/,WEBSTER UNIVERSITY,816-444-2200
619,"THIS LOCATION ONLY TESTS TO ENROLLED STUDENTS**, 4780 I-55 NORTH, SUITE 125,",JACKSON,MS,39211,8243,http://www.bellhaven.edu/,BELHAVEN COLLEGE,601-968-8880
620,"7111 SOUTHCREST PARKWAY, SUITE 105",SOUTHAVEN,MS,38671,8697,http://www.belhaven.edu/,BELLHAVEN UNIVERSITY,662) 469-5387
621,201 WEST MAIN STREET,BLUE MOUNTAIN,MO,38610,8652,http://www.bmc.edu,BLUE MOUNTAIN COLLEGE,662) 685-4771
622,14109 FOX HILL DRIVE,GULFPORT,MS,39503,7233,http://military.coastline.edu/,COASTLINE COMMUNITY COLLEGE,228) 871-3439
623,"505 MAIN STREET, P.O. BOX 1100",RAYMOND,MS,39154,8996,http://www.hindscc.edu/,HINDS COMMUNITY COLLEGE,601-857-3852
624,"RAYMOND, MS   37154-1100",800,CC,,7315,http://www.hindscc.edu/,HINDS COMMUNITY COLLEGE,800-446-3722
625,1000 COURT STREET,ELLISVILLE,MS,39437,8988,http://www.jcjc.edu/,JONES COUNTY JUNIOR COLLEGE,601-477-4025
626,910 HIGHWAY 19 NORTH,MERIDIAN,MS,39307,7193,http://www.meridian.edu/,MERIDIAN COMMUNITY COLLEGE,601-484-8724
627,SAINT LEO UNIVERSITY,ADDRESS 680 SEVENTH STREET,SE,120,7310,662-434-8844,SAINT LEO UNIVERSITY,"COLUMBUS AFB, MS   39710"
628,"460 BRIARWOOD DRIVE, SUITE 200",JACKSON,MS,39206,7980,http://www.strayer.edu/,STRAYER UNIVERSITY,601-718-5829
629,WAYLAND BAPTIST UNIVERSITY,500 FISHER STREET,FI,,7355,http://www.wbu.edu/,WAYLAND BAPTIST UNIVERSITY,"KEESLER AFB, MS   39534"
630,2100 16TH AVENUE SOUTH,GREAT FALLS,FA,59405,9472,http://students.gfcmsu.edu/testing/,GREAT FALLS COLLEGE - MONTANA STATE UNIVERSITY,406) 268-3371
631,2715 DICKINSON,MILES CITY,CI,59301,8950,http://www.milescc.edu/,MILES COMMUNITY COLLEGE,406-232-3031
632,GARNETT LIBRARY 304 W. TRISH KNIGHT ST.,WEST PLAINS,PL,65775,8953,http://wp.missouristate.edu,MISSOURI STATE UNIVERSITY - WEST PLAINS,417) 255-7943
633,1300 WEST PARK STREET,BUTTE,MT,59701,8585,http://www.mtech.edu/,MONTANA TECH OF THE UNIVERSITY OF MONTANA,406-496-4477
634,LODGE 231 CAMPUS DRIVE,MISSOULA,MT,59812,8129,http://www.umt.edu/,UNIVERSITY OF MONTANA,406-243-6257
635,"211 N. BROADWAY, SUITE 900",ST,LO,63102,9831,http://www.phoenix.edu,UNIVERSITY OF PHOENIX,314) 687-1329
636,"200 MEREDITH DRIVE, SUITE 106",DURHAM,NC,27713,9358,http://www.hsbenterprise.org/,A PLUS TESTING &AMP; ASSESSMENT CENTER - DURHAM SITE,866) 443-6448
637,2853 DAVIS ROAD,EAST BEND,BE,27018,8037,http://www.brewertesting.com/,BREWER TESTING SERVICES,336-699-3997
638,PO BOX 7365,FORT BRAGG,BR,28307,7365,http://www.campbellfortbragg.com/index.htm,CAMPBELL UNIVERSITY,910-436-3242
639,384 MAYNARD ST,POPE AFB,AF,28308,7300,http://www.campbellfortbragg.com/index.htm,CAMPBELL UNIVERSITY,910-436-3242
640,PO BOX 1135,BLUES CREEK,CR,27506,9081,http://www.campbell.edu/academics/registrar/registrar-policies.html#dantes_subject_standardized_tests_(dssts),CAMPBELL UNIVERSITY-FORT BRAGG,910-893-1278
641,305 CUNNINGHAM BLVD,HAVELOCK,NC,28532,7319,http://www.cravencc.edu/,CRAVEN COMMUNITY COLLEGE,252-444-6000
642,102-D BREWSTER BUILDING,GREENVILLE,NC,27858,9588,http://www.ecu.edu/testingcenter/,EAST CAROLINA UNIVERSITY,252-328-6811
643,"FAYETTEVILLE, NC   28301",910,,1302,9145,http://www.uncfsu.edu/,FAYETTEVILLE STATE UNIVERSITY,910-672-1299
644,815 WEST MARKET,GREENSBORO,NC,27401,8616,http://www.gborocollege.edu/,GREENSBORO COLLEGE,336-272-7102 X259
645,"1100 LOGGER COURT, BUILDING E-101",RALEIGH,NC,27609,9433,http://hsbenterprise.org/,HSB ENTERPRISE CORPORATION,866) 443-6448
646,PO BOX 398,KENANSVILLE,NC,28349,8581,http://www.sprunt.edu/,JAMES SPRUNT COMMUNITY COLLEGE,910-296-2506
647,245 COLLEGE ROAD,SMITHFIELD,NC,27577,9426,http://www.johnston.edu/,JOHNSTON COMMUNITY COLLEGE,919-209-2088
648,501 NORTH MAIN ST,LOUISBURG,NC,27549,9206,http://www.louisberg.edu/,LOUISBURG COLLEGE,919-496-3201
649,5400 RAMSEY ST,FAYETTEVILLE,NC,28311,9222,http://www.methodist.edu/,METHODIST COLLEGE,910-630-7251
650,634 HENDERSON ST,MOUNT OLIVE,OL,28365,8372,http://www.moc.edu/,MOUNT OLIVE COLLEGE,919-658-7165
651,MOUNT OLIVE COLLEGE,2543 ONSLOW DRIVE,ON,,7869,910-455-1677,MOUNT OLIVE COLLEGE,"JACKSONVILLE, NC    28540"
652,"NEW BERN, NC   28560",800,,5479,8288,http://www.moc.edu/,MOUNT OLIVE COLLEGE,252-633-4464
653,"5001 S. MIAMI BOULEVARD, SUITE 112",DURHAM,NC,27703,8241,http://www.moc.edu/,MOUNT OLIVE COLLEGE,919-941-2970
654,522 NORTH OLD CARRIAGE ROAD,ROCKY MOUNT,MO,0488,9434,http://www.nashcc.edu/,NASH COMMUNITY COLLEGE,252-451-8246
655,5108 REAGAN DR. SUITE 12,CHARLOTTE,NC,28206,8537,http://www.ncelitecareer.com/,NC ELITE CAREER CENTER OF CHARLOTTE,704) 919-0455
656,132 QUADE DRIVE,CARY,NC,27513,8530,http://www.ncelitecareer.com/,NC ELITE CAREER CENTER OF TRIANGLE,919) 677-9026
657,C 305 L.P. WALKER COMPLEX,DURHAM,NC,27707,8446,http://www.nccu.edu/,NORTH CAROLINA CENTRAL UNIVERSITY,919-530-7368
658,4426 S. MIAMI BOULEVARD,DURHAM,NC,27703,8013,http://www.ncwc.edu/,NORTH CAROLINA WESLEYAN COLLEGE AT RALEIGH-DURHAM,919) 465-4784
659,3400 NORTH WESLEYAN BLVD,ROCKY MOUNT,MO,27804,9252,http://www.ncwc.edu/,NORTH CAROLINA WESLEYAN COLLEGE AT ROCKY MOUNT,919-465-4784
660,8512,PFEIFFER UNIVERSITY,UN,,8512,"MISENHEIMER, NC   28109",PFEIFFER UNIVERSITY,48380 U.S. HWY 52 N
661,4701 PARK ROAD,CHARLOTTE,NC,28209,8517,http://www.pfeiffer.edu/,PFEIFFER UNIVERSITY - CHARLOTTE,704-463-3452
662,1333 JAKE ALEXANDER BLVD S,SALISBURY,NC,28146,8132,http://www.rccc.edu/,ROWAN-CABARRUS COMMUNITY COLLEGE,704-216-3468
663,4 COPLEY PARKWAY,MORRISVILLE,NC,27560,9025,http://www.strayer.edu/,STRAYER UNIVERSITY,919-466-4420
664,8701 WADFORD DRIVE,RALEIGH,NC,27616,9937,http://www.strayer.edu/,STRAYER UNIVERSITY,919-301-6520
665,"13620 REESE BLVD., SUITE 130",HUNTERSVILLE,NC,28078,8150,http://www.strayer.edu/,STRAYER UNIVERSITY,704-379-6829
666,3421 OLYMPIA DRIVE,RALEIGH,NC,27603,7722,http://www.strayer.edu/,STRAYER UNIVERSITY,919-890-7529
667,"4900 KOGER BLVD, STE 400",GREENSBORO,NC,27407,8363,http://www.strayer.edu/,STRAYER UNIVERSITY - GREENSBORO CAMPUS,336) 315-7832
668,"7870 COMMONS PARK CIRCLE, NW",CONCORD,NC,28027,9023,http://www.strayer.edu/,STRAYER UNIVERSITY - NORTH CHARLOTTE,704) 886-6529
669,4525 HIGHWAY 264 WEST,WASHINGTON,NC,27889,8170,https://www.umo.edu/,UNIVERSITY OF MOUNT OLIVE,252) 940-0146
670,1520 GOODSON STREET,GOLDSBORO,NC,27531,7216,http://www.moc.edu/,UNIVERSITY OF MOUNT OLIVE AT SEYMOUR JOHNSON AFB,919) 299-4925
671,"1838 SIR TYLER DRIVE, SUITE 100",WILMINGTON,NC,28405,8294,http://www.moc.edu/,UNIVERSITY OF MOUNT OLIVE AT WILMINGTON,800-300-7478
672,"COUNSELING &AMP; TESTING CENTER, 107 GRAY DRIVE, ROOM 217-A",GREENSBORO,NC,6170,7823,http://www.uncg.edu/shs/ctc/,UNIVERSITY OF NORTH CAROLINA GREENSBORO,336-334-5877
673,"JACKSONVILLE, NC   28547",910,,5876,7218,http://uncw.edu/onslow/testing.html,UNIVERSITY OF NORTH CAROLINA WILMINGTON,910-451-5457 (FAX)
674,601 S. COLLEGE ROAD,WILMINGTON,NC,28403,7863,http://www.uncw.edu/reg/transfercredit-examdsst.htm,UNIVERSITY OF NORTH CAROLINA WILMINGTON,910-962-3036
675,"3800 ARCO CORPORATE DRIVE, SUITE 100",CHARLOTTE,NC,28273,7840,http://www.phoenix.edu/,UNIVERSITY OF PHOENIX,704 501 2923
676,10925 DAVID TAYLOR DRIVE SUITE 100,CHARLOTTE,NC,28262,8989,http://www.phoenix.edu/,UNIVERSITY OF PHOENIX - CHARLOTTE NORTH LEARNING CENTER,704) 501-2923
677,"DISTANCE &AMP; CONTINUING EDUCATION, EDUCATINO OUTREACH, 138 CORDELIA CAMP BUILDING",CULLOWHEE,NC,28723,7914,http://www.wcu.edu/9467.asp,WESTERN CAROLINA UNIVERSITY,828-227-7211
678,1500 EDWARDS AVENUE,BISMARCK,ND,58501,9200,http://www.bsc.nodak.edu,BISMARCK STATE COLLEGE,701 224 5658
679,1500 EDWARDS AVENUE,BISMARCK,ND,58506,7262,http://www.bismarckstate.edu/,BISMARCK STATE COLLEGE,701) 224-5658
680,291 CAMPUS DR,DICKINSON,ND,59601,8804,http://www.dickinsonstate.edu/,DICKINSON STATE UNIVERSITY,701-483-2964
681,500 W UNIVERSITY AVE,MINOT,ND,58707,8641,http://www.minotstateu.edu/,MINOT STATE UNIVERSITY,701) 858-3990
682,500 UNIVERSITY AVE W,MINOT,ND,58701,7185,http://www.minotstateu.edu/,MINOT STATE UNIVERSITY - MINOT AFB,701) 858-3990
683,1351 PAGE DRIVE,FARGO,ND,58103,8514,http://www.umary.edu/um/,UNIVERSITY OF MARY,877-868-6279
684,7500 UNIVERSITY DR,BISMARCK,ND,9652,9213,http://www.umary.edu/um/,UNIVERSITY OF MARY,701) 355-8050
685,2891 2ND AVENUE NORTH STOP 9040MCCANNEL HALL RM. 190N,GRAND FORKS,FO,58202,8675,http://und.edu/testing-center,UNIVERSITY OF NORTH DAKOTA,701) 777-4264
686,2810 NORTH 118TH CIRCLE,OMAHA,NE,68164,7961,http://www.bellevue.edu/,BELLEVUE UNIVERSITY,402-557-7713
687,1000 GALVIN ROAD SOUTH,BELLEVUE,NE,68005,9059,http://www.bellevue.edu/,BELLEVUE UNIVERSITY,800-756-7920
688,800 NORTH COLUMBIA AVENUE,SEWARD,NE,68434,8765,http://www.cune.edu/,CONCORDIA COLLEGE,402-643-7336
689,"ELKHORN VALLEY CAMPUS, 30TH AND FORT STREET",OMAHA,NE,68111,8556,http://www.mccneb.edu/,METROPOLITAN COMMUNITY COLLEGE - ELKHORN VALLEY CAMPUS,402-289-1278
690,"FORT OMAHA CAMPUS, 30TH AND FORT STREET",OMAHA,NE,68111,8557,http://www.mccneb.edu/,METROPOLITAN COMMUNITY COLLEGE - FT OMAHA CAMPUS,402-457-2204
691,2902 ED BABE GOMEZ AVENUE,OMAHA,NE,68111,8558,http://www.mccneb.edu/,METROPOLITAN COMMUNITY COLLEGE - SOUTH OMAHA CAMPUS,402-738-4613
692,"CAREER SERVICES CENTER, 1101 HALLIGAN DRIVE",NORTH PLATTE,PL,69101,9612,http://www.mpcc.edu/,MIDPLAINS COMMUNITY COLLEGE,308-535-3618
693,801 EAST BENJAMIN AVENUE,NORFOLK,NE,68702,8831,http://www.northeast.edu/,NORTHEAST COMMUNITY COLLEGE,402) 844-7281
694,"UNK TESTING CENTER, 1615 W. 24TH STREET, C106",KEARNEY,NE,68847,8502,http://www.unk.edu/,UNIVERSITY OF NEBRASKA,308-865-8054
695,"KAYSER HALL ROOM 522, 6001 DODGE STREET",OMAHA,NE,68182,9360,http://www.unomaha.edu/,UNIVERSITY OF NEBRASKA - DODGE CAMPUS,402) 554-4800
696,"OFUTT AFB, NE   68113",402,,1067,7151,http://www.unomaha.edu/,UNIVERSITY OF NEBRASKA OMAHA â OFUTT AFB,402) 595-2371
697,25 HALL ST,CONCORD,NH,6430,8478,http://www.granite.edu/,GRANITE STATE COLLEGE,603-513-1303
698,"35 E. INDUSTRIAL WAY, SUITE 101",ROCHESTER,NH,03867,8369,http://www.granite.edu/,GRANITE STATE COLLEGE,603-822-5408
699,27 PLEASANT STREET,CLAREMONT,NH,03743,8064,http://www.granite.edu/,GRANITE STATE COLLEGE,603-372-4206
700,"53 TECHNOLOGY LANE, SUITE 150",CONWAY,NH,03818,8749,http://www.granite.edu/,GRANITE STATE COLLEGE,603-452-1506
701,"CENTER FOR STUDENT SUCCESS, 17 HIGH STREET, MSC 61",PLYMOUTH,NH,03264,9863,http://www.plymouth.edu/,PLYMOUTH STATE UNIVERSITY,603) 535-3065
702,467 FRANKLIN STREET,BLOOMFIELD,NJ,07003,9905,http://www.bloomfield.edu/,BLOOMFIELD COLLEGE,973) 748-9000 EXT. 1239
703,765 NEWMAN SPRINGS RD,LINCROFT,NJ,07738,9071,http://www.brookdalecc.edu/,BROOKDALE COMMUNITY COLLEGE,732-224-2076
704,9 RYERSON AVE,CALDWELL,NJ,07006,9138,http://www.caldwell.edu/,CALDWELL UNIVERSITY,973-618-3280
705,200 COLLEGE DRIVE,BLACKWOOD,NJ,08012,8391,http://www.camdence.edu/testing,CAMDEN COUNTY COLLEGE,856-227-7200 X4416
706,630 U.S. HIGHWAY 1,NORTH BRUNSWICK,BR,08902,7835,http://www.devry.edu/,DEVRY UNIVERSITY -  NORTH BRUNSWICK CAMPUS,732) 729-3823
707,"130 CLINTON RD. STE. 203, LOBBY A",FAIRFIELD,NJ,07004,8906,http://www.federalcomputers.com/,FEDERAL COMPUTERS INC,973) 769-2291
708,900 LAKEWOOD AVE,LAKEWOOD,NJ,08701,8282,http://www.georgian.edu/,GEORGIAN COURT UNIVERSITY,732-987-2718
709,1400 TANYARD ROAD,SEWELL,NJ,08080,8194,http://www.gccnj.edu/,GLOUCSTER COUNTY COLLEGE,856-681-6249
710,1200 OLD TRENTON RD,TRENTON,NJ,08690,9220,http://www.mccc.edu/,MERCER COUNTY COMMUNITY COLLEGE,609-570-3298
711,366 VAIL AVENUE,PISCATAWAY,NJ,08854,8891,http://http://www.nursetutorteam.com/,NURSE TUTOR TEAM,908-432-7864
712,"COLLEGE DR, PO BOX 2001",TOMS RIVER,RI,08754,9956,http://www.ocean.edu/,OCEAN COUNTY COLLEGE,732-.255-0400
713,ROUTE 28 &AMP; LAMINGTON ROAD,NORTH BRANCH,BR,08876,9011,http://www.raritanval.edu/,RARITAN VALLEY COMMUNITY COLLEGE,908-526-1200 X8313
714,"201 MULLICA HILL RD, SAVITZ HALL",GLASSBORO,NJ,08028,8042,http://www.rowan.edu/,ROWAN UNIVERSITY,856-256-4260
715,"300 WILLINGBORO WAY, SUITE 125",WILLINGBORO,NJ,08046,8904,http://www.strayer.edu/,STRAYER UNIVERSITY,609-835-6029
716,"242 OLD NEW BRUNSWICK ROAD, SUITE 220",PISCATAWAY,NJ,08854,7960,http://www.strayer.edu/,STRAYER UNIVERSITY,732-743-3829
717,"3150 BRUNSWICK PIKE, SUITE 100",LAWRENCEVILLE,NJ,08648,7956,http://www.strayer.edu/,STRAYER UNIVERSITY,609-406-7629
718,"2201 ROUTE 38, SUITE 800",CHERRY HILL,HI,08002,7846,http://www.strayer.edu/,STRAYER UNIVERSITY,856-482-4229
719,1 COLLEGE HILL ROAD,NEWTON,NJ,07680,7985,http://sussex.edu/academics/testing/,SUSSEX COUNTY COMMUNITY COLLEGE,973-300-2155
720,"OFFICE OF MILITARY EDUCATION,BUILDING 3829,ROOM 303, SCHOOL ROAD",MCGUIRE AFB,AF,08641,7215,http://www.tesu.edu/,THOMAS EDISON STATE UNIVERSITY - MCGUIRE AFB,609) 777-5696 EX.2197
721,UNIVERSITY OF PHOENIX,88 TOWN SQUARE PLACE,TO,,9398,201.234.3106,UNIVERSITY OF PHOENIX,"JERSEY CITY, NJ   07310"
722,475 ROUTE 57 WEST,WASHINGTON,NJ,9605,8542,http://www.warren.edu/,WARREN COUNTY COMMUNITY COLLEGE,908-835-2318
723,"HUNZIKER WING 220, 300 POMPTON RD",WAYNE,NJ,07470,9639,http://www.wpunj.edu/,WILLIAM PATERSON COLLEGE,973-720-3107
724,"CANNON AFB, 110 E. ALISON AVE. BUILDING 600",CLOVIS,NM,88103,7259,http://www.clovis.edu/,CLOVIS COMMUNITY COLLEGE - CANNON AFB,575) 769-4019
725,"HOLLOMAN AFB, NM   88330-8038",575,,1045,7199,http://military.coastline.edu/,COASTLINE COMMUNITY COLLEGE,714-241-6272
726,52 UNIVERSITY BLVD,ROSWELL,NM,88203,8967,http://www.roswell.enmu.edu/,EASTERN NEW MEXICO UNIVERSITY,505-624-7145
727,"1500 S AVENUE K, STATION #34, SAS BUILDING, ROOM 186",PORTALES,NM,88130,9135,http://www.enmu.edu/,EASTERN NEW MEXICO UNIVERSITY,575-562-2280
728,"KIRTLAND EDUCATION CENTER, 1900 WYOMING BOULEVARD, S.E.",KIRTLAND AFB,AF,87117,7291,http://www.lewisu.edu/campuses/albuquerque/,LEWIS UNIVERSITY - ALBUQUERQUE,505-265-3947
729,4775 INDIAN SCHOOL RD NE STE. 200,ALBUQUERQUE,NM,87110,7852,http://www.national.edu/,NATIONAL AMERICAN UNIVERSITY,505) 348-3721
730,"ESPANOLA, NM   87532",505,,2164,8703,http://www.nnmc.edu/,NORTHERN NEW MEXICO  COLLEGE,505-747-2154
731,4601 COLLEGE BLVD,FARMINGTON,NM,87402,7817,http://www.sanjuancollege.edu/,SAN JUAN COLLEGE,505-566-3452
732,6401 RICHARDS AVE,SANTA FE,FE,87502,8332,http://www.sfccnm.edu/,SANTA FE COMMUNITY COLLEGE,505-438-1264
733,"1 UNIVERSITY OF NEW MEXICO, MSC 03 2190",ALBUQUERQUE,NM,0001,9643,http://www.unm.edu/,UNIVERSITY OF NEW MEXICO,505-277-8297
734,UNIVERSITY OF PHOENIX 1270 COUNTRY CLUB ROAD,SANTA TERESA,TE,88008,9738,http://www.phoenix.edu/,UNIVERSITY OF PHOENIX â SANTA TERESA LEARNING CENTER,575) 874-4607
735,121 EAST 4TH STREET,CLOVIS,NM,88101,9561,http://www.wbu.edu/colleges-in-clovis/,WAYLAND BAPTIST UNIVERSITY,505-763-0535
736,4755 PASTURE ROAD (FFSC - BLDG 309),FALLON,NV,5000,7212,http://military.coastline.edu/,COASTLINE COMMUNITY COLLEGE - NAS FALLON,775) 423-3711
737,6375 WEST CHARLESTON BOULEVARD,LAS VEGAS,VE,89146,8058,http://www.csn.edu/,COLLEGE OF SOUTHERN NEVADA,702-651-5733
738,700 COLLEGE DRIVE,HENDERSON,NV,89002,9009,http://www.csn.edu/,COLLEGE OF SOUTHERN NEVADA,702-651-3128
739,3200 EAST CHEYENNE AVENUE,NORTH LAS VEGAS,LA,89030,8878,http://www.csn.edu/pages/4711.asp,COLLEGE OF SOUTHERN NEVADA,702-651-4050
740,"2850 WEST HORIZON RIDGE PKWY, SUITE 300",HENDERSON,NV,89052,9261,http://nu.edu,NATIONAL UNIVERSITY - HENDERSON CAMPUS,702) 514-4071
741,"4475 ENGLAND AVENUE, 99FSS/FSDE, SUITE 300",NELLIS AFB,AF,89191,7366,http://www.nu.edu/,NATIONAL UNIVERSITY - NELLIS AFB,253) 225-6535
742,3755 BREAKTHROUGH WAY,LAS VEGAS,VE,89135,8415,http://www.phoenix.edu/,UNIVERSITY OF PHOENIX,702) 638-7279
743,7777 EASTGATE RD,HENDERSON,NV,89011,8993,http://phoenix.edu,UNIVERSITY OF PHOENIX â HENDERSON LEARNING CENTER,702) 352-0420
744,"FLUSHING, NY   11354",718,,9771,7786,http://test@acs.edu,ALLIANCE COMPUTING SOLUTIONS,http://www.acs.edu
745,"NEW YORK, NY   10018",212,,5990,7790,http://testnyc@acs.edu,ALLIANCE COMPUTING SOLUTIONS NYC,http://www.acs.edu
746,BAIS YAAKOV D'RAV HIRSCH,235 N MAIN STREET,MA,,7792,845-371-6750,BAIS YAAKOV D'RAV HIRSCH,"SPRING VALLEY, NY   10977"
747,566 7TH AVENUESUITE 703,NEW YORK,YO,10018,9597,http://www.brainseedtesting.com/,BRAINSEED TESTING CENTER - NEW YORK,703) 338-1877
748,"16 MOUNT EBO ROAD S., SUITE 18",BREWSTER,NY,10509,9635,http://www.brewstertech.com/school,BREWSTER TECH,845) 279-9400
749,"HEMPSTEAD, NY   11550",516,,5058,9315,http://hempsteadtesting@cambridge-edu.com,CAMBRIDGE BUSINESS INSTITUTE - LONG ISLAND / HEMPSTEAD,http://www.cambridge-edu.com/testing
750,"6796 TOWNLINE RD,",SYRACUSE,NY,13211,7110,http://www.ccis.edu/nationwide/syracuse/,COLUMBIA COLLEGE,315-455-0690
751,P4300 CAMP HALE RD,FORT DRUM,DR,13602,7118,http://www.ccis.edu/nationwide/drum/,COLUMBIA COLLEGE - FORT DRUM,315) 775-0128
752,4006 18TH AVENUE,BROOKLYN,NY,11218,7908,http://copeins.com/,COPE INSTITUTE,718-506-0500 X215
753,1 ACADEMIC DR,CORNING,NY,14830,9677,http://www.corning-cc.edu/,CORNING COMMUNITY COLLEGE,607-962-9329
754,DARKEI NOAM RABBINICAL COLLEGE,2822 AVENUE J,AV,,8057,718-338-6464,DARKEI NOAM RABBINICAL COLLEGE,"BROOKLYN, NY   11201"
755,53 PENDELL ROAD,POUGHKEEPSIE,NY,12601,9130,http://www.sunydutchess.edu/,DUTCHESS COMMUNITY COLLEGE,845-431-8500
756,3325 MARVIN SANDS DR.,CANANDAIGUA,NY,14424,9676,http://www.flcc.edu/,FINGER LAKES COMMUNITY COLLEGE,585-394-3500 X460
757,441 FORDHAM RD,BRONX,NY,10458,8636,http://www.fordham.edu/,FORDHAM UNIVERSITY,718-817-4600
758,5200 SOUTH PARK AVE,HAMBURG,NY,14075,9631,http://www.hilbert.edu/,HILBERT COLLEGE,716) 926-8929
759,ONE WILLARD AVE,HOUGHTON,NY,14744,8789,http://www.houghton.edu/,HOUGHTON COLLEGE,585) 567-9355
760,80 VANDENBURGH AVENUE,TROY,NY,12180,9680,http://www.hvcc.edu/,HUDSON VALLEY COMMUNITY COLLEGE,518-629-7320
761,1220 COFTEEN STREET,WATERTOWN,NY,13601,9180,http://www.sunyjefferson.edu/,JEFFERSON COMMUNITY COLLEGE,315-786-2249
762,KOLLEL MEKOR HABRACHAH,147,UN,,8714,917) 747-7342,KOLLEL MEKOR HABRACHAH,"FLUSHING, NY   11367"
763,"290 NORTH ROAD, DYSON 147",POUGHKEEPSIE,NY,12601,9484,http://www.marist.edu/,MARIST COLLEGE,845-575-3343
764,"1880 S. WINTON ROAD, SUITE 1",ROCHESTER,NY,14618,8596,http://www.medaille.edu/,MEDAILLE COLLEGE,585-272-0030
765,18 AGASSIZ CIRCLE,BUFFALO,NY,14214,8045,http://www.medaille.edu/,MEDAILLE COLLEGE,716-932-2601
766,"1150 CARROLL ST, C311",BROOKLYN,NY,11225,9670,http://www.mec.cuny.edu/,MEDGAR EVERS COLLEGE,718-270-4835
767,1101 SHERMAN DRIVE,UTICA,NY,5308,8820,https://www.mvcc.edu/,MOHAWK VALLEY COMMUNITY COLLEGE,315) 792-5458
768,ONE EDUCATION DRIVE,GARDEN CITY,CI,11530,8153,http://www.ncc.edu/,NASSAU COMMUNITY COLLEGE,516-572-7501
769,"SADE, 1 SOUTH BOULEVARD",NYACK,NY,10960,9732,http://www.nyack.edu/,NYACK COLLEGE,845-675-4459
770,2301 WESTSIDE DRIVE,ROCHESTER,NY,14624,8224,http://www.roberts.edu,ROBERTS WESLEYAN COLLEGE,585) 594-6640
771,"145 COLLEGE ROAD, ROOM 8346",SUFFERN,NY,10901,8719,http://www.sunyrockland.edu/,ROCKLAND COMMUNITY COLLEGE,845-574-4504
772,34 CORNELL DRIVE,CANTON,NY,13617,8088,http://www.canton.edu/,STATE UNIVERSITY OF NEW YORK - CANTON,315-854-0712
773,"LOU CARNESECCA ARENA, ROOM 1368000 UTOPIA PARKWAY",QUEENS,NY,11439,9659,http://www.stjohns.edu/,ST. JOHN\\\'S UNIVERSITY,718) 990-3371
774,"TESTING ONLY FOR ST. JOSEPH\'S STUDENTS*, 155 WEST ROE BLVD",PATCHOGUE,NY,2399,9886,http://www.sjcny.edu/,ST. JOSEPH'S COLLEGE,631-687-1492
775,TESTING FOR ST. JOSEPH\\'S COLLEGE STUDENTS ONLY222 CLINTON AVE,BROOKLYN,NY,3688,8894,http://www.sjcny.edu/,ST. JOSEPH\\'S COLLEGE,718) 940-5859
776,ST. JOSEPH\\'S COLLEGE (MILITARY ONLY),NEW YORK AIR NATIONAL GUARD ,YO,,7293,631-687-2674,ST. JOSEPH\\'S COLLEGE (MILITARY ONLY),"WESTHAMPTON BEACH, NY   11772"
777,212 COAST GUARD DRIVE,STATEN ISLAND,IS,10305,7349,http://www.sjcny.edu/,ST. JOSEPH\\\'S COLLEGE (MILITARY ONLY),631-687-2674
778,901 FRONT STREET,BINGHAMTON,NY,13901,8513,http://www.sunybroome.edu/,SUNY BROOME COMMUNITY COLLEGE,607) 778-5038
779,"HARTSDALE LOCATION, 200 NORTH CENTRAL AVE",HARTSDALE,NY,1999,8738,http://www.esc.edu/,SUNY - EMPIRE STATE COLLEGE,914-948-6206
780,"MANHATTAN LOCATION, 325 HUDSON STREET, 5TH FLOOR (CORNER OF HUDSON AND VANDAM)",NEW YORK,YO,10013,8739,http://www.esc.edu/,SUNY - EMPIRE STATE COLLEGE,212-647-7800
781,"CATTARAUGUS COUNTY CAMPUS, 260 NORTH UNION ST.",OLEAN,NY,2662,9604,http://www.esc.edu/,SUNY - EMPIRE STATE COLLEGE,716) 376-7511
782,"SARATOGA LOCATION, 111 WEST AVE",SARATOGA SPRINGS,SP,4391,9606,http://www.esc.edu/,SUNY - EMPIRE STATE COLLEGE,518-587-2100 X2779
783,"2875 UNION ROAD, APPLE TREE BUSINESS PARK",CHEEKTOWAGA,NY,14227,8736,http://www.esc.edu/,SUNY - EMPIRE STATE COLLEGE,716-686-7858
784,6333 STATE ROUTE 298,EAST SYRACUSE,SY,13057,8740,http://www.esc.edu/,SUNY - EMPIRE STATE COLLEGE,315-460-3160
785,680 WESTFALL ROAD,ROCHESTER,NY,14620,8737,http://www.esc.edu/,SUNY - EMPIRE STATE COLLEGE,585-244-3200
786,"COORDINATING CENTER, 2 UNION AVE",SARATOGA SPRINGS,SP,12866,8732,http://www.esc.edu/,SUNY-EMPIRE STATE COLLEGE - SARATOGA SPRINGS CAMPUS,518) 587-2100 EXT: 2446
787,100 SEYMOUR RD,UTICA,NY,13502,9324,http://www.sunyit.edu/,SUNY - POLYTECHNIC INSTITUTE,315-792-7208
788,91 WEST CARLTON ROAD,SUFFERN,NY,10901,8925,http://www.yst.edu/,YESHIVA SHAAREI TORAH OF ROCKLAND,845-352-3431
789,"THE MCGREGOR SCHOOL, 800 LIVERMORE",YELLOW SPRINGS,SP,1609,8799,http://www.antioch-college.edu/,ANTIOCH UNIVERSITY,513-767-6321
790,1 UNIVERSITY DRIVE,BLUFFTON,OH,2104,8777,http://www.bluffton.edu/,BLUFFTON UNIVERSITY,800) 488-3257 OPT 4
791,BUCKEYE CAREER CENTER,545 UNIVERSITY DRIVE,UN,,8041,330-3392288,BUCKEYE CAREER CENTER,"NEW PHILADELPHIA, OH   44663"
792,20918 STATE ROUTE 251,ST,MA,45118,8377,http://www.chatfield.edu/,CHATFIELD COLLEGE,513-875-3344
793,"2124 CHESTER AVENUE, RHODES TOWER WEST, ROOM 215",CLEVELAND,OH,44115,9097,http://www.csuohio.edu/,CLEVELAND STATE UNIVERSITY,216-687-2272
794,550 EAST SPRING ST,COLUMBUS,OH,43215,8755,http://www.cssc.edu/,COLUMBUS STATE COMMUNITY COLLEGE - COLUMBUS,614)287-5750
795,701 NORTH CLINTON,DEFIANCE,OH,43512,9719,http://www.defiance.edu/,DEFIANCE COLLEGE,419-783-2349
796,4000 SUNSET BLVD,STEUBENVILLE,OH,43952,9027,http://www.egcc.edu/,EASTERN GATEWAY COMMUNITY COLLEGE,740-264-5591 X214
797,"303 S. GRANT AVEPHILLIPS HALL, FIRST FLOOR",COLUMBUS,OH,43215,8602,http://www.franklin.edu/,FRANKLIN UNIVERSITY,614) 947-6807
798,4100 ROCKSIDE ROAD,INDEPENDENCE,OH,2198,9919,http://cleveland.indwes.edu/,INDIANA WESLEYAN UNIVERSITY,216-525-6160
799,"3455 MILL RUN DRIVE, SUITE 200",HILLIARD,OH,43026,9962,http://www.indwes.edu/,INDIANA WESLEYAN UNIVERSITY,614-529-7550
800,9286 SCHULZE DRIVE,WEST CHESTER,CH,45069,9760,http://www.indwes.edu/,INDIANA WESLEYAN UNIVERSITY,513-881-3600
801,151 INNOVATION DRIVE,ELYRIA,OH,44035,9785,http://www.loraincc.edu/,LORAIN COUNTY COMMUNITY COLLEGE,440) 366-7003
802,MVNU STUDENTS ONLY1350 GRANVILLE RD,NEWARK,OH,43055,8392,http://www.mvnu.edu/,MOUNT VERNON NAZARENE UNIVERSITY,740-397-8682 X6200
803,MVNU STUDENTS ONLY890 W. FOURTH STREET,MANSFIELD,OH,44906,8933,http://www.mvnu.edu,MOUNT VERNON NAZARENE UNIVERSITY,419-529-2131
804,"5150 E DUBLIN GRANVILLE RD, SUITE 120",COLUMBUS,OH,43081,8359,http://www.mvnu.edu/,MOUNT VERNON NAZARENE UNIVERSITY,740-397-6862 X6000
805,800 MARTINSBURG ROAD,MT,VE,43050,8442,http://www.mvnu.edu/,MOUNT VERNON NAZARENE UNIVERSITY,740-392-6868 X4230
806,163 STORMONT STREET,NEW CONCORD,CO,43762,8314,http://www.muskingum.edu/,MUSKINGUM UNIVERSITY,740-826-8164
807,"281 WEST LANE AVENUE, 585 STUDENT ACADEMIC SERVICES BUILDING",COLUMBUS,OH,43210,9264,http://www.testing.osu.edu/,OHIO STATE UNIVERSITY,614-292-2241
808,"WRIGHT-PATT AFB CAMPUS, 2130 FIFTH STREET, BUILDING 50, AREA B",WPAFB,OH,45433,7184,http://new.park.edu/campus-centers/ohio/oh-dayton.html,PARK UNIVERSITY,937-904-4806
809,"22730 FAIRVIEW CENTER DRIVE, SUITE 150",FAIRVIEW PARK,PA,44126,7753,http://www.strayer.edu/,STRAYER UNIVERSITY,440-471-6329
810,"4605 DUKE DR, SUITE 700",MASON,OH,45040,7950,http://www.strayer.edu/,STRAYER UNIVERSITY,513-234-6429
811,51 PARK WEST BOULEVARD,AKRON,OH,44320,7925,http://www.strayer.edu/,STRAYER UNIVERSITY,330-734-6729
812,2135 DANA AVENUE,CINCINNATI,OH,45207,7776,http://www.strayer.edu/,STRAYER UNIVERSITY,513-878-3129
813,"2600 PARAMOUNT PLACE, SUITE 300",FAIRBORN,OH,45324,9493,http://www.strayer.edu/,STRAYER UNIVERSITY,937.306.4500
814,"2225 NEBRASKA AVENUE, ROOM AS1200, SCOTT PARK CAMPUS MS458",TOLEDO,OH,43607,8900,http://www.utoledo.edu/,THE UNIVERSITY OF TOLEDO,419-530-3266
815,440 EAST MCMILLAN ST,CINCINNATI,OH,1925,8190,http://www.myunion.edu/,UNION INSTITUTE & UNIVERSITY,513-861-6400
816,"277 EAST BUCHTEL AVENUE, SIMMONS HALL, ROOM 304",AKRON,OH,4303,9347,http://www.uakron.edu/,UNIVERSITY OF AKRON,330-972-7084
817,2618 MCMICKEN CIRCLE100 UNIVERSITY PAVILION,CINCINNATI,OH,45221,8626,http://www.uc.edu/,UNIVERSITY OF CINCINNATI,513) 556-7173
818,4200 CLERMONT COLLEGE DRIVE,BATAVIA,OH,45103,8722,http://www.ucclermont.edu/students/test_center,UNIVERSITY OF CINCINNATI - CLERMONT COLLEGE,513) 558-5364
819,"300 COLLEGE PARK, GOSIGER HALL, ROOM 127",DAYTON,OH,0910,8412,http://www.udayton.edu/,UNIVERSITY OF DAYTON,937-229-3277
820,2623 SOUTH ARLINGTON RD,AKRON,OH,2044,8259,http://www.walsh.edu/,WALSH UNIVERSITY,330-490-7293
821,"TESTING CENTER - 233 MESHEL HALL, ONE UNIVERSITY PLAZA",YOUNGSTOWN,OH,44555,8650,http://www.ysu.edu/,YOUNGSTOWN STATE UNIVERSITY,330) 941-1343
822,2800 WEST GORE,LAWTON,OK,73505,9080,http://www.cameron.edu/,CAMERON UNIVERSITY,580-581-2212
823,1507 S. MCKENNA,POTEAU,OK,74953,7966,http://www.carlalbert.edu/,CARL ALBERT STATE COLLEGE,918-647-1316
824,"4301 NW KOEHLER LOOP, BUILDING 3281",FORT SILL,SI,5100,7181,http://www.ccis.edu/nationwide/ftsill/,COLUMBIA COLLEGE,580-353-7884
825,1301 WEST MAIN STREET,WILBURTON,OK,74578,8916,http://www.eosc.cc.ok.us/,EASTERN OKLAHOMA STATE COLLEGE,918-465-2361
826,NATIONAL AMERICAN UNIVERSITY,8040 S,SH,,8342,918-879-8400,NATIONAL AMERICAN UNIVERSITY,"TULSA, OK   74133"
827,700 N. GREENWOOD AVENUE,TULSA,OK,74107,7929,http://www.osu-tulsa.okstate.edu/testingcenter/,OKLAHOMA STATE UNIVERSITY - TULSA,918-594-8231
828,2201 SILVER LAKE RD,BARTLESVILLE,OK,74006,8411,http://www.okwu.edu/,OKLAHOMA WESLEYAN UNIVERSITY,918-335-6209
829,"1300 COUNTRY CLUB RD, BOX 370",EL RENO,RE,73036,9968,http://www.redlandscc.edu/,REDLANDS COMMUNITY COLLEGE,405-262-2552 X2609
830,"TESTING SERVICES, 6420 SE 15TH STREET",MIDWEST CITY,CI,73110,7237,http://www.rose.edu/,ROSE STATE COLLEGE,405) 733-7320
831,1900 W. MACARTHUR STREET,SHAWNEE,OK,74804,9312,http://www.stgregorys.edu/,SAINT GREGORY\'S UNIVERSITY,405-878-5310
832,8210 EAST REGAL COURT,TULSA,OK,74133,9552,http://snu.edu/,SOUTHERN NAZARENE UNIVERSITY,918) 970-4633
833,"100 NORTH UNIVERSITY DR, RM 301",EDMOND,OK,5209,9087,http://www.uco.edu/student-affairs/testing/,UNIVERSITY OF CENTRAL OKLAHOMA,405-974-2387
834,"NORMAN, OK   73072",405,,1208,9362,https://ouparking.t2hosted.com/cmn/auth_guest.aspx,UNIVERSITY OF OKLAHOMA,http://www.ou.edu/
835,"6501 N. BROADWAY, SUITE 100",OKLAHOMA CITY,CI,73116,8349,http://www.phoenix.edu/,UNIVERSITY OF PHOENIX,405-842-8007
836,1727 W. ALABAMA,CHICKASHA,OK,73018,7867,http://www.usao.edu/,UNIVERSITY OF SCIENCE &AMP; ARTS OF OKLAHOMA,405-574-1281
837,"71 FSS/FSD, 400 YOUNG RD., SUITE 209A",VANCE AFB,AF,73705,7324,http://www.wbu.edu/colleges-in-altus/,WAYLAND BAPTIST UNIVERSITY,580-213-6452
838,2801 N. MAIN,ALTUS,OK,73521,7223,http://www.wosc.edu/,WESTERN OKLAHOMA STATE COLLEGE,580-477-7921
839,"COUNSELING &AMP; ASSESSMENT, ROOM SSC-207, 2801 NORTH MAIN",ALTUS,OK,73521,8856,http://www.western.cc.ok.us/,WESTERN OKLAHOMA STATE COLLEGE,580-477-7714
840,LEARNING RESOURCE CENTER RM 230 3201 CAMPUS DRIVE,KLAMATH FALLS,FA,8801,9438,http://www.oit.edu/,OREGON INSTITUTE OF TECHNOLOGY,541) 851-5176
841,101 S. BARTLETT,MEDFORD,OR,97501,9404,http://www2.sou.edu/,SOUTHERN OREGON UNIVERSITY - HIGHER EDUCATION CENTER,541) 552-8150
842,"1140 COLLEGE RD., P.O. BOX 967",ROSEBURG,OR,97470,9976,http://www.umpqua.cc.or.us/,UMPQUA COMMUNITY COLLEGE,541-440-7659
843,"TESTING OFFICE1590 EAST 13TH AVE, RM 270",EUGENE,OR,97403,9961,http://testing.uoregon.edu,UNIVERSITY OF OREGON,541-346-3230
844,ADMINISTRATION BUILDING 2185 SE 12TH PLACE,WARRENTON,OR,97146,9592,https://www.vinu.edu/home,VINCENNES UNIVERSITY- U.S. COAST GUARD SECTOR COLUMBIA RIVER,360-478-7202
845,"2600 S.E. 98TH AVENUE, STE 200",PORTLAND,OR,97266,8053,http://www.warnerpacific.edu/register-for-exam/,WARNER PACIFIC COLLEGE,503-517-1465
846,3000 NORTH READING ROAD,ADAMSTOWN,PA,19501,9166,http://www.adamstownarealibrary.org/,ADAMSTOWN AREA LIBRARY (LANCASTER/READING AREA),717) 484-4200
847,275 SWAMP ROAD,NEWTOWN,PA,18940,9925,http://www.bucks.edu/,BUCKS COUNTY COMMUNITY COLLEGE,215-968-8467
848,250 UNIVERSITY AVE,CALIFORNIA,PA,15419,8758,http://www.calu.edu/,CALIFORNIA UNIVERSITY OF PENNSYLVANIA,724-938-1608
849,"625 STANWIX STREET, 1ST FLOOR",PITTSBURGH,PA,15222,8574,http://www.ccac.edu/,COMMUNITY COLLEGE OF ALLEGHENY COUNTY,412-208-1122
850,"1846 CHARTER LANE, PO BOX 10936",LANCASTER,PA,17601,9528,http://www.emu.edu/careers/testing,EASTERN MENNONITE UNIVERSITY,717) 397-5190
851,12 KEYSTONE COURT,LEOLA,PA,17540,9583,http://www.fedtest.org,FED TEST INC.,717-288-7254
852,1500 4TH AVE,ALTOONA,PA,16602,8836,http://www.gactc.edu/,GREATER ALTOONA CAREER &AMP; TECH CENTER,814-946-8469
853,WHITAKER HALL 123HACC,HARRISBURG,PA,17110,9806,http://www.hacc.edu/,HARRISBURG AREA COMMUNITY COLLEGE,717-780-3203
854,INDIANA UNIVERSITY OF PENNSYLVANIA,201 PRATT DRIVE,PR,107,8646,http://www.iup.edu/,INDIANA UNIVERSITY OF PENNSYLVANIA,"INDIANA, PA   15705"
855,226 WEST BROAD ST,HAZELTON,PA,18201,9772,http://www.lackawanna.edu/,LACKAWANNA COLLEGE,717-459-1573
856,"GRADUATE STUDIES &AMP; CONTINUING EDUCATION, 101 NORTH COLLEGE AVENUE",ANNVILLE,PA,17003,9197,http://www.lvc.edu/,LEBANON VALLEY COLLEGE,717-867-6213
857,2300 ADAMS AVE,SCRANTON,PA,18509,9216,http://www.marywood.edu/,MARYWOOD UNIVERSITY,570-876-5817
858,111 MCKEE ROAD,OAKDALE,PA,15222,9736,http://www.pti.edu/,PITTSBURGH TECHNICAL INSTITUTE,412-809-5217
859,1360 EISENHOWER BLVD SUITE 204,JOHNSTOWN,PA,15905,8112,http://proteustesting.com/,PROTEUS TESTING,814-254-4109
860,10 SOUTH SECOND STREET,READING,PA,19603,9284,http://www.racc.cc.pa.us/,READING AREA COMMUNITY COLLEGE,610-372-4721 X5103
861,"ALLENTOWN CAMPUS, 3800 SIERRA CIRCLE, SUITE 300",CENTER VALLEY,VA,18034,7884,http://www.strayer.edu/,STRAYER UNIVERSITY,484) 809-7729
862,"1601 CHERRY STREET, STE 100",PHILDELPHIA,PA,19143,8910,http://www.strayer.edu/,STRAYER UNIVERSITY,267-256-0229
863,"234 MALL BOULEVARD, SUITE G50",KING OF PRUSSIA,OF,19406,8694,http://www.strayer.edu/,STRAYER UNIVERSITY,610-992-1680
864,"760 WEST SPROUL ROAD, SUITE 200",SPRINGFIELD,PA,19064,8985,http://www.strayer.edu/,STRAYER UNIVERSITY,610-543-7294
865,"36000 HORIZON BOULEVARD, SUITE 100",TREVOSE,PA,19053,8998,http://www.strayer.edu/,STRAYER UNIVERSITY,215-953-9189
866,"1170 DEVON PARK DRIVE, SUITE 200",WAYNE,PA,19087,8119,http://www.phoenix.edu/,UNIVERSITY OF PHOENIX,610-386-1127
867,"PENN CENTER EAST ONE, SUITES 406 &AMP; 408 100",PITTSBURGH,PA,15235,8771,http://www.phoenix.edu/,UNIVERSITY OF PHOENIX,412-816-2215
868,"30 SOUTH 17TH STREET, UNITED PLAZA BUILDING",PHILADELPHIA,PA,19103,8690,http://www.phoenix.edu/,UNIVERSITY OF PHOENIX,267-234-2000
869,4200 FIFTH AVENUEG-33 CATHEDRAL OF LEARNING,PITTSBURGH,PA,15260,8376,http://www.omet.pitt.edu/testing-request-form,UNIVERSITY OF PITTSBURGH TESTING CENTER,412-624-6146
870,ONE JOHN H CHAFEE BLVD.,NEWPORT,RI,02840,8849,http://www.ccri.edu,CCRI NEWPORT COUNTY CAMPUS,401) 851-1631
871,1762 LOUISQUISSET PIKE,LINCOLN,RI,4585,8859,http://www.ccri.edu/,COMMUNITY COLLEGE OF RHODE ISLAND - FLANAGAN CAMPUS,401) 333-7122
872,400 EAST AVE,WARWICK,RI,02886,9767,http://www.ccri.edu/,COMMUNITY COLLEGE OF RHODE ISLAND - KNIGHT CAMPUS,401) 825-2404
873,2276 JEFFERSON DAVIS HIGHWAY,GRANITEVILLE,SC,29829,8716,http://www.atc.edu/,AIKEN TECHNICAL COLLEGE,803-593-9231 X1366
874,"1430 WADE HAMPTON BLVD., SUITE 211A",GREENVILLE ,SC,29609,7982,http://www.bjupresstestingcenter.com,BJU PRESS TESTING CENTER,864-770-1381
875,506 NORTH GUIGNARD DRIVE,SUMTER,SC,29150,9335,http://www.sum.tec.sc.us/,CENTRAL CAROLINA TECHNICAL COLLEGE,803) 778-1961
876,301 ALLIED DR.,CONWAY,SC,29526,9368,http://coastal.edu/,COASTAL CAROLINA UNIVERSITY,843) 349-4011
877,2715 WEST LUCAS STREET,FLORENCE,SC,29550,9329,http://www.fdtc.edu,FLORENCE-DARLINGTON TECHNICAL COLLEGE,843) 661-8352
878,121 S. EVANDER DRIVE,FLORENCE,SC,29506,9665,http://www.fmarion.edu/,FRANCIS MARION UNIVERSITY,843) 661-1840
879,1115 COLLEGE DRIVE,GAFFNEY,SC,29340,9773,http://www.limestone.edu/,LIMESTONE COLLEGE,864-488-8376
880,4600 STROM THURMOND BOULEVARD,FORT JACKSON,JA,29207,7198,http://www.midlandstech.edu/,MIDLANDS TECHNICAL COLLEGE,803-782-3213
881,1260 LEXINGTON DR,WEST COLUMBIA,CO,29170,8315,http://www.midlandstech.edu/,MIDLANDS TECHNICAL COLLEGE,803) 822-3661
882,"437 MSS/DPE, 101 W. HILL BOULEVARD, BUILDING 221",CHARLESTON AFB,AF,4703,7143,http://new.park.edu/campus-centers/south-carolina/sc-charleston.html,PARK UNIVERSITY,843-552-8292
883,503 SOUTH BROAD ST.,CLINTON,SC,29325,9002,http://www.presby.edu/,PRESBYTERIAN COLLEGE,864-833-2820
884,"398 SHAW DRIVE, BLDG 501, RM 116",SHAW AFB,AF,29152,7111,http://www.saintleo.edu,SAINT LEO UNIVERSITY,803 666 3221
885,"555 NORTH PLEASANTBURG DRIVE, SUITE 300",GREENVILLE,SC,29607,9527,http://www.strayer.edu/,STRAYER UNIVERSITY,864-250-7029
886,5010 WETLAND CROSSING,NORTH CHARLESTON,CH,29418,7850,http://www.strayer.edu/,STRAYER UNIVERSITY,843-746-5129
887,"TESTING OFFERED FOR STRAYER UNIVERSITY STUDENTS ONLY200 CENTER POINT CIRCLE, SUITE 300",COLUMBIA,SC,29229,8273,http://www.strayer.edu/,STRAYER UNIVERSITY,803) 750-2531
888,921 RIBAUT ROADPO BOX 1288,BEAUFORT,SC,29901,7224,http://www.tcl.edu/,TECHNICAL COLLEGE OF THE LOW COUNTRY,843-525-8356
889,"921 SOUTH RIBAUT RD, PO BOX 1288",BEAUFORT,SC,29901,9056,http://www.tclonline.edu/,TECHNICAL COLLEGE OF THE LOW COUNTRY,843-228-7494
890,"OFFICE OF MILITARY EDUCATION, NAVY COLLEGE OFFICE, NAVAL WEAPONS STATION-CHARLESTON",GOOSE CREEK,CR,6511,7172,http://www.tesu.edu/,THOMAS EDISON STATE UNIVERSITY - GOOSE CREEK,843-764-7531
891,"STUDENT SUCCESS CENTER, TRIDENT TECHNICAL COLLEGE, 66 COLUMBUS STREET",CHARLESTON,SC,29423,9244,http://www.tridenttech.edu/,TRIDENT TECHNICAL COLLEGE,843-722-5516
892,7000 RIVER AVENUE,CHARLESTON,SC,29406,9342,http://www.tridenttech.edu/,TRIDENT TECHNICAL COLLEGE,843-574-6438
893,"1400 GREENE STREET, RH 345",COLUMBIA,SC,29208,9367,http://www.sc.edu/beaufort/,UNIVERSITY OF SOUTH CAROLINA,803-777-2782
894,800 UNIVERSITY WAY,SPARTANBURG,SC,29303,9577,http://www.uscs.edu/,UNIVERSITY OF SOUTH CAROLINA UPSTATE,864) 503-5195
895,452 SOUTH ANDERSON ROAD,ROCK HILL,HI,29730,8432,http://www.yorktech.com/,YORK TECHNICAL COLLEGE,803-981-7316
896,"1200 UNIVERSITY STREET, UNIT 9078",SPEARFISH,SD,57799,9065,http://www.bhsu.edu/,BLACK HILLS STATE UNIVERSITY - SPEARFISH CAMPUS,605) 642-6099
897,"5301 S. HIGHWAY 16, SUITE 200",RAPID CITY,CI,57701,9777,http://www.national.edu/,NATIONAL AMERICAN UNIVERSITY,605-394-4800
898,"1000 ELLSWORTH STREET, SUITE 2400B",ELLSWORTH AIR FORCE BASE,AI,57706,7222,http://www.national.edu/,NATIONAL AMERICAN UNIVERSITY- ELLSWORTH AIR FORCE BASE CAMPUS,605-718-6550
899,"SIOUX FALLS, SD   57107",605,,6014,7763,http://www.southeasttech.edu/,SOUTHEAST TECHNICAL INSTITUE,605-367-6048
900,4801 N CAREER AVE,SIOUX FALLS,FA,57107,9459,http://www.sduniversitycenter.org/,UNIVERSITY CENTER - SIOUX FALLS,605) 274-9550
901,AUSTIN PEAY CENTER AT FORT CAMPBELL,PO BOX 4455,BO,4455,7248,541-880-2214,AUSTIN PEAY CENTER AT FORT CAMPBELL,"CLARKSVILLE, TN   37042"
902,"202 ELLINGTON BLDG., DRANE ST.",CLARKSVILLE,TN,37044,9050,http://www.apsu.edu/,AUSTIN PEAY STATE UNIVERSITY,931) 221-6269
903,"1790 KIRBY PARKWAY, FORUM II, SUITE 100",MEMPHIS,TN,38138,8292,http://www.bellhaven.edu/,BELLHAVEN COLLEGE,901-767-8977
904,1646 RUSSELL AVENUE,JEFFERSON CITY,CI,37760,8798,http://www.cn.edu/,CARSON-NEWMAN COLLEGE,865-471-4808
905,3203 TAZEWELL PIKE,KNOXVILLE,TN,37918,8223,http://www.fountainheadcollege.com/,FOUNTAINHEAD COLLEGE,865-688-9422
906,158 EAST MAIN STREET,HENDERSON,TN,38340,9067,http://www.fhu.edu/,FREED HARDEMAN UNIVERSITY,901-989-6060
907,502 E LAMAR ALEXANDER PKWY,MARYVILLE,TN,5907,9781,http://www.marryvillecollege.edu/,MARYVILLE COLLEGE,865-981-8121
908,"1301 EAST MAIN STREET, KUC 107",MURFREESBORO,TN,37132,8829,http://www.mtsu.edu/university-college/distance/testing.php,MIDDLE TENNESSEE STATE UNIVERSITY,615) 898-5659
909,2731 WEST LAMAR ALEXANDER PARKWAY,FRIENDSVILLE,TN,37737,7713,http://www.pstcc.edu/learn/,PELLISSIPPI STATE COMMUNITY COLLEGE,865-981-5300
910,3435 DIVISION STREET,KNOXVILLE,TN,37919,7714,http://www.pstcc.edu,PELLISSIPPI STATE COMMUNITY COLLEGE -- DIVISION STREET CAMPUS,865) 694-6454
911,10915 HARDIN VALLEY ROAD,KNOXVILLE,TN,37933,8311,http://www.pstc.edu,PELLISSIPPI STATE COMMUNITY COLLEGE -- HARDIN VALLEY CAMPUS,865) 694-6454
912,"5983 MACON COVE, FARRIS ROOM 2182",MEMPHIS,TN,38134,7127,http://www.southwest.tn.edu/,SOUTHWEST TENNESSE COMMUNITY COLLEGE,901-333-4170
913,1809 DABBS AVENUE,NASHVILLE,TN,37210,8679,http://www.strayer.edu/,STRAYER UNIVERSITY,615-932-2329
914,TESTING FOR STRAYER UNIVERSITY STUDENTS ONLY7275 APPLING FARMS PKWY,MEMPHIS,TN,38133,9524,http://www.strayer.edu/,STRAYER UNIVERSITY,901) 383-6685
915,"10118 PARKSIDE DRIVE, SUITE 200",KNOXVILLE,TN,1944,9223,http://www.strayer.edu/,STRAYER UNIVERSITY,865-288-6029
916,2620 THOUSAND OAKS BLVD #1100,MEMPHIS,TN,38118,9575,http://www.strayer.edu/,STRAYER UNIVERSITY,901-370-5227
917,"330 10TH NORTH, SUITE C",NASHVILLE,TN,3401,8723,http://www.tnstate.edu/,TENNESSEE STATE UNIVERSITY,615-963-7111
918,"TREVECCA NAZARENE UNIVERSITY STUDENTS ONLY, 333 MURFREESBORO ROAD",NASHVILLE,TN,37210,9784,http://www.trevecca.edu/,TREVECCA NAZARENE UNIVERSITY,615-248-1346
919,TUSCULUM COLLEGE 60 SHILOH RD,GREENEVILLE,TN,37743,8863,http://www.tusculum.edu/,TUSCULUM COLLEGE - GREENEVILLE CAMPUS,800) 729-0116 EX.5211
920,1305 CENTERPOINT BOULEVARD,KNOXVILLE,TN,37923,8590,http://www.tusculum.edu/,TUSCULUM COLLEGE - KNOXVILLE CAMPUS,"800) 729-0116 , EXT. 5018"
921,"420 WEST MORRIS BLVD, SUITE 170",MORRISTOWN,TN,37814,9684,http://www.tusculum.edu/,TUSCULUM COLLEGE - MORRISTOWN CAMPUS,"800) 729-0116 , EXT. 5901"
922,2745 HACKS CROSS ROAD,GERMANTOWN,TN,38138,8081,http://www.uu.edu/,UNION UNIVERSITY- GERMANTOWN CAMPUS,901) 312-1906
923,205 INDIAN LAKE BLVD,HENDERSONVILLE,TN,37075,7999,http://www.uu.edu/,UNION UNIVERSITY - HENDERSONVILLE / NASHVILLE CAMPUS,615) 447-2523
924,1938 EMPORIUM DRIVE,JACKSON,TN,38305,8593,http://www.uu.edu/,UNION UNIVERSITY - JACKSON CAMPUS,731) 661-5309
925,"112 BRISTER HALL, 3669 ALUMNI STREET",MEMPHIS,TN,38152,9782,http://www.memphis.edu/,UNIVERSITY OF MEMPHIS,901-678-2428
926,"705 LAMBUTH BLVD, HYDE HALL 314",JACKSON,TN,38301,8753,http://www.memphis.edu/lambuth/,UNIVERSITY OF MEMPHIS LAMBUTH,731) 425-1910
927,"648 OAK STREET, HOOPER HALL, ROOM 205",CHATTANOOGA,TN,37403,8521,http://www.utc.edu/,UNIVERSITY OF TENNESSEE,423-425-4288
928,"MARTIN, TN   38238",731,,7727,8582,http://www.utm.edu/,UNIVERSITY OF TENNESSEE MARTIN,731-881-7719
929,6655 WINCHESTER ROAD,MEMPHIS,TN,7830,8162,http://www.victory.edu/,VICTORY UNIVERSITY,901-367-0443
930,274 MALLORY STATION ROAD,FRANKLIN,TN,37067,9705,http://www.williamsoncc.edu/,WILLIAMSON CHRISTIAN COLLEGE,615-771-7821
931,6101 AIRPORT BLVD.ROOM 2221,AUSTIN,TX,4390,8245,http://www.austincc.edu/,AUSTIN COMMUNITY COLLEGE,512) 223-7769
932,"15115 PARK ROW, SUITE 175",HOUSTON,TX,77084,8068,http://houston.belhaven.edu/,BELHAVEN UNIVERSITY,281-579-9977
933,"1402 CORINTH COURT ST, , SUITE 1670",DALLAS,TX,75215,8016,http://www.billpriestinstitute.org/,BILL J. PRIEST INSTITUTE,214-860-5792
934,6200 WEST CENTRAL TEXAS EXPRESSWAY,KILLEEN,TX,76542,9088,http://www.ctcd.edu/,CENTRAL TEXAS COLLEGE - CENTRAL CAMPUS,254) 526-1168
935,72ND ST. BLDG 3201 ROOM 115,FORT HOOD,HO,76544,7117,http://www.ctcd.edu/,CENTRAL TEXAS COLLEGE TESTING CENTER - FORT HOOD,254) 290-0701
936,425 THIRD STREET,DYESS AFB,AF,1525,7175,http://military.coastline.edu/,COASTLINE COMMUNITY COLLEGE,325-696-5543
937,1200 AMBURN ROAD,TEXAS CITY,CI,77591,8017,http://www.com.edu/,COLLEGE OF THE MAINLAND,409) 933-8676
938,"1564 HEADQUARTERS AVE, BLDG 1564, NAS FORT WORTH JRB",FORT WORTH,WO,76127,7122,http://www.ccis.edu/nationwide/ftworth/,COLUMBIA COLLEGE,817-377-3276
939,3000 MOUNTAIN CREEK PARKWAY,DALLAS,TX,9299,8700,http://www.dbu.edu/,DALLAS BAPTIST UNIVERSITY,214-333-5337
940,2700 CHRISTIAN PKWY,DALLAS,TX,75234,8419,http://www.dallas.edu/,DALLAS CHRISTIAN COLLEGE,214-484-6527
941,11044 RESEARCH BLVD,AUSTIN,TX,78759,7345,http://www.devry.edu/,DEVRY UNIVERSITY,512-231-2501
942,"618 NW LOOP 410, SUITE 202",SAN ANTONIO,AN,78216,7872,http://www.devry.edu/,DEVRY UNIVERSITY - SAN ANTONIO CAMPUS,210) 524-5400
943,"919 HUNTER DRIVE, P.O. BOX 20500",EL PASO,PA,79998,9142,http://www.epcc.edu/,EL PASO COMMUNITY COLLEGE,915-831-2306
944,PO BOX 590340,HOUSTON,TX,77259,9432,http://www.erau.edu/,EMBRY-RIDDLE AERONAUTICAL UNIVERSITY,281-464-9664
945,"1300B HOLMAN ST, RM 211",HOUSTON,TX,77004,9170,http://www.hccs.cc.tx.us/,HOUSTON COMMUNITY COLLEGE,713-718-6011
946,"855 EAST LAVACA STREET, TECHNOLOGY CENTER ROOM 112 INSIDE LEARNING LAB",BEAUMONT,TX,77705,8981,http://www.lit.edu/,LAMAR INSTITUTE OF TECHNOLOGY,409) 839-2027
947,1355 W. MLK,SILSBEE,TX,77656,9298,http://www.lit.edu/,LAMAR INSTITUTE OF TECHNOLOGY FRANK ROBINSON JR. CENTER,409) 386-0225
948,"4400 MLK PARKWAY, GALLOWAY BUSINESS BUILDING, ROOM 102",BEAUMONT,TX,77710,9812,http://dept.lamar.edu/careerandtestingcenter/,LAMAR UNIVERSITY,409-880-8444
949,"511 S WHITING, PO BOX 818",BAYTOWN,TX,77520,8449,http://www.lee.edu/,LEE COLLEGE,281-425-6484
950,5601 19TH ST,LUBBOCK,TX,2099,8307,http://www.lcu.edu/,LUBBOCK CHRISTIAN UNIVERSITY,806-796-8800
951,3410 TAFT BLVD,WICHITA FALLS,FA,76308,9870,http://testing.mwsu.edu/,MIDWESTERN STATE UNIVERSITY,940-397-4676
952,4849 WEST ILLINOIS AVE,DALLAS,TX,75211,8384,http://www.mvc.dccd.edu/,MOUNTAIN VIEW COLLEGE,214-333-8778
953,5001 NORTH MACARTHUR BLVD,IRVING,TX,75038,8460,http://www.northlakecollege.edu/,NORTH LAKE COLLEGE,972-273-3160
954,"201 WEST UNIVERSITYDEADERICK HALL, BUILDING E1",ODESSA,TX,79764,8555,http://www.odessa.edu/,ODESSA COLLEGE,432) 335-6620
955,"WALTER CENTER, ROOM G03411 S.W. 24TH ST",SAN ANTONIO,AN,4689,9793,http://www.ollusa.edu/testingcenter,OUR LADY OF THE LAKE UNIVERSITY - MAIN CAMPUS,210) 431-3998
956,"10415 MORADO CIRCLE, AVALLON II, SUITE 100",AUSTIN,TX,78759,7888,http://new.park.edu/campus-centers/texas/tx-austin.html,PARK UNIVERSITY,512-385-7275
957,"201 MITCHELL BOULEVARD, BUILDING 221",LAUGHLIN AFB,AF,78843,7238,http://new.park.edu/campus-centers/texas/tx-del-rio.html,PARK UNIVERSITY,830-298-3061
958,"PO BOX 519, MS 3002",PRAIRIE VIEW,VI,77446,9006,http://www.pvamu.edu/,PRAIRIE VIEW A&M; UNIVERSITY,936) 261-3627
959,"D STREET, BLDG 1731",CORPUS CHRISTI,CH,78419,7195,http://www.saintleo.edu/,SAINT LEO UNIVERSITY,361-937-1452
960,"1921 AVENUE J, ROOM 102",HUNTSVILLE,TX,77340,8501,http://www.shsu.edu/,SAM HOUSTON STATE UNIVERSITY,936) 294-1025
961,3380 COLLEGE PARK DRIVE,THE WOODLANDS,WO,77384,8519,http://www.shsu.edu/testing/,SAM HOUSTON STATE UNIVERSITY - THE WOODLANDS CENTER,936-294-1025
962,6211 BISHOP BLVD. #219DR. BOB SMITH HEALTH CENTER,DALLAS,TX,75275,9317,http://www.smu.edu/,SOUTHERN METHODIST UNIVERSITY,214-768-2269
963,3001 SOUTH CONGRESS AVE,AUSTIN,TX,78704,8912,http://www.stedwards.edu/,ST. EDWARD'S UNIVERSITY,512-464-8848
964,"NACOGDOCHES, TX   75962",936,,,7927,http://www.sfasu.edu/,STEPHEN F. AUSTIN STATE UNIVERSITY,936-468-4636
965,ONE CAMINO SANTA MARIA,SAN ANTONIO,AN,8528,9330,http://www.stmarytx.edu/,ST. MARY'S UNIVERSITY,210-436-3135
966,"14511 OLDY KATY RD, SUITE 200",HOUSTON,TX,77079,7993,http://www.strayer.edu/,STRAYER UNIVERSITY,281-752-4111
967,"8111 LBJ FREEWAY, SUITE 1100",DALLAS,TX,75251,8302,http://www.strayer.edu/,STRAYER UNIVERSITY,972-773-8329
968,"7701 LAS COLINAS RIDGE, SUITE 450",IRVING,TX,75063,7981,http://www.strayer.edu/,STRAYER UNIVERSITY,214-429-3829
969,"10940 WEST SAM HOUSTON PKWY NORTH , SUITE 200",HOUSTON,TX,77064,7994,http://www.strayer.edu/,STRAYER UNIVERSITY,281.949.1800
970,"2701 N. DALLAS PARKWAY, SUITE 300",PLANO,TX,75093,7998,http://www.strayer.edu/,STRAYER UNIVERSITY,972.535.3700
971,"610 UPTOWN BLVD., SUITE 3500",CEDAR HILL,HI,75104,8483,http://www.strayer.edu/,STRAYER UNIVERSITY,469-454-3400
972,"8501 NORTH MOPAC EXPRESSWAY, SUITE 100",AUSTIN,TX,8309,7962,http://www.strayer.edu/,STRAYER UNIVERSITY,512-568-3329
973,"12603 SOUTHWEST FREEWAY, SUITE 400",STAFFORD,TX,77477,9194,http://www.strayer.edu/,STRAYER UNIVERSITY,281-201-3829
974,"SAN ANTONIO CAMPUS, 40 NE LOOP 410, SUITE 500",SAN ANTONIO,AN,78216,9201,http://www.strayer.edu/,STRAYER UNIVERSITY,210-202-3700
975,"BOX C-171, EAST HIGHWAY 90",ALPINE,TX,79832,9334,http://www.sulross.edu/,SUL ROSS STATE UNIVERSITY,915-837-8178
976,2600 SOUTH FIRST ST,TEMPLE,TX,76504,8257,http://www.templejc.edu/,TEMPLE COLLEGE,254-298-8586
977,"12651 BRIAR FOREST DR., SUITE 225",HOUSTON,TX,77077,8595,http://testcenterusa.com/,"TESTING CENTER USA, INC.",281-679-7072
978,"2600 S. NEAL STREET, MCDOWELL ADMIN. BUILDING #315",COMMERCE,TX,75429,9790,http://www.tamu-commerce.edu/,TEXAS A&M; UNIVERSITY - COMMERCE,903) 886-5122
979,6300 OCEAN DRIVE,CORPUS CHRISTI,CH,78412,9205,http://www.tamucc.edu/,TEXAS A&M; UNIVERSITY - CORPUS CHRISTI,361) 825-2234
980,"ONE UNIVERSITY WAY SEN. FRANK MADLA BUILDING, SUITE 111",SAN ANTONIO,AN,78224,9638,http://www.tamusa.edu,TEXAS A&M; UNIVERSITY - SAN ANTONIO,210) 784-1300
981,307 NORTH BRECKENRIDGE AVE,BRECKENRIDGE,TX,76424,8491,http://www.tstc.edu/,TEXAS STATE TECHNICAL COLLEGE,817-559-6556
982,650 EAST HIGHWAY 80,ABILENE,TX,79601,9759,http://www.tstc.edu/,TEXAS STATE TECHNICAL COLLEGE,325-734-3641
983,"601 UNIVERSITY DRIVE, TREC, LOWER COMMONS",SAN MARCOS,MA,78666,9320,http://www.txstate.edu/trec/,TEXAS STATE UNIVERSITY,512-245-2276
984,214 WEST HALL,LUBBOCK,TX,79409,9778,http://www.ttu.edu/,TEXAS TECH UNIVERSITY,806-742-3671
985,501 WEST CESAR E CHAVEZ,SAN ANTONIO,AN,78207,7730,http://www.utsa.edu/testing/,THE UNIVERSITY OF TEXAS AT SAN ANTONIO,210-458-2941
986,ONE UTSA CIRCLE,SAN ANTONIO,AN,78249,9036,http://www.utsa.edu/testing/,THE UNIVERSITY OF TEXAS AT SAN ANTONIO,210-458-4125
987,10701 CORPORATE DRIVESUITE 285,STAFFORD,TX,77477,8821,http://txtestingcenter.com/,TX TESTING CENTER,832) 633-2521
988,"BLDG 614, ROOM 11 TAYLOR ROAD",FORT BLISS,BL,79916,7353,http://www.umuc.edu/,UMUC OFFICE AT THE FT. BLISS EDUCATION CENTER,915) 238-7884
989,"4800 CALHOUN ROAD, STUDENT SERVICE CENTER 1, ROOM 210",HOUSTON,TX,3025,9799,http://www.las.uh.edu/,UNIVERSITY OF HOUSTON,713) 743-5386
990,2700 BAY AREA BLVD,HOUSTON,TX,77058,8651,http://www.uhcl.edu,UNIVERSITY OF HOUSTON - CLEAR LAKE,281) 283-3081
991,"4201 S. SHARY RD, SUITE 203A",MISSION,TX,78572,8233,http://www.phoenix.edu/,UNIVERSITY OF PHOENIX,956-519-5803
992,"1707 MARKET PLACE BLVD, SUITE 100",IRVING,TX,75063,8535,http://www.phoenix.edu/,UNIVERSITY OF PHOENIX,214-647-6207
993,1340 ADABEL DIVE,EL PASO,PA,79936,9105,http://www.phoenix.edu/,UNIVERSITY OF PHOENIX - EAST EL PASO CAMPUS,915) 599-5900
994,"11451 KATY FREEWAY, SUITE 100",HOUSTON,TX,77079,9003,http://www.phoenix.edu/houston,UNIVERSITY OF PHOENIX - HOUSTON CAMPUS,713) 465-9966
995,"902 WEST CENTRAL TEXAS EXPRESSWAY, SUITE 300",KILLEEN,TX,76542,9061,http://www.phoenix.edu/,UNIVERSITY OF PHOENIX - KILLEEN LEARNING CENTER,254) 501-6903
996,8200 IH 10 WEST SUITE 1000,SAN ANTONIO,AN,78230,8423,http://www.phoenix.edu/,UNIVERSITY OF PHOENIX - SAN ANTONIO,210) 524-2127
997,24624 I-45 N STE. 1001,SPRING,TX,77386,8663,http://www.phoenix.edu/houston,UNIVERSITY OF PHOENIX - WOODLANDS LEARNING CENTER,713) 465-9966
998,"701 SO. NEDDERMAN #201, BOX 19555",ARLINGTON,TX,76019,8025,http://www.uta.edu/,UNIVERSITY OF TEXAS - ARLINGTON,817-272-2362
999,"500 W. UNIVERSITY AVE, AAC ROOM 127",EL PASO,PA,79968,8021,http://www.utep.edu,UNIVERSITY OF TEXAS AT EL PASO,915 747 5009
1000,4301 BROADWAY,SAN ANTONIO,AN,78209,9174,http://www.uiwtx.edu/,UNIVERSITY OF THE INCARNATE WORD,210-283-5020
1001,2200 EAST RED RIVER,VICTORIA,TX,77901,8695,http://www.victoriacollege.edu/,VICTORIA COLLEGE,361-582-2403
1002,265 KEARNEY BLVD.,GOODFELLOW AFB,AF,76908,7327,http://www.wbu.edu/,WAYLAND BAPTIST UNIVERSITY,325-654-3314
1003,2412 N. NEW BRAUNFELS,FORT SAM HOUSTON,SA,78234,7322,http://www.wbu.edu/,WAYLAND BAPTIST UNIVERSITY,806-291-3452
1004,"1550 WURTSMITH STREET, BUILDING 5725, SUITE 5",LACKLAND AFB,AF,5251,7234,http://www.wbu.edu/,WAYLAND BAPTIST UNIVERSITY,210-826-7595
1005,3 3RD ST. WEST,RANDOLPH AFB,AF,78148,7323,http://www.wbu.edu/,WAYLAND BAPTIST UNIVERSITY,806-291-3452
1006,"426 5TH AVENUE, SUITE 7",SHEPPARD AFB,AF,76311,7320,http://www.wbu.edu/colleges-in-wichita-falls/,WAYLAND BAPTIST UNIVERSITY,940-855-4322
1007,11550 IH 35 NORTH,SAN ANTONIO,AN,78217,8182,http://www.sa.wbu.edu/,WAYLAND BAPTIST UNIVERSITY,210-826-7595
1008,2502 3RD AVE. CLASSROOM CTR. BLDG.,CANYON,TX,79016,7767,http://www.wtamu.edu/,WEST TEXAS A&M; UNIVERSITY,806) 651-2341
1009,"265 HEBER J. GRANT BUILDING, TESTING CENTER",PROVO,UT,2700,8258,http://www.byu.edu/,BRIGHAM YOUNG UNIVERSITY,801-422-6147
1010,"MURRAY, UT   84107",801,,6677,9915,http://www.ccis.edu/nationwide/saltlake/,COLUMBIA COLLEGE,800-339-7618
1011,"130 S CENTER ST, PO BOX 169",DUCHESNE,UT,0169,7737,http://www.duchesnegov.us/,DUCHESNE COUNTY LIBRARY,435-738-2800
1012,1323 WEST 7900 SOUTH,WEST JORDAN,JO,84088,8764,http://www.hawthorne.edu/,HAWTHORNE UNIVERSITY,801-255-3651
1013,"7285 4TH STREET, BUILDING 180, RM 105",HILL AFB,AF,84056,7292,http://www.park.edu/gohill,PARK UNIVERSITY - HILL AFB CAMPUS,801) 777-9992
1014,9750 S 300 W #215,SANDY,UT,84070,8629,http://www.slcc.edu/,SALT LAKE COMMUNITY COLLEGE,801) 957-5215
1015,"3921 CENTRAL CAMPUS DR. DEPT. 2906TESTING CENTER ROOM 110, STEWART LIBRARY",OGDEN,UT,84408,8815,http://www.weber.edu/,STEWART LIBRARY TESTING CENTER - WEBER STATE UNIVERSITY,801-626-6847
1016,"9815 SOUTH MONROE STREET, SUITE 200",SANDY,UT,84070,7885,http://www.strayer.edu/,STRAYER UNIVERSITY,801-432-5029
1017,765 2200 W,SALT LAKE CITY,LA,84116,7356,http://www.phoenix.edu,UNIVERSITY OF PHOENIX ROLAND R. WRIGHT AIR NATIONAL GUARD BASE,801) 209-5542
1018,5373 S GREEN ST SUITE 200,SALT LAKE CITY,LA,84123,8977,http://www.phoenix.edu/,UNIVERSITY OF PHOENIX - UTAH CAMPUS,801) 727-3026
1019,"UNIVERSITY INN 115, 0118 OLD MAIN HILL",LOGAN,UT,0118,7796,http://www.usu.edu/,UTAH STATE UNIVERSITY,435-797-1004
1020,800 WEST UNIVERSITY PARKWAY,OREM,UT,84058,8482,http://www.uvsc.edu/,UTAH VALLEY UNIVERSITY,801-863-6421
1021,"2750 N. UNIVERSITY PARK, ROOM 215",LAYTON,UT,84041,7971,http://www.weber.edu/,WEBER STATE UNIVERSITY,801-395-3532
1022,3000 COLLEGE DRIVE,BLUEFIELD,VA,24605,8087,http://www.bluefield.edu/,BLUEFIELD COLLEGE,540-326-4340
1023,205 S. WHITING SUITE 608,ALEXANDRIA,VA,22304,9595,http://www.brainseedtesting.com/,"BRAINSEED TESTING CENTER -ALEXANDRIA, VA",703) 338-1877
1024,1200 PARK ROAD,HARRISONBURG,VA,22802,8759,http://www.emu.edu/careers/testing/,EASTERN MENNONITE UNIVERSITY,540-432-4131
1025,PO BOX 4315,FORT EUSTIS,EU,0315,9289,http://www.erau.edu/,EMBRY-RIDDLE AERONAUTICAL UNIVERSITY,757-887-0980
1026,PO BOX 15067,NS NORFOLK,NO,00067,9541,http://www.erau.edu/,EMBRY-RIDDLE AERONAUTICAL UNIVERSITY,757-440-5078
1027,"4041 UNIVERSITY DRIVE, SUITE 101",FAIRFAX,VA,22030,9352,http://www.gitservices.com,GLOBAL INSTITUTE OF TECHNOLOGY (GIT) SERVICES- FAIRFAX,703) 310-7133
1028,1311 HIGHPOINT AVE,RICHMOND,VA,23230,8217,http://gitservices.com/,GLOBAL INSTITUTE OF TECHNOLOGY SERVICES,804) 562-4798
1029,11321 SUNSET HILLS RD,RESTON,VA,20190,8607,http://www.intellectualpoint.com/,INTELLECTUAL POINT,571) 577-7890
1030,1971 UNIVERSITY BOULEVARD,LYNCHBURG,VA,24502,8622,http://www.liberty.edu/,LIBERTY UNIVERSITY,800-424-9595
1031,318 PROSPECT ST,STAUNTON,VA,24401,9089,http://www.mbc.edu/,MARY BALDWIN COLLEGE,540-887-7129
1032,1800 DIAGONAL ROAD,ALEXANDRIA,VA,22314,8794,http://www.nl.edu/transferinfo/creditbyexamination/,NATIONAL-LOUIS UNIVERSITY,703-647-7512
1033,700 PARK AVENUE,NORFOLK,VA,23504,9414,https://www.nsu.edu/,NORFOLK STATE UNIVERSITY,757) 823-2504
1034,3001 NORTH BEAUREGARD STREET,ALEXANDRIA,VA,22311,7916,https://www.nvcc.edu/index.html,NORTHERN VIRGINIA COMMUNITY COLLEGE,703-845-6280
1035,"BARDEN EDUCATION CENTER, BUILDING 1017,9625 BELVOIR ROAD",FORT BELVOIR,BE,22060,7203,http://www.nvcc.edu,NORTHERN VIRGINIA COMMUNITY COLLEGE - FORT BELVOIR,703) 805-9261
1036,"3088 ROAN DRIVE, LIFELONG LEARNING CENTER, LAB 2",QUANTICO,VA,22134,7100,http://www.nvcc.edu,NORTHERN VIRGINIA COMMUNITY COLLEGE - QUANTICO,703) 878-4609
1037,4427 HAMPTON BLVD,NORFOLK,VA,23529,9265,http://www.odu.edu/,OLD DOMINION UNIVERSITY,757) 683-3697
1038,"1555 SOUTHGATE ROAD, HENDERSON HALL BLDG 29",ARLINGTON,VA,22214,7176,http://park.edu,PARK UNIVERSITY - HENDERSON HALL,703) 525-7275
1039,"2070 CHAIN BRIDGE RD, SUITE G100",VIENNA,VA,22182,9902,http://www.potomac.edu/,POTOMAC COLLEGE,443-306-1802
1040,108 N. JEFFERSON STREET,ROANOKE,VA,24016,7958,http://www.education.edu/,ROANOKE HIGHER EDUCATION CENTER,540-767-6010
1041,1500 MADISON AVENUE,FORT EUSTIS,EU,23604,7108,http://www.saintleo.edu/,SAINT LEO UNIVERSITY,757-887-0655
1042,"NS NORFOLK, NAVAL STATION NORFOLK, BUILDING U-40",NORFOLK,VA,23511,7123,http://www.saintleo.edu/,SAINT LEO UNIVERSITY,757-489-0969
1043,"NAS OCEANA, NAVAL AIR STATION OCEANA, BUILDING 531",VIRGINIA BEACH,BE,23460,7141,http://www.saintleo.edu/,SAINT LEO UNIVERSITY,757-428-8395
1044,"DAM NECK ANNEX, 1905 REGULUS AVENUE, BUILDING 199, ROIOM 151",VIRGINIA BEACH,BE,23461,7136,http://www.saintleo.edu/,SAINT LEO UNIVERSITY,757-492-6183
1045,"450 WEYLAND ROAD, BUILDING 1027",LANGLEY AFB,AF,23665,7112,http://www.saintleo.edu/,SAINT LEO UNIVERSITY,757-766-1812
1046,"NAB LITTLE CREAK, 1481 D STREET, BUILDING 3016",NORFOLK,VA,23521,7130,http://www.saintleo.edu/,SAINT LEO UNIVERSITY,757-464-6449
1047,"620 JOHN PAUL JONES CIRCLE, BUILDING 1, 4TH FLOOR",PORTSMOUTH,VA,23708,7137,http://www.saintleo.edu/,SAINT LEO UNIVERSITY,757-492-6183
1048,"YORKTOWN, VA   23690",757,,0655,7211,http://www.saintleo.edu/,SAINT LEO UNIVERSITY,757-856-2104
1049,"FORT LEE CENTER, 700 QUARTERS ROAD, ROOM 159, BLDG 12400",FORT LEE,LE,23801,7214,http://www.saintleo.edu/,SAINT LEO UNIVERSITY,804-861-8039
1050,609 INDEPENDENCE PARKWAY,CHESAPEAKE,VA,23320,8810,http://www.saintleo.edu,SAINT LEO UNIVERSITY,757-382-7599
1051,"2820 WATERFORD LAKE DRIVE, SUITE 100",MIDLOTHIAN,VA,23112,9898,http://www.strayer.edu/,STRAYER UNIVERSITY,804-763-6710
1052,"150 RIVERSIDE PARKWAY, SUITE 100",FREDERICKSBURG,VA,22405,9720,http://www.strayer.edu/,STRAYER UNIVERSITY,540-374-4300
1053,13385 MINNEVILLE ROAD,WOODBRIDGE,VA,22192,9728,http://www.strayer.edu/,STRAYER UNIVERSITY,703-878-2890
1054,"99 OLD OYSTER POINT ROAD, UNIT 1",NEWPORT NEWS,NE,23602,8918,http://www.strayer.edu/,STRAYER UNIVERSITY,757-881-5129
1055,2121 15TH STREET NORTH,ARLINGTON,VA,22201,9718,http://www.strayer.edu/,STRAYER UNIVERSITY,703-920-5504
1056,2730 EISENHOWER AVENUE,ALEXANDRIA,VA,22314,9809,http://www.strayer.edu/,STRAYER UNIVERSITY,703-329-9190
1057,"249 CENTRAL PARK AVENUE, SUITE 350",VIRGINIA BEACH,BE,23464,8114,http://www.strayer.edu/,STRAYER UNIVERSITY,757-493-6029
1058,"676 INDEPENDENCE PARKWAY, SUITE 300",CHESAPEAKE,VA,23320,8917,http://www.strayer.edu/,STRAYER UNIVERSITY,757-547-6076
1059,"45150 RUSSELL BRANCH PARKWAY, SUITE 201",ASHBURN,VA,20147,8841,http://www.strayer.edu/,STRAYER UNIVERSITY,703-729-8882
1060,11501 NUCKOLS ROAD,GLEN ALLEN,AL,23059,9721,http://www.strayer.edu/,STRAYER UNIVERSITY,804-527-1000
1061,120 CAMPUS DRIVE,PORTSMOUTH,VA,23701,9341,http://www.tcc.edu/,TIDEWATER COMMUNITY COLLEGE,757-822-2124
1062,300 GRANBY STREET,NORFOLK,VA,23503,8188,http://www.tcc.edu/,TIDEWATER COMMUNITY COLLEGE,757-822-1310
1063,"ARLINGTON LEARNING CENTER, 1800 S. BELL STREET",ARLINGTON,VA,22202,8957,http://phoenix.edu,UNIVERSITY OF PHOENIX - ARLINGTON LEARNING CENTER,571) 227-7105
1064,4636 COLUMBUS STREET,VIRGINIA BEACH,BE,23462,8992,http://www.phoenix.edu/,UNIVERSITY OF PHOENIX - RICHMOND-VIRGINIA BEACH CAMPUS,757) 493-6300
1065,"PO BOX 489, 660 ELM STREET",MONTPELIER,VT,05601,8533,http://www.ccv.vsc.edu/,COMMUNITY COLLEGE OF VERMONT,802) 828-4064
1066,"347 EMERSON FALLS ROAD, SUITE 2",ST,JO,05819,8948,http://www.spfldcol.edu/,SPRINGFIELD COLLEGE,802-748-5402
1067,"89 MAIN STREET, CITY CENTER",MONTPELIER,VT,05602,9839,http://www.uvm.edu/,UNIVERSITY OF VERMONT,802-223-0388
1068,7662 CHANUTE ST,MOSES LAKE,LA,98837,9063,http://www.bbcc.ctc.edu/,BIG BEND COMMUNITY COLLEGE,509) 793-2064
1069,400 EAST UNIVERSITY WAY,ELLENSBURG,WA,7474,7952,http://www.cwu.edu/testing/,CENTRAL WASHINGTON UNIVERSITY,509-963-1860
1070,"13910 45TH AVENUE, NORTHEAST, SUITE 802",MARYSVILLE,WA,98271,7149,http://www.ccis.edu/nationwide/marysville/,COLUMBIA COLLEGE,425-259-4481
1071,3615 N. LANGLEY BOULEVARD,OAK HARBOR,HA,98278,7135,http://www.ccis.edu/nationwide/whidbey/,COLUMBIA COLLEGE - WHIDBEY ISLAND CAMPUS,360-279-9030
1072,502 E. BOONE AVE.,SPOKANE,WA,99258,9161,http://www.gonzaga.edu/,GONZAGA UNIVERSITY,509-328-4420
1073,9600 COLLEGE WAY NORTH,SEATTLE,WA,98103,9663,https://northseattle.edu/,NORTH SEATTLE COLLEGE,206) 934-3600
1074,"6 WEST CASTLE STREET, SUITE 118",FAIRCHILD AFB,AF,99011,7205,http://new.park.edu/campus-centers/washington/wa-spokane.html,PARK UNIVERSITY,509-247-4211
1075,1502 EAST LAURIDSEN BOULEVARD,PORT ANGELES,AN,98362,8393,http://www.pc.ctc.edu/,PENINSULA COLLEGE,360-417-6346
1076,6242 COLORADO AVENUE,FT,LE,98433,7109,http://www.pierce.ctc.edu/military/,PIERCE COLLEGE NATIONAL TEST CENTER - FORT LEWIS,253) 964-6564
1077,851 LINCOLN BOULEVARD,MCCHORD AFB,AF,98438,7258,http://www.pierce.ctc.edu/military/,PIERCE COLLEGE NATIONAL TEST CENTER - MCCHORD,253-964-6564
1078,"7100 FORT DENT WAY, SUITE 100",TUKWILA,WA,98188,8429,http://www.phoenix.edu/,UNIVERSITY OF PHOENIX - WESTERN WASHINGTON CAMPUS,425) 572-1600
1079,"1410 NE CAMPUS PKWY, 453 SCHMITZ HALL, BOX 355837",SEATTLE,WA,98195,9834,http://www.washington.edu/,UNIVERSITY OF WASHINGTON,206-543-1170
1080,"120 SOUTH DEWEY STREET, BLDG 491 - RM 204",BREMERTON,WA,98314,7179,http://www.vinu.edu/military,VINCENNES UNIVERSITY,360-478-7202
1081,BANGOR NAVAL BASE1042 TAUTOG CIRCLE,SILVERDALE,WA,98315,7321,http://www.vinu.edu/military,VINCENNES UNIVERSITY,360-697-1396
1082,"TEST CENTER - ROOM 120, 333 32ND STREET, MS 1410",BELLINGHAM,WA,98225,8497,http://www.wwu.edu/,WESTERN WASHINGTON UNIVERSITY,360) 650-3080
1083,SCHOOL OF CONTINUING STUDIES300 W. HAWTHORNE ROAD,SPOKANE,WA,99251,9811,http://www.whitworth.edu/,WHITWORTH UNIVERSITY,509) 777-3222
1084,100 S. 12TH AVE. DECCIO BLDG.,YAKIMA,WA,98902,8752,https://www.yvcc.edu/,YAKIMA VALLEY COMMUNITY COLLEGE,509) 574-4738
1085,"MILWAUKEE MIDTOWN CENTER, 4151 NORTH 56TH STREET",MILWAUKEE,WI,53216,9241,http://www.cuw.edu/,CONCORDIA UNIVERSITY,414-444-0734
1086,2040 SUTLER AVENUE,BELOIT,WI,53511,8516,http://www.cuw.edu/,CONCORDIA UNIVERSITY - BELOIT CAMPUS,608) 361-1830
1087,4151 NORTH 56TH STREET,MILWAUKEE,WI,53216,7303,http://www.cuw.edu/,CONCORDIA UNIVERSITY WISCONSIN,414-444-0734
1088,N14W23777 STONE RIDGE DRIVE,WAUKESHA,WI,53188,8176,https://www.cuw.edu/locations/,CONCORDIA UNIVERSITY WISCONSIN,262) 522-0990
1089,"GREEN BAY, WI   54304",920,,2551,8281,https://www.cuw.edu/dsst,CONCORDIA UNIVERSITY WISCONSIN,http://www.cuw.edu/
1090,4351 WEST COLLEGE AVE. SUITE 100,APPLETON,WI,54914,9129,http://www.cuw.edu/,CONCORDIA UNIVERSITY WISCONSIN - APPLETON CAMPUS,920) 968-0933
1091,10222 74TH STREET,KENOSHA,WI,53142,8255,http://www.cuw.edu/ae/kenosha_site.htm,CONCORDIA UNIVERSITY WISCONSIN - KENOSHA CAMPUS,262) 697-8260
1092,"2909 LANDMARK PLACE, STE 101",MADISON,WI,53713,9624,http://www.cuw.edu/,CONCORDIA UNIVERSITY WISCONSIN - MADISON CAMPUS,608) 277-7900
1093,12800 NORTH LAKE SHORE DR,MEQUON,WI,53092,8852,http://www.cuw.edu/,CONCORDIA UNIVERSITY WISCONSIN - MEQUON CAMPUS,262) 243-4223
1094,"MILLER PARK WAY CENTER, 1670 MILLER PARK WAY",MILWAUKEE,WI,53214,8261,http://www.cuw.edu/,CONCORDIA UNIVERSITY WISCONSIN - MILLER PARK WAY,414) 647-2523
1095,1000 EDGEWOOD COLLEGE DRIVE,MADISON,WI,53711,8300,http://www.edgewood.edu/,EDGEWOOD COLLEGE,608-663-2302
1096,"45 S. NATIONAL AVENUE, CASE OFFICE",FON DU LAC,DU,54935,7969,http://www.marianuniversity.edu/,MARIAN UNIVERSITY,920-923-8625
1097,MARIAN UNIVERSITY - WEST ALLIS CENTER,1227 S,ST,,8823,https://www.marianuniversity.edu/,MARIAN UNIVERSITY - WEST ALLIS CENTER,"WEST ALLIS, WI   53214"
1098,PO BOX 1881,MILWAUKEE,WI,1881,8685,http://www.marquette.edu/,MARQUETTE UNIVERSITY,414-288-7302
1099,500 32ND STREET NORTH,WISCONSIN RAPIDS,RA,54494,9476,http://www.mstc.edu/student-resources/student-services/testing,MID-STATE TECHNICAL COLLEGE,715-422-5443
1100,"5364 COLLEGE DRIVE, HIGHWAY G SOUTH",RHINELANDER,WI,54501,8532,http://www.nicoletcollege.edu/,NICOLET TECHNICAL COLLEGE,715-365-4609
1101,"245 S. EXECUTIVE DRIVE, SUITE 110",BROOKFIELD,WI,53005,8914,http://www.ottawa.edu/,OTTAWA UNIVERSITY - MILWAUKEE,262-879-0200
1102,"9000 WEST CHESTER STREET, SUITE 300",MILWAUKEE,WI,53214,9449,http://www.strayer.edu/,STRAYER UNIVERSITY,414-203-7829
1103,"10850 W. PARK PLACE, STE. 150",MILWAUKEE,WI,53224,8840,http://www.phoenix.edu/,UNIVERSITY OF PHOENIX,414) 410-7950
1104,UNIVERSITY OF WISCONSIN,800 WEST MAIN STREET,WE,2003,9697,262-472-5233,UNIVERSITY OF WISCONSIN,"WHITEWATER, WI   53190"
1105,1800 GRAND AVE,SUPERIOR,WI,54880,9374,http://www.uwsuper.edu/,UNIVERSITY OF WISCONSIN,715-394-8087
1106,"2106 CENTENNIAL HALL, 308 16TH STREET N,",LA CROSSE,CR,54601,9086,http://www.uwlax.edu/,UNIVERSITY OF WISCONSIN - LA CROSSE,608) 785-8074
1107,800 ALGOMA BLVD,OSHKOSH,WI,54901,9372,http://www.uwosh.edu/testing/,UNIVERSITY OF WISCONSIN - OSHKOSH,920-424-0068
1108,802 S BROADWAY410 BOWMAN HALL,MENOMONIE,WI,54751,9505,https://www.uwstout.edu/,UNIVERSITY OF WISCONSIN-STOUT,715-232-2468
1109,"MILWAUKEE CENTER, 620 SOUTH 76TH STREET, SUITE 100",MILWAUKEE,WI,53214,8256,http://www.uiu.edu/,UPPER IOWA UNIVERSITY,414-475-4848
1110,3 POINT PLACE SUITE 150,MADISON,WI,53719,8367,http://www.uiu.edu/,UPPER IOWA UNIVERSITY,608-278-0350
1111,"1000 CAMPUS DRIVE, ROOM A222",WAUSAU,WI,54401,9554,http://www.uiu.edu/,UPPER IOWA UNIVERSITY - WAUSAU CENTER,715-675-2775
1112,"PLEASE REGISTER VIA WEBSITE BELOW800 MAIN STREET, ROOM C020",PEWAUKEE,WI,53072,8051,http://www.wctc.edu/testing,WAUKESHA COUNTY TECHNICAL COLLEGE,262) 695-6215
1113,400 7TH STREET NORTH,LA CROSSE,CR,54601,9183,http://www.westerntc.edu,WESTERN TECHNICAL COLLEGE - LA CROSSE,608) 785-9441
1114,219 ROCK STREET,BLUEFIELD,WV,24701,9095,http://www.bluefield.wvnet.edu/,BLUEFIELD STATE COLLEGE,304-327-4016
1115,ONE JOHN MARSHALL DRIVE,HUNTINGTON,WV,25755,9531,http://www.marshall.edu/,MARSHALL UNIVERSITY,304-696-6387
1116,ONE MOUNTWEST WAY,HUNTINGTON,WV,25701,9512,http://www.mctc.edu/,MOUNTWEST COMMUNITY AND TECHNICAL COLLEGE,304) 710-3386
1117,1201 LOCUST AVE.,FAIRMONT,WV,26554,8024,http://www.pierpont.edu/,PIERPONT COMMUNITY &AMP; TECHNICAL COLLEGE,304-367-4961
1118,100 CORPORATE CENTER DRIVE,SCOTT DEPOT,DE,25560,7881,http://www.strayer.edu/,STRAYER UNIVERSITY,304-760-1729
1119,2300 MACCORKLE AVE SE,CHARLESTON,WV,25304,7780,http://www.ucwv.edu/,UNIVERSITY OF CHARLESTON,304) 347-6983
1120,P. O. BOX 1000,INSTITUTE,WV,25112,9847,http://www.wvsc.edu/,WEST VIRGINIA STATE UNIVERSITY,304-766-3290
1121,700 A STREET,BECKLEY ,WV,25801,8887,http://www.wvu.edu/,WEST VIRGINIA UNIVERSITY - BECKLEY CAMPUS,304) 929-0321
1122,316 WASHINGTON AVENUE,WHEELING,WV,6295,9440,http://www.wju.edu/,WHEELING JESUIT UNIVERSITY,800-873-7665
1123,3200 WEST C STREET,TORRINGTON,WY,82240,9401,http://ewc.wy.edu/,EASTERN WYOMING COLLEGE,307-532-8288
1124,300 WEST SINCLAIR STREET,GILLETTE,WY,82718,9844,http://www.sheridan.edu/,GILLETTE COLLEGE,307-686-0254
1125,1400 E. COLLEGE DRIVE,CHEYENNE,WY,82007,7924,http://www.lccc.wy.edu/,LARAMIE COUNTY COMMUNITY COLLEGE,307) 778-1105
1126,WARREN AFB,CHEYENNE,WY,82005,7131,http://www.lccc.cc.wy.us/,LARAMIE COUNTY COMMUNITY COLLEGE - WARREN AFB BRANCH,307) 778-1105
1127,3059 COFFEEN AVE,SHERIDAN,WY,82801,7260,http://www.sheridan.edu/,SHERIDAN COLLEGE,307) 674-6446
